,name,license_type,city,county,zip
0,10TH AVENUE PHARMACY ,License Type: Pharmacy (Community),LOS ANGELES, LOS ANGELES, 90008
1,2010 PHARMACY ,License Type: Pharmacy (Community),LOS ANGELES, LOS ANGELES, 90057
2,6122 PHARMACY ,License Type: Pharmacy (Community),LOS ANGELES, LOS ANGELES, 90022
3,A & G PHARMACY ,License Type: Pharmacy (Community),LOS ANGELES, LOS ANGELES, 90004
4,A A PHARMACY ,License Type: Pharmacy (Community),LOS ANGELES, LOS ANGELES, 90012
5,AALPHA PHARMACY ,License Type: Pharmacy (Community),LOS ANGELES, LOS ANGELES, 90057
6,ACCESS MEDICAL PHARMACY ,License Type: Pharmacy (Community),LOS ANGELES, LOS ANGELES, 90024
7,AHF PHARMACY ,License Type: Pharmacy (Community),LOS ANGELES, LOS ANGELES, 90022
8,AHF PHARMACY ,License Type: Pharmacy (Community),LOS ANGELES, LOS ANGELES, 90028
9,AIDS HEALTHCARE FOUNDATION ,License Type: Pharmacy (Community),LOS ANGELES, LOS ANGELES, 90027
10,AIDS HEALTHCARE FOUNDATION ,License Type: Pharmacy (Community),LOS ANGELES, LOS ANGELES, 90015
11,ALEXANDER PHARMACY # 1 ,License Type: Pharmacy (Community),LOS ANGELES, LOS ANGELES, 90029
12,ALLURE PHARMACY ,License Type: Pharmacy (Community),LOS ANGELES, LOS ANGELES, 90049
13,ALTAMED PHARMACY ,License Type: Pharmacy (Community),LOS ANGELES, LOS ANGELES, 90023
14,ALTAMED PHARMACY 3 ,License Type: Pharmacy (Community),LOS ANGELES, LOS ANGELES, 90022
15,ALVARADO DRUGS ,License Type: Pharmacy (Community),LOS ANGELES, LOS ANGELES, 90057
16,AMERICAN HEALTH SOLUTIONS PHARMACY INC ,License Type: Pharmacy (Community),LOS ANGELES, LOS ANGELES, 90034
17,APOTHECARY PHARMACY ,License Type: Pharmacy (Community),LOS ANGELES, LOS ANGELES, 90064
18,ARDMORE PHARMACY ,License Type: Pharmacy (Community),LOS ANGELES, LOS ANGELES, 90010
19,ATLANTIC PHARMACY ,License Type: Pharmacy (Community),LOS ANGELES, LOS ANGELES, 90022
20,B & G PHARMACY ,License Type: Pharmacy (Community),LOS ANGELES, LOS ANGELES, 90027
21,BARGAIN OAKHURST PHARMACY ,License Type: Pharmacy (Community),LOS ANGELES, LOS ANGELES, 90035
22,BARRINGTON-WILSHIRE PHARMACY ,License Type: Pharmacy (Community),LOS ANGELES, LOS ANGELES, 90025
23,BEVERLY GLEN PHARMACY ,License Type: Pharmacy (Community),LOS ANGELES, LOS ANGELES, 90077
24,BEVERLY PHARMACY ,License Type: Pharmacy (Community),LOS ANGELES, LOS ANGELES, 90057
25,BEVERLY PHARMACY ,License Type: Pharmacy (Community),LOS ANGELES, LOS ANGELES, 90048
26,BEYOND THE PHARMACY ,License Type: Pharmacy (Community),LOS ANGELES, LOS ANGELES, 90026
27,BIG-1 PHARMACY LA ,License Type: Pharmacy (Community),LOS ANGELES, LOS ANGELES, 90012
28,BIOMED PHARMACY SOLUTIONS ,License Type: Pharmacy (Community),LOS ANGELES, LOS ANGELES, 90048
29,BOTICA DEL PUEBLO ,License Type: Pharmacy (Community),LOS ANGELES, LOS ANGELES, 90057
30,BOTICA DEL SOL ,License Type: Pharmacy (Community),LOS ANGELES, LOS ANGELES, 90033
31,BOTICA SAN JOSE ,License Type: Pharmacy (Community),LOS ANGELES, LOS ANGELES, 90027
32,BOYLE HEIGHTS MEDICAL PHARMACY ,License Type: Pharmacy (Community),LOS ANGELES, LOS ANGELES, 90033
33,BRAVO PHARMACY ,License Type: Pharmacy (Community),LOS ANGELES, LOS ANGELES, 90001
34,BRENT-AIR PHARMACY ,License Type: Pharmacy (Community),LOS ANGELES, LOS ANGELES, 90049
35,BRENTWOOD PLAZA PHARMACY ,License Type: Pharmacy (Community),LOS ANGELES, LOS ANGELES, 90049
36,BRUIN HEALTH PHARMACY ,License Type: Pharmacy (Government Owned Community),LOS ANGELES, LOS ANGELES, 90095
37,CAL MED PHARMACY ,License Type: Pharmacy (Community),LOS ANGELES, LOS ANGELES, 90015
38,"CALIFORNIA ASSISTED PHARMACY, INC. ",License Type: Pharmacy (Community),LOS ANGELES, LOS ANGELES, 90011
39,CALIFORNIA MEDICAL PHARMACY ,License Type: Pharmacy (Community),LOS ANGELES, LOS ANGELES, 90026
40,CAMPUS PHARMACY ,License Type: Pharmacy (Community),LOS ANGELES, LOS ANGELES, 90024
41,CANAAN BOKJEE PHARMACEUTICAL CARE ,License Type: Pharmacy (Community),LOS ANGELES, LOS ANGELES, 90019
42,CARE PHARMACY INC ,License Type: Pharmacy (Community),LOS ANGELES, LOS ANGELES, 90015
43,CAREMAX PHARMACY ,License Type: Pharmacy (Community),LOS ANGELES, LOS ANGELES, 90004
44,CAREMAX PHARMACY #2 ,License Type: Pharmacy (Community),LOS ANGELES, LOS ANGELES, 90037
45,CAREMAX PHARMACY #3 ,License Type: Pharmacy (Community),LOS ANGELES, LOS ANGELES, 90057
46,CAREMAX PHARMACY #4 ,License Type: Pharmacy (Community),LOS ANGELES, LOS ANGELES, 90057
47,CATHAY MEDICAL PHARMACY ,License Type: Pharmacy (Community),Probation Terminated/Completed, LOS ANGELES, 90012
48,CCRX ,License Type: Pharmacy (Community),LOS ANGELES, LOS ANGELES, 90057
49,CDVA VETERANS HOME OF CALIFORNIA - WEST LA ,License Type: Pharmacy (Government Owned Community),LOS ANGELES, LOS ANGELES, 90049
50,CEDARS-SINAI MEDICAL CENTER PHARMACY #3 ,License Type: Pharmacy (Community),LOS ANGELES, LOS ANGELES, 90048
51,CEDARS-SINAI MEDICAL CENTER PHARMACY #4 ,License Type: Pharmacy (Community),LOS ANGELES, LOS ANGELES, 90048
52,CEDARS-SINAI MEDICAL CENTER PHARMACY #6 ,License Type: Pharmacy (Community),LOS ANGELES, LOS ANGELES, 90048
53,CEDARS-SINAI TOWER HEMATOLOGY ONCOLOGY PHARMACY ,License Type: Pharmacy (Community),LOS ANGELES, LOS ANGELES, 90211
54,CENTURY BEVERLY HILLS PHARMACY ,License Type: Pharmacy (Community),LOS ANGELES, LOS ANGELES, 90048
55,CENTURY CITY MEDICAL PLAZA PHY. ,License Type: Pharmacy (Community),Probation Terminated/Completed, LOS ANGELES, 90067
56,CENTURY PHARMACY ,License Type: Pharmacy (Community),Accusation filed, LOS ANGELES, 90025
57,CENTURY PICO PHARMACY INC ,License Type: Pharmacy (Community),LOS ANGELES, LOS ANGELES, 90035
58,CHILDRENS HOSPITAL LOS ANGELES SPECIALTY PHARMACY ,License Type: Pharmacy (Community),LOS ANGELES, LOS ANGELES, 90027
59,CHINATOWN PHARMACY ,License Type: Pharmacy (Community),LOS ANGELES, LOS ANGELES, 90012
60,CITY CARE PHARMACY ,License Type: Pharmacy (Community),LOS ANGELES, LOS ANGELES, 90011
61,CLINICA MSR OSCAR A ROMERO ,License Type: Pharmacy (Community),LOS ANGELES, LOS ANGELES, 90033
62,CLINICA MSR OSCAR A ROMERO ,License Type: Pharmacy (Community),LOS ANGELES, LOS ANGELES, 90057
63,COL PHARMACY ,License Type: Pharmacy (Community),LOS ANGELES, LOS ANGELES, 90033
64,COLLEGE PHARMACY ,License Type: Pharmacy (Community),Probation Terminated/Completed, LOS ANGELES, 90012
65,COLONIAL DRUG ,License Type: Pharmacy (Community),LOS ANGELES, LOS ANGELES, 90027
66,COLORADO MEDICAL PHARMACY ,License Type: Pharmacy (Community),LOS ANGELES, LOS ANGELES, 90041
67,COLORADO PHARMACY ,License Type: Pharmacy (Community),LOS ANGELES, LOS ANGELES, 90041
68,COLUMBUS PHARMACY ,License Type: Pharmacy (Community),LOS ANGELES, LOS ANGELES, 90012
69,COMMUNITY A WALGREENS PHARMACY #16482 ,License Type: Pharmacy (Community),LOS ANGELES, LOS ANGELES, 90033
70,"COMMUNITY, A WALGREENS PHARMACY_#15190 ",License Type: Pharmacy (Community),LOS ANGELES, LOS ANGELES, 90035
71,CORAM CVS/SPECIALTY INFUSION SERVICES ,License Type: Pharmacy (Community),LOS ANGELES, LOS ANGELES, 90065
72,COSTCO WHOLESALE PHARMACY #130 ,License Type: Pharmacy (Community),LOS ANGELES, LOS ANGELES, 90039
73,"COUNTY OF LOS ANGELES, PUBLIC HEALTH PHARMACY DEPT ",License Type: Pharmacy (Government Owned Community),LOS ANGELES, LOS ANGELES, 90012
74,CRENSHAW PHARMACY ,License Type: Pharmacy (Community),LOS ANGELES, LOS ANGELES, 90016
75,CURERX ,License Type: Pharmacy (Community),LOS ANGELES, LOS ANGELES, 90027
76,CURSON PHARMACY ,License Type: Pharmacy (Community),LOS ANGELES, LOS ANGELES, 90046
77,CVS PHARMACY #2396 ,License Type: Pharmacy (Community),LOS ANGELES, LOS ANGELES, 90007
78,CVS PHARMACY #8847 ,License Type: Pharmacy (Community),LOS ANGELES, LOS ANGELES, 90034
79,CVS PHARMACY #8853 ,License Type: Pharmacy (Community),LOS ANGELES, LOS ANGELES, 90002
80,CVS PHARMACY #8875 ,License Type: Pharmacy (Community),LOS ANGELES, LOS ANGELES, 90023
81,CVS PHARMACY #8879 ,License Type: Pharmacy (Community),LOS ANGELES, LOS ANGELES, 90034
82,CVS PHARMACY #8886 ,License Type: Pharmacy (Community),LOS ANGELES, LOS ANGELES, 90045
83,CVS PHARMACY #8892 ,License Type: Pharmacy (Community),LOS ANGELES, LOS ANGELES, 90044
84,CVS PHARMACY #9477 ,License Type: Pharmacy (Community),LOS ANGELES, LOS ANGELES, 90045
85,CVS PHARMACY #9507 ,License Type: Pharmacy (Community),LOS ANGELES, LOS ANGELES, 90059
86,CVS PHARMACY #9531 ,License Type: Pharmacy (Community),LOS ANGELES, LOS ANGELES, 90043
87,CVS PHARMACY #9576 ,License Type: Pharmacy (Community),LOS ANGELES, LOS ANGELES, 90024
88,CVS PHARMACY #9580 ,License Type: Pharmacy (Community),LOS ANGELES, LOS ANGELES, 90016
89,CVS PHARMACY #9582 ,License Type: Pharmacy (Community),LOS ANGELES, LOS ANGELES, 90016
90,CVS PHARMACY #9603 ,License Type: Pharmacy (Community),LOS ANGELES, LOS ANGELES, 90012
91,CVS PHARMACY #9626 ,License Type: Pharmacy (Community),LOS ANGELES, LOS ANGELES, 90006
92,CVS PHARMACY #9660 ,License Type: Pharmacy (Community),LOS ANGELES, LOS ANGELES, 90010
93,CVS PHARMACY #9661 ,License Type: Pharmacy (Community),LOS ANGELES, LOS ANGELES, 90036
94,CVS PHARMACY #9665 ,License Type: Pharmacy (Community),LOS ANGELES, LOS ANGELES, 90042
95,CVS PHARMACY #9666 ,License Type: Pharmacy (Community),LOS ANGELES, LOS ANGELES, 90031
96,CVS PHARMACY #9669 ,License Type: Pharmacy (Community),LOS ANGELES, LOS ANGELES, 90039
97,CVS PHARMACY #9674 ,License Type: Pharmacy (Community),LOS ANGELES, LOS ANGELES, 90012
98,CVS PHARMACY #9685 ,License Type: Pharmacy (Community),LOS ANGELES, LOS ANGELES, 90041
99,CVS PHARMACY #9686 ,License Type: Pharmacy (Community),LOS ANGELES, LOS ANGELES, 90019
100,CVS PHARMACY #9766 ,License Type: Pharmacy (Community),LOS ANGELES, LOS ANGELES, 90025
101,CVS PHARMACY #9781 ,License Type: Pharmacy (Community),LOS ANGELES, LOS ANGELES, 90035
102,CVS PHARMACY NO 5828 ,License Type: Pharmacy (Community),LOS ANGELES, LOS ANGELES, 90024
103,CVS/PHARMACY # 16649 ,License Type: Pharmacy (Community),LOS ANGELES, LOS ANGELES, 90016
104,CVS/PHARMACY # 16747 ,License Type: Pharmacy (Community),LOS ANGELES, LOS ANGELES, 90041
105,CVS/PHARMACY # 17630 ,License Type: Pharmacy (Community),LOS ANGELES, LOS ANGELES, 90024
106,CVS/PHARMACY # 17631 ,License Type: Pharmacy (Community),LOS ANGELES, LOS ANGELES, 90017
107,CVS/PHARMACY # 3825 ,License Type: Pharmacy (Community),LOS ANGELES, LOS ANGELES, 90036
108,CVS/PHARMACY #09398 ,License Type: Pharmacy (Community),LOS ANGELES, LOS ANGELES, 90035
109,CVS/PHARMACY #09503 ,License Type: Pharmacy (Community),LOS ANGELES, LOS ANGELES, 90048
110,CVS/PHARMACY #09563 ,License Type: Pharmacy (Community),LOS ANGELES, LOS ANGELES, 90034
111,CVS/PHARMACY #09985 ,License Type: Pharmacy (Community),LOS ANGELES, LOS ANGELES, 90045
112,CVS/PHARMACY #10292 ,License Type: Pharmacy (Community),LOS ANGELES, LOS ANGELES, 90062
113,CVS/PHARMACY #4019 ,License Type: Pharmacy (Community),LOS ANGELES, LOS ANGELES, 90001
114,CVS/PHARMACY #4524 ,License Type: Pharmacy (Community),LOS ANGELES, LOS ANGELES, 90022
115,CVS/PHARMACY #6976 ,License Type: Pharmacy (Community),LOS ANGELES, LOS ANGELES, 90041
116,CVS/PHARMACY #9144 ,License Type: Pharmacy (Community),LOS ANGELES, LOS ANGELES, 90028
117,CVS/PHARMACY #9212 ,License Type: Pharmacy (Community),LOS ANGELES, LOS ANGELES, 90035
118,CVS/PHARMACY #9325 ,License Type: Pharmacy (Community),LOS ANGELES, LOS ANGELES, 90049
119,DABNEY PHARMACY ,License Type: Pharmacy (Community),Probation, LOS ANGELES, 90061
120,DISCOUNT MEDICAL PHARMACY ,License Type: Pharmacy (Community),LOS ANGELES, LOS ANGELES, 90027
121,DNM PHARMACY ,License Type: Pharmacy (Community),LOS ANGELES, LOS ANGELES, 90048
122,DRUG STOP 22 INC. ,License Type: Pharmacy (Community),LOS ANGELES, LOS ANGELES, 90038
123,EAST LA PHARMACY CORP ,License Type: Pharmacy (Community),LOS ANGELES, LOS ANGELES, 90022
124,ECHMED PHARMACY ,License Type: Pharmacy (Community),LOS ANGELES, LOS ANGELES, 90039
125,ECHO PARK PHARMACY ,License Type: Pharmacy (Community),LOS ANGELES, LOS ANGELES, 90026
126,EDDIE'S PHARMACY ,License Type: Pharmacy (Community),LOS ANGELES, LOS ANGELES, 90048
127,EDEN PHARMACY ,License Type: Pharmacy (Community),LOS ANGELES, LOS ANGELES, 90006
128,EDWARD ROYBAL COMP HEALTH CENTER ,License Type: Pharmacy (Government Owned Community),LOS ANGELES, LOS ANGELES, 90022
129,EISNER PEDIATRIC & FAMILY MEDICAL CENTER ,License Type: Pharmacy (Community),LOS ANGELES, LOS ANGELES, 90015
130,ELITE CARE PHARMACY ,License Type: Pharmacy (Community),LOS ANGELES, LOS ANGELES, 90029
131,ETHICAL DRUG ,License Type: Pharmacy (Community),LOS ANGELES, LOS ANGELES, 90004
132,EVAN PHARMACY ,License Type: Pharmacy (Community),LOS ANGELES, LOS ANGELES, 90012
133,EXPRESS RX ,License Type: Pharmacy (Community),LOS ANGELES, LOS ANGELES, 90026
134,FAIRFAX PHARMACY ,License Type: Pharmacy (Community),LOS ANGELES, LOS ANGELES, 90046
135,FARMACIA SUPERIOR ,License Type: Pharmacy (Community),LOS ANGELES, LOS ANGELES, 90035
136,FLORENCE PHARMACY & MEDICAL SUPPLY ,License Type: Pharmacy (Community),LOS ANGELES, LOS ANGELES, 90001
137,GARFIELD BEACH CVS LLC D/B/A CVS/PHARMACY # 17699 ,License Type: Pharmacy (Community),LOS ANGELES, LOS ANGELES, 90089
138,GARFIELD BEACH CVS LLC D/B/A CVS/PHARMACY # 17703 ,License Type: Pharmacy (Community),LOS ANGELES, LOS ANGELES, 90005
139,GARFIELD BEACH CVS LLC D/B/A CVS/PHARMACY # 17719 ,License Type: Pharmacy (Community),LOS ANGELES, LOS ANGELES, 90065
140,GARFIELD BEACH CVS LLC D/B/A CVS/PHARMACY #10433 ,License Type: Pharmacy (Community),LOS ANGELES, LOS ANGELES, 90028
141,GARFIELD BEACH CVS LLC D/B/A CVS/PHARMACY #10509 ,License Type: Pharmacy (Community),LOS ANGELES, LOS ANGELES, 90063
142,GARFIELD BEACH CVS LLC D/B/A CVS/PHARMACY #10614 ,License Type: Pharmacy (Community),LOS ANGELES, LOS ANGELES, 90017
143,GARFIELD BEACH CVS LLC D/B/A CVS/PHARMACY #10663 ,License Type: Pharmacy (Community),LOS ANGELES, LOS ANGELES, 90007
144,GARFIELD BEACH CVS LLC D/B/A CVS/PHARMACY #10791 ,License Type: Pharmacy (Community),LOS ANGELES, LOS ANGELES, 90046
145,GARFIELD BEACH CVS LLC D/B/A CVS/PHARMACY #10915 ,License Type: Pharmacy (Community),LOS ANGELES, LOS ANGELES, 90011
146,GARFIELD BEACH CVS LLC DBA CVS PHARMACY #10309 ,License Type: Pharmacy (Community),LOS ANGELES, LOS ANGELES, 90014
147,GARFIELD BEACH CVS LLC DBA CVS PHARMACY #10916 ,License Type: Pharmacy (Community),LOS ANGELES, LOS ANGELES, 90046
148,GARFIELD PRESCRIPTION PHARMACY NO 6 ,License Type: Pharmacy (Community),LOS ANGELES, LOS ANGELES, 90008
149,GATEWAY CIRCLE PHARMACY ,License Type: Pharmacy (Community),LOS ANGELES, LOS ANGELES, 90031
150,GATEWAYS HOSPITAL ,License Type: Pharmacy (Community),LOS ANGELES, LOS ANGELES, 90026
151,GOLDEN CARE PHARMACY ,License Type: Pharmacy (Community),LOS ANGELES, LOS ANGELES, 90037
152,GOOD PRICE PHARMACY ,License Type: Pharmacy (Community),LOS ANGELES, LOS ANGELES, 90042
153,GRAND AVE PHARMACY ,License Type: Pharmacy (Community),LOS ANGELES, LOS ANGELES, 90015
154,GRAND PHARMACY INC ,License Type: Pharmacy (Community),LOS ANGELES, LOS ANGELES, 90020
155,GRAND SPECIALTY PHARMACY ,License Type: Pharmacy (Community),LOS ANGELES, LOS ANGELES, 90015
156,H CLAUDE HUDSON COMPREHENSIVE HEALTH CENTER ,License Type: Pharmacy (Government Owned Community),LOS ANGELES, LOS ANGELES, 90007
157,H.K. PHARMACY CORP. ,License Type: Pharmacy (Community),LOS ANGELES, LOS ANGELES, 90004
158,HANMI PHARMACY INC ,License Type: Pharmacy (Community),LOS ANGELES, LOS ANGELES, 90020
159,HARVARD PHARMACY ,License Type: Pharmacy (Community),LOS ANGELES, LOS ANGELES, 90006
160,HEALTH GUARD PHARMACY ,License Type: Pharmacy (Community),LOS ANGELES, LOS ANGELES, 90033
161,HK GALLERIA PHARMACY INC ,License Type: Pharmacy (Community),LOS ANGELES, LOS ANGELES, 90006
162,HOLLYWOOD PRESBYTERIAN MEDICAL CENTER ,License Type: Pharmacy (Community),LOS ANGELES, LOS ANGELES, 90027
163,HORTON & CONVERSE PHARMACY ,License Type: Pharmacy (Community),LOS ANGELES, LOS ANGELES, 90025
164,HORTON & CONVERSE PHARMACY ,License Type: Pharmacy (Community),LOS ANGELES, LOS ANGELES, 90069
165,HORTON & CONVERSE PHARMACY ,License Type: Pharmacy (Community),LOS ANGELES, LOS ANGELES, 90048
166,HORTON & CONVERSE PHARMACY ,License Type: Pharmacy (Community),LOS ANGELES, LOS ANGELES, 90067
167,HUBERT H HUMPHREY COMP HEALTH CTR ,License Type: Pharmacy (Government Owned Community),LOS ANGELES, LOS ANGELES, 90003
168,HYE PHARMACY INC ,License Type: Pharmacy (Community),LOS ANGELES, LOS ANGELES, 90029
169,HYUNDAI DRUGS ,License Type: Pharmacy (Community),LOS ANGELES, LOS ANGELES, 90020
170,IMPERIAL OF WESTWOOD PHARMACY ,License Type: Pharmacy (Community),LOS ANGELES, LOS ANGELES, 90025
171,IV MED SERVICES ,License Type: Pharmacy (Community),LOS ANGELES, LOS ANGELES, 90045
172,JANA HEALTHCARE PHARMACY ,License Type: Pharmacy (Community),LOS ANGELES, LOS ANGELES, 90038
173,JAYS DRUG ,License Type: Pharmacy (Community),LOS ANGELES, LOS ANGELES, 90006
174,JEFFREY GOODMAN SPECIAL CARE CLINIC PHY ,License Type: Pharmacy (Community),LOS ANGELES, LOS ANGELES, 90028
175,KAISER FDN HSP PHY OUT ,License Type: Pharmacy (Community),LOS ANGELES, LOS ANGELES, 90034
176,KAISER PERMANENTE PHARMACY ,License Type: Pharmacy (Community),LOS ANGELES, LOS ANGELES, 90027
177,KAISER PERMANENTE PHARMACY ,License Type: Pharmacy (Community),LOS ANGELES, LOS ANGELES, 90066
178,KAISER PERMANENTE PHARMACY #002 ,License Type: Pharmacy (Community),LOS ANGELES, LOS ANGELES, 90027
179,KAISER PERMANENTE PHARMACY #005C ,License Type: Pharmacy (Community),LOS ANGELES, LOS ANGELES, 90027
180,KAISER PERMANENTE PHARMACY #014 ,License Type: Pharmacy (Community),LOS ANGELES, LOS ANGELES, 90027
181,KAISER PERMANENTE PHARMACY #019 ,License Type: Pharmacy (Community),LOS ANGELES, LOS ANGELES, 90027
182,KAISER PERMANENTE PHARMACY #019C ,License Type: Pharmacy (Community),LOS ANGELES, LOS ANGELES, 90027
183,KAISER PERMANENTE PHARMACY #305C - RM 4644 ,License Type: Pharmacy (Community),LOS ANGELES, LOS ANGELES, 90034
184,KAISER PERMANENTE PHARMACY #336 ,License Type: Pharmacy (Community),LOS ANGELES, LOS ANGELES, 90047
185,KAISER PERMANENTE PHARMACY #338 ,License Type: Pharmacy (Community),LOS ANGELES, LOS ANGELES, 90008
186,KAISER PERMANENTE PHARMACY 004 ,License Type: Pharmacy (Community),LOS ANGELES, LOS ANGELES, 90027
187,KAISER PERMANENTE PHARMACY 027 ,License Type: Pharmacy (Community),LOS ANGELES, LOS ANGELES, 90027
188,KEY DRUG COMPANY ,License Type: Pharmacy (Community),LOS ANGELES, LOS ANGELES, 90301
189,KING PHARMACY ,License Type: Pharmacy (Community),LOS ANGELES, LOS ANGELES, 90023
190,KINGSLEY PHARMACY ,License Type: Pharmacy (Community),LOS ANGELES, LOS ANGELES, 90020
191,KORYO PHARMACY ,License Type: Pharmacy (Community),LOS ANGELES, LOS ANGELES, 90006
192,KROGER SPECIALTY PHARMACY CA 2 ,License Type: Pharmacy (Community),LOS ANGELES, LOS ANGELES, 90048
193,KT PLAZA PHARMACY ,License Type: Pharmacy (Community),LOS ANGELES, LOS ANGELES, 90006
194,KYOTO PHARMACY ,License Type: Pharmacy (Community),LOS ANGELES, LOS ANGELES, 90013
195,LA COUNTY PROB DPT MED DIV PHCY ,License Type: Correctional Pharmacy,LOS ANGELES, LOS ANGELES, 90033
196,LA COUNTY SHERIFF'S DEPT-CENTRAL JAIL PHARMACY ,License Type: Correctional Pharmacy,LOS ANGELES, LOS ANGELES, 90012
197,LAC-USC MEDICAL CENTER PHARMACY ,License Type: Pharmacy (Government Owned Community),LOS ANGELES, LOS ANGELES, 90033
198,LEE'S DISCOUNT DRUG ,License Type: Pharmacy (Community),LOS ANGELES, LOS ANGELES, 90006
199,LG PHARMACY INC ,License Type: Pharmacy (Community),LOS ANGELES, LOS ANGELES, 90027
200,LINCOLN HEIGHTS PHARMACY ,License Type: Pharmacy (Community),LOS ANGELES, LOS ANGELES, 90031
201,LITTLE TOKYO PHARMACY ,License Type: Pharmacy (Community),LOS ANGELES, LOS ANGELES, 90012
202,LORENA PHARMACY ,License Type: Pharmacy (Community),LOS ANGELES, LOS ANGELES, 90023
203,LOS ANGELES CHRISTIAN HEALTH CENTER ,License Type: Pharmacy (Community),LOS ANGELES, LOS ANGELES, 90033
204,LOS ANGELES COUNTY HEALTH SERVICES CENTRAL PHARMACY ,License Type: Pharmacy (Government Owned Community),LOS ANGELES, LOS ANGELES, 90012
205,LOS ANGELES COUNTY/USC MEDICAL CENTER ,License Type: Pharmacy (Government Owned Community),Public Reprimand, LOS ANGELES, 90033
206,LOS ANGELES DRUGS ,License Type: Pharmacy (Community),LOS ANGELES, LOS ANGELES, 90006
207,LOVVIT PHARMACY ,License Type: Pharmacy (Community),LOS ANGELES, LOS ANGELES, 90031
208,M & S PHARMACY ,License Type: Pharmacy (Community),LOS ANGELES, LOS ANGELES, 90066
209,MADERX PHARMACY ,License Type: Pharmacy (Community),LOS ANGELES, LOS ANGELES, 90064
210,MANCHESTER PROFESSIONAL PHARMACY ,License Type: Pharmacy (Community),LOS ANGELES, LOS ANGELES, 90044
211,MARCO'S FARMACIA ,License Type: Pharmacy (Community),LOS ANGELES, LOS ANGELES, 90022
212,MARIPOSA PHARMACY ,License Type: Pharmacy (Community),LOS ANGELES, LOS ANGELES, 90006
213,"MARTIN LUTHER KING, JR OUTPATIENT CENTER PHARMACY ",License Type: Pharmacy (Government Owned Community),LOS ANGELES, LOS ANGELES, 90059
214,MARTIN PHARMACY ,License Type: Pharmacy (Community),LOS ANGELES, LOS ANGELES, 90005
215,MEDICINE SHOPPE ,License Type: Pharmacy (Community),LOS ANGELES, LOS ANGELES, 90034
216,MEDICO PHARMACY ,License Type: Pharmacy (Community),LOS ANGELES, LOS ANGELES, 90025
217,MEDX MEDICAL SUPPLY & PHARMACY ,License Type: Pharmacy (Community),LOS ANGELES, LOS ANGELES, 90039
218,MEKAGREEN ,License Type: Pharmacy (Community),LOS ANGELES, LOS ANGELES, 90007
219,MENS HEALTH FOUNDATION ,License Type: Pharmacy (Community),LOS ANGELES, LOS ANGELES, 90069
220,MICKEY FINE PHARMACY & SNACK SHOP ,License Type: Pharmacy (Community),LOS ANGELES, LOS ANGELES, 90067
221,MID-WEST MEDICAL PHARMACY ,License Type: Pharmacy (Community),LOS ANGELES, LOS ANGELES, 90048
222,MINI PHARMACY ,License Type: Pharmacy (Community),LOS ANGELES, LOS ANGELES, 90021
223,MOLINA'S PHARMACY ,License Type: Pharmacy (Community),LOS ANGELES, LOS ANGELES, 90023
224,MORNINGSIDE MEDICAL PHARMACY INC ,License Type: Pharmacy (Community),LOS ANGELES, LOS ANGELES, 90047
225,MOTHER'S CARE PHARMACY ,License Type: Pharmacy (Community),LOS ANGELES, LOS ANGELES, 90020
226,MOTHERS PHARMACY & NUTRITION ,License Type: Pharmacy (Community),LOS ANGELES, LOS ANGELES, 90057
227,MY PHARMACIST ON CALL ,License Type: Pharmacy (Community),LOS ANGELES, LOS ANGELES, 90023
228,NOFEL PHARMACY ,License Type: Pharmacy (Community),LOS ANGELES, LOS ANGELES, 90014
229,NORMANDY PHARMACY ,License Type: Pharmacy (Community),LOS ANGELES, LOS ANGELES, 90006
230,NORMANDY PHARMACY INC ,License Type: Pharmacy (Community),LOS ANGELES, LOS ANGELES, 90027
231,NORTHEAST CLINIC PHARMACY ,License Type: Pharmacy (Community),LOS ANGELES, LOS ANGELES, 90032
232,NOUBAR'S EL ADOBE PHARMACY INC ,License Type: Pharmacy (Community),LOS ANGELES, LOS ANGELES, 90027
233,NOUBAR'S EL ADOBE PHARMACY INC ,License Type: Pharmacy (Community),LOS ANGELES, LOS ANGELES, 90057
234,OLIVE BRANCH PHARMACY ,License Type: Pharmacy (Community),LOS ANGELES, LOS ANGELES, 90011
235,OLIVE BRANCH PHARMACY ,License Type: Pharmacy (Community),LOS ANGELES, LOS ANGELES, 90011
236,OLIVE HILL PHARMACY ,License Type: Pharmacy (Community),LOS ANGELES, LOS ANGELES, 90012
237,OLYMPIA PLAZA PHARMACY INC ,License Type: Pharmacy (Community),LOS ANGELES, LOS ANGELES, 90036
238,ORTHOPAEDIC HOSPITAL OUTPATIENT PHY ,License Type: Pharmacy (Community),LOS ANGELES, LOS ANGELES, 90007
239,PACIFIC DRUGS ,License Type: Pharmacy (Community),LOS ANGELES, LOS ANGELES, 90033
240,PARK MESA PHARMACY ,License Type: Pharmacy (Community),LOS ANGELES, LOS ANGELES, 90043
241,PARKVIEW PHARMACY ,License Type: Pharmacy (Community),LOS ANGELES, LOS ANGELES, 90003
242,PAVILIONS  PHARMACY #2229 ,License Type: Pharmacy (Community),LOS ANGELES, LOS ANGELES, 90038
243,PETICUB ,License Type: Pharmacy (Community),LOS ANGELES, LOS ANGELES, 90035
244,PHARMACA INTEGRATIVE PHARMACY INC ,License Type: Pharmacy (Community),LOS ANGELES, LOS ANGELES, 90049
245,PHARMACY 2000 ,License Type: Pharmacy (Community),LOS ANGELES, LOS ANGELES, 90024
246,PHARMACY OF THE STARS ,License Type: Pharmacy (Community),LOS ANGELES, LOS ANGELES, 90067
247,PICO SQUARE PHARMACY ,License Type: Pharmacy (Community),LOS ANGELES, LOS ANGELES, 90006
248,PICO UNION PHARMACY ,License Type: Pharmacy (Community),LOS ANGELES, LOS ANGELES, 90015
249,PICWOOD PHARMACY ,License Type: Pharmacy (Community),LOS ANGELES, LOS ANGELES, 90064
250,PING ON MEDICAL PHARMACY ,License Type: Pharmacy (Community),LOS ANGELES, LOS ANGELES, 90012
251,PING ON PHARMACY ,License Type: Pharmacy (Community),LOS ANGELES, LOS ANGELES, 90012
252,PLATINUM PHARMACY INC ,License Type: Pharmacy (Community),LOS ANGELES, LOS ANGELES, 90024
253,PLAZA WEST PHARMACY ,License Type: Pharmacy (Community),LOS ANGELES, LOS ANGELES, 90045
254,PMQ PHARMACY 1 ,License Type: Pharmacy (Community),LOS ANGELES, LOS ANGELES, 90013
255,PORTOLA PHARMACY ,License Type: Pharmacy (Community),LOS ANGELES, LOS ANGELES, 90032
256,PRIME PHARMACY SERVICES INC ,License Type: Pharmacy (Community),LOS ANGELES, LOS ANGELES, 90011
257,QUALICARE PHARMACY SERVICES ,License Type: Pharmacy (Community),LOS ANGELES, LOS ANGELES, 90062
258,QUEENSCARE HEALTH CENTER PHARMACY - EAST 3RD STREET ,License Type: Pharmacy (Community),LOS ANGELES, LOS ANGELES, 90022
259,QUEENSCARE HEALTH CENTER PHARMACY - HOLLYWOOD ,License Type: Pharmacy (Community),LOS ANGELES, LOS ANGELES, 90029
260,RALPHS PHARMACY 70300016 ,License Type: Pharmacy (Community),LOS ANGELES, LOS ANGELES, 90005
261,RALPHS PHARMACY 70300022 ,License Type: Pharmacy (Community),LOS ANGELES, LOS ANGELES, 90015
262,RALPHS PHARMACY 70300032 ,License Type: Pharmacy (Community),LOS ANGELES, LOS ANGELES, 90020
263,RALPHS PHARMACY 70300039 ,License Type: Pharmacy (Community),LOS ANGELES, LOS ANGELES, 90036
264,RALPHS PHARMACY 70300206 ,License Type: Pharmacy (Community),LOS ANGELES, LOS ANGELES, 90027
265,RALPHS PHARMACY 70300210 ,License Type: Pharmacy (Community),LOS ANGELES, LOS ANGELES, 90064
266,RALPHS PHARMACY 70300289 ,License Type: Pharmacy (Community),LOS ANGELES, LOS ANGELES, 90036
267,RALPHS PHARMACY 70300759 ,License Type: Pharmacy (Community),LOS ANGELES, LOS ANGELES, 90024
268,RAMIREZ PHARMACY ,License Type: Pharmacy (Community),LOS ANGELES, LOS ANGELES, 90033
269,RANCHO PARK PHARMACY ,License Type: Pharmacy (Community),LOS ANGELES, LOS ANGELES, 90064
270,RELIABLE CARE PHARMACY ,License Type: Pharmacy (Community),LOS ANGELES, LOS ANGELES, 90057
271,REXMED PHARMACY ,License Type: Pharmacy (Community),LOS ANGELES, LOS ANGELES, 90022
272,RITE AID #6491 ,License Type: Pharmacy (Community),LOS ANGELES, LOS ANGELES, 90028
273,RITE AID 5423 ,License Type: Pharmacy (Community),LOS ANGELES, LOS ANGELES, 90001
274,RITE AID 5424 ,License Type: Pharmacy (Community),LOS ANGELES, LOS ANGELES, 90004
275,RITE AID 5425 ,License Type: Pharmacy (Community),LOS ANGELES, LOS ANGELES, 90020
276,RITE AID 5426 ,License Type: Pharmacy (Community),LOS ANGELES, LOS ANGELES, 90006
277,RITE AID 5429 ,License Type: Pharmacy (Community),Probation, LOS ANGELES, 90013
278,RITE AID 5430 ,License Type: Pharmacy (Community),LOS ANGELES, LOS ANGELES, 90015
279,RITE AID 5433 ,License Type: Pharmacy (Community),LOS ANGELES, LOS ANGELES, 90024
280,RITE AID 5434 ,License Type: Pharmacy (Community),LOS ANGELES, LOS ANGELES, 90026
281,RITE AID 5439 ,License Type: Pharmacy (Community),LOS ANGELES, LOS ANGELES, 90029
282,RITE AID 5440 ,License Type: Pharmacy (Community),LOS ANGELES, LOS ANGELES, 90031
283,RITE AID 5441 ,License Type: Pharmacy (Community),LOS ANGELES, LOS ANGELES, 90034
284,RITE AID 5445 ,License Type: Pharmacy (Community),LOS ANGELES, LOS ANGELES, 90037
285,RITE AID 5448 ,License Type: Pharmacy (Community),LOS ANGELES, LOS ANGELES, 90065
286,RITE AID 5450 ,License Type: Pharmacy (Community),LOS ANGELES, LOS ANGELES, 90042
287,RITE AID 5451 ,License Type: Pharmacy (Community),LOS ANGELES, LOS ANGELES, 90043
288,RITE AID 5452 ,License Type: Pharmacy (Community),LOS ANGELES, LOS ANGELES, 90046
289,RITE AID 5455 ,License Type: Pharmacy (Community),LOS ANGELES, LOS ANGELES, 90059
290,RITE AID 5456 ,License Type: Pharmacy (Community),LOS ANGELES, LOS ANGELES, 92211
291,RITE AID 5457 ,License Type: Pharmacy (Community),LOS ANGELES, LOS ANGELES, 90066
292,RITE AID 5458 ,License Type: Pharmacy (Community),LOS ANGELES, LOS ANGELES, 90016
293,RITE AID 6211 ,License Type: Pharmacy (Community),LOS ANGELES, LOS ANGELES, 90036
294,RITE AID NO 5435 ,License Type: Pharmacy (Community),LOS ANGELES, LOS ANGELES, 90027
295,RITE AID NO 5454 ,License Type: Pharmacy (Community),LOS ANGELES, LOS ANGELES, 90017
296,RITE AID NO 6288 ,License Type: Pharmacy (Community),LOS ANGELES, LOS ANGELES, 90019
297,RITE AID NO 6383 ,License Type: Pharmacy (Community),LOS ANGELES, LOS ANGELES, 90017
298,ROBERT BURNS BEVERLY HILLS MED TWR PHY ,License Type: Pharmacy (Community),LOS ANGELES, LOS ANGELES, 90035
299,ROBERTSON SPECIALTY PHARMACY ,License Type: Pharmacy (Community),LOS ANGELES, LOS ANGELES, 90035
300,RONALD REAGAN UCLA OUTPATIENT PHARMACY ,License Type: Pharmacy (Government Owned Community),LOS ANGELES, LOS ANGELES, 90095
301,ROYAL CARE PHARMACY ,License Type: Pharmacy (Community),LOS ANGELES, LOS ANGELES, 90046
302,S AND S PHARMACY ,License Type: Pharmacy (Community),LOS ANGELES, LOS ANGELES, 90065
303,SABAN COMMUNITY CLINIC ,License Type: Pharmacy (Community),LOS ANGELES, LOS ANGELES, 90048
304,SABAN COMMUNITY CLINIC PHARMACY ,License Type: Pharmacy (Community),LOS ANGELES, LOS ANGELES, 90038
305,SAL PHARMACY ,License Type: Pharmacy (Community),LOS ANGELES, LOS ANGELES, 90048
306,SAMARITAN MEDICAL TOWER PHARMACY ,License Type: Pharmacy (Community),LOS ANGELES, LOS ANGELES, 90017
307,SAMSUNG CARE PHARMACY ,License Type: Pharmacy (Community),LOS ANGELES, LOS ANGELES, 90006
308,SAV-ON PHARMACY #387 ,License Type: Pharmacy (Community),LOS ANGELES, LOS ANGELES, 90027
309,SAV-ON PHARMACY #4131 ,License Type: Pharmacy (Community),LOS ANGELES, LOS ANGELES, 90008
310,SERRANO MEDICAL PHARMACY ,License Type: Pharmacy (Community),Probation Terminated/Completed, LOS ANGELES, 90020
311,SERV-U PHARMACY ,License Type: Pharmacy (Community),LOS ANGELES, LOS ANGELES, 90006
312,SHYN'S PHARMACY INC ,License Type: Pharmacy (Community),LOS ANGELES, LOS ANGELES, 90020
313,SILOAM PHARMACY ,License Type: Pharmacy (Community),Probation Terminated/Completed, LOS ANGELES, 90006
314,SIMON'S DISCOUNT PHARMACY ,License Type: Pharmacy (Community),LOS ANGELES, LOS ANGELES, 90046
315,SMITH PHARMACY ,License Type: Pharmacy (Community),LOS ANGELES, LOS ANGELES, 90006
316,SMITH PHARMACY INC ,License Type: Pharmacy (Community),LOS ANGELES, LOS ANGELES, 90029
317,SOUTH CENTRAL FAMILY HEALTH CENTER PHARMACY ,License Type: Pharmacy (Community),LOS ANGELES, LOS ANGELES, 90011
318,SOUTH WESTERN PHARMACY ,License Type: Pharmacy (Community),LOS ANGELES, LOS ANGELES, 90047
319,SPAULDING PHARMACY ,License Type: Pharmacy (Community),LOS ANGELES, LOS ANGELES, 90046
320,ST LUKE PHARMACY #5 ,License Type: Pharmacy (Community),LOS ANGELES, LOS ANGELES, 90023
321,ST. JOHN'S WELL CHILD AND FAMILY CENTER PHARMACY ,License Type: Pharmacy (Community),LOS ANGELES, LOS ANGELES, 90037
322,ST. LOUIS CO ,License Type: Pharmacy (Community),LOS ANGELES, LOS ANGELES, 90033
323,STOCKER RX PHARMACY ,License Type: Pharmacy (Community),LOS ANGELES, LOS ANGELES, 90008
324,STUDENT HEALTH CENTER ,License Type: Pharmacy (Government Owned Community),LOS ANGELES, LOS ANGELES, 90032
325,SUN DRUG CO ,License Type: Pharmacy (Community),LOS ANGELES, LOS ANGELES, 90027
326,SUNSHINE PHARMACY ,License Type: Pharmacy (Community),Probation, LOS ANGELES, 90036
327,SYDS PHARMACY ,License Type: Pharmacy (Community),LOS ANGELES, LOS ANGELES, 90036
328,TAI ON PHARMACY ,License Type: Pharmacy (Community),LOS ANGELES, LOS ANGELES, 90012
329,TFC PHARMACY ,License Type: Pharmacy (Community),LOS ANGELES, LOS ANGELES, 90056
330,THE CHARLES DREW UNIVERSITY PHARMACY ,License Type: Pharmacy (Community),LOS ANGELES, LOS ANGELES, 90059
331,THE PHARMACY ,License Type: Pharmacy (Community),LOS ANGELES, LOS ANGELES, 90059
332,THE PHARMACY DEPOT ,License Type: Pharmacy (Community),LOS ANGELES, LOS ANGELES, 90019
333,TOTAL REMEDY AND PRESCRIPTION CENTER ,License Type: Pharmacy (Community),LOS ANGELES, LOS ANGELES, 90017
334,TWIN TOWERS CORRECTIONAL FACILITY ,License Type: Correctional Pharmacy,LOS ANGELES, LOS ANGELES, 90012
335,U S C PHARMACY ,License Type: Pharmacy (Community),LOS ANGELES, LOS ANGELES, 90089
336,UCLA MED CTR CHS OUTPATIENT PHARMACY ,License Type: Pharmacy (Government Owned Community),LOS ANGELES, LOS ANGELES, 90095
337,UCLA MED CTR MEDICAL PLAZA LEVEL 1 PHY ,License Type: Pharmacy (Government Owned Community),LOS ANGELES, LOS ANGELES, 90095
338,UCLA MED CTR MEDICAL PLAZA LVL IV PHY ,License Type: Pharmacy (Government Owned Community),LOS ANGELES, LOS ANGELES, 90095
339,UCLA WEST MEDICAL PHARMACY ,License Type: Pharmacy (Government Owned Community),LOS ANGELES, LOS ANGELES, 90095
340,UMC PHARMACY ,License Type: Pharmacy (Community),LOS ANGELES, LOS ANGELES, 90029
341,UNITED PHARMACY ,License Type: Pharmacy (Community),LOS ANGELES, LOS ANGELES, 90035
342,UNIVERSAL DRUGS ,License Type: Pharmacy (Community),LOS ANGELES, LOS ANGELES, 90027
343,UPTOWN DRUG & GIFT SHOPPE ,License Type: Pharmacy (Community),LOS ANGELES, LOS ANGELES, 90071
344,US PRECISION PHARMACY ,License Type: Pharmacy (Community),LOS ANGELES, LOS ANGELES, 90064
345,USC HEALTH CENTER PHARMACY ,License Type: Pharmacy (Community),LOS ANGELES, LOS ANGELES, 90089
346,USC I.D.S. PHARMACY ,License Type: Pharmacy (Community),LOS ANGELES, LOS ANGELES, 90089
347,USC MEDICAL PLAZA PHARMACY ,License Type: Pharmacy (Community),LOS ANGELES, LOS ANGELES, 90033
348,VENICE PHARMACY INC ,License Type: Pharmacy (Community),LOS ANGELES, LOS ANGELES, 90006
349,VERMONT GALLERIA PHARMACY INC ,License Type: Pharmacy (Community),LOS ANGELES, LOS ANGELES, 90020
350,VERMONT V.O. PHARMACY ,License Type: Pharmacy (Community),LOS ANGELES, LOS ANGELES, 90006
351,"VERNBRO MEDICAL PHARMACY, INC. ",License Type: Pharmacy (Community),LOS ANGELES, LOS ANGELES, 90037
352,VERNON-CENTRAL BOTICA PHARMACY ,License Type: Pharmacy (Community),LOS ANGELES, LOS ANGELES, 90011
353,VERNON-MAIN PHARMACY ,License Type: Pharmacy (Community),LOS ANGELES, LOS ANGELES, 90037
354,VIA CARE COMMUNITY HEALTH CENTER PHARMACY ,License Type: Pharmacy (Community),LOS ANGELES, LOS ANGELES, 90022
355,VIRGIL PHARMACY ,License Type: Pharmacy (Community),LOS ANGELES, LOS ANGELES, 90020
356,VONS PHARMACY #2261 ,License Type: Pharmacy (Community),LOS ANGELES, LOS ANGELES, 90005
357,VONS PHARMACY #2655 ,License Type: Pharmacy (Community),LOS ANGELES, LOS ANGELES, 90041
358,VONS PHARMACY #2665 ,License Type: Pharmacy (Community),LOS ANGELES, LOS ANGELES, 90027
359,WALGREENS #05879 ,License Type: Pharmacy (Community),LOS ANGELES, LOS ANGELES, 90020
360,WALGREENS #06445 ,License Type: Pharmacy (Community),LOS ANGELES, LOS ANGELES, 90035
361,WALGREENS #06516 ,License Type: Pharmacy (Community),LOS ANGELES, LOS ANGELES, 90036
362,WALGREENS #06854 ,License Type: Pharmacy (Community),LOS ANGELES, LOS ANGELES, 90041
363,WALGREENS #06931 ,License Type: Pharmacy (Community),LOS ANGELES, LOS ANGELES, 90025
364,WALGREENS #07016 ,License Type: Pharmacy (Community),LOS ANGELES, LOS ANGELES, 90016
365,WALGREENS #07036 ,License Type: Pharmacy (Community),LOS ANGELES, LOS ANGELES, 90027
366,WALGREENS #07482 ,License Type: Pharmacy (Community),LOS ANGELES, LOS ANGELES, 90047
367,WALGREENS #09136 ,License Type: Pharmacy (Community),LOS ANGELES, LOS ANGELES, 90026
368,WALGREENS #11449 ,License Type: Pharmacy (Community),LOS ANGELES, LOS ANGELES, 90027
369,WALGREENS #12057 ,License Type: Pharmacy (Community),LOS ANGELES, LOS ANGELES, 90038
370,WALGREENS #12419 ,License Type: Pharmacy (Community),LOS ANGELES, LOS ANGELES, 90064
371,WALGREENS #12460 ,License Type: Pharmacy (Community),LOS ANGELES, LOS ANGELES, 90017
372,WALGREENS #12529 ,License Type: Pharmacy (Community),LOS ANGELES, LOS ANGELES, 90033
373,WALGREENS #12881 ,License Type: Pharmacy (Community),LOS ANGELES, LOS ANGELES, 90013
374,WALGREENS #12913 ,License Type: Pharmacy (Community),LOS ANGELES, LOS ANGELES, 90001
375,WALGREENS #15278 ,License Type: Pharmacy (Community),LOS ANGELES, LOS ANGELES, 90028
376,WALGREENS #16368 ,License Type: Pharmacy (Community),LOS ANGELES, LOS ANGELES, 90016
377,WATTS PROFESSIONAL PHARMACY ,License Type: Pharmacy (Community),LOS ANGELES, LOS ANGELES, 90002
378,WESTCHESTER PHARMACY ,License Type: Pharmacy (Community),LOS ANGELES, LOS ANGELES, 90045
379,WESTERN MEDICAL PHARMACY ,License Type: Pharmacy (Community),LOS ANGELES, LOS ANGELES, 90029
380,WESTLAKE PHARMACY ,License Type: Pharmacy (Community),LOS ANGELES, LOS ANGELES, 90057
381,WESTSIDE MEDICAL PHARMACY ,License Type: Pharmacy (Community),LOS ANGELES, LOS ANGELES, 90024
382,WESTSIDE PHARMACY ,License Type: Pharmacy (Community),LOS ANGELES, LOS ANGELES, 90025
383,WESTWOOD CENTER PHARMACY ,License Type: Pharmacy (Community),LOS ANGELES, LOS ANGELES, 90024
384,WHITE MEMORIAL MEDICAL PLAZA PHARMACY ,License Type: Pharmacy (Community),LOS ANGELES, LOS ANGELES, 90033
385,WILSHIRE GRAND PHARMACY ,License Type: Pharmacy (Community),LOS ANGELES, LOS ANGELES, 90010
386,WILSHIRE LA JOLLA PHARMACY INC ,License Type: Pharmacy (Community),LOS ANGELES, LOS ANGELES, 90048
387,WILSHIRE-WESTGATE MEDICAL PHARMACY ,License Type: Pharmacy (Community),LOS ANGELES, LOS ANGELES, 90025
388,WILTON CARE PHARMACY ,License Type: Pharmacy (Community),LOS ANGELES, LOS ANGELES, 90028
389,WILTON PHARMACY ,License Type: Pharmacy (Community),LOS ANGELES, LOS ANGELES, 90019
390,WOORI PHARMACY ,License Type: Pharmacy (Community),LOS ANGELES, LOS ANGELES, 90004
391,YEH'S PHARMACY II ,License Type: Pharmacy (Community),LOS ANGELES, LOS ANGELES, 90006
392,YORK DISCOUNT PHARMACY ,License Type: Pharmacy (Community),LOS ANGELES, LOS ANGELES, 90042
393,ZENITH PHARMACY ,License Type: Pharmacy (Community),LOS ANGELES, LOS ANGELES, 90004
394,ZION DRUG ,License Type: Pharmacy (Community),LOS ANGELES, LOS ANGELES, 90020
