name,license_type,county,city,zip
2010 PHARMACY ,License Type: Pharmacy (Community),WESTMINSTER, ORANGE, 92683
A PLUS PHARMACY ,License Type: Pharmacy (Community),BUENA PARK, ORANGE, 90620
A1CARE PHARMACY ,License Type: Pharmacy (Community),SANTA ANA, ORANGE, 92705
AAA COMMUNITY PHARMACY ,License Type: Pharmacy (Community),WESTMINSTER, ORANGE, 92683
ABC PHARMACY ,License Type: Pharmacy (Community),LAGUNA HILLS, ORANGE, 92653
ACACIA PHARMACY ,License Type: Pharmacy (Community),GARDEN GROVE, ORANGE, 92840
ACARE PHARMACY ,License Type: Pharmacy (Community),ANAHEIM, ORANGE, 92804
ACTIVE CARE PHARMACY ,License Type: Pharmacy (Community),FOUNTAIN VALLEY, ORANGE, 92708
ADVANCED HEALTHCARE PHARMACY ,License Type: Pharmacy (Community),GARDEN GROVE, ORANGE, 92843
ADVANCED PHARMACY SOLUTIONS ,License Type: Pharmacy (Community),LAGUNA HILLS, ORANGE, 92653
AHCS SPECIALTY CARE ,License Type: Pharmacy (Community),GARDEN GROVE, ORANGE, 92845
ALLCARE PHARMACY #3 ,License Type: Pharmacy (Community),SANTA ANA, ORANGE, 92701
ALLIANCE PHARMACY INC ,License Type: Pharmacy (Community),ANAHEIM, ORANGE, 92802
ALOHA PHARMACY ,License Type: Pharmacy (Community),WESTMINSTER, ORANGE, 92683
ALPHA DRUGS ,License Type: Pharmacy (Community),ANAHEIM, ORANGE, 92804
ALPHA PHARMACY ,License Type: Pharmacy (Community),ANAHEIM, ORANGE, 92804
ALTAMED PHARMACY 4 ,License Type: Pharmacy (Community),GARDEN GROVE, ORANGE, 92840
ALTAMED PHARMACY 5 ,License Type: Pharmacy (Community),ANAHEIM, ORANGE, 92801
ALTO PHARMACY ,License Type: Pharmacy (Community),IRVINE, ORANGE, 92618
AMERIPHARMA ,License Type: Pharmacy (Community),ORANGE, ORANGE, 92868
AMERIPHARMA SPECIALTY CARE ,License Type: Pharmacy (Community),ORANGE, ORANGE, 92868
AN PHARMACY ,License Type: Pharmacy (Community),GARDEN GROVE, ORANGE, 92843
ANA PHARMACY ,License Type: Pharmacy (Community),GARDEN GROVE, ORANGE, 92843
ANAHEIM HILLS MEDICAL PHARMACY ,License Type: Pharmacy (Community),ANAHEIM HILLS, ORANGE, 92807
ANAHEIM PHARMACY ,License Type: Pharmacy (Community),ANAHEIM, ORANGE, 92805
ANAHEIM PRO-CARE PHARMACY ,License Type: Pharmacy (Community),ANAHEIM, ORANGE, 92801
ANH-NHI PHARMACY ,License Type: Pharmacy (Community),WESTMINSTER, ORANGE, 92683
AP8 PHARMACY ,License Type: Pharmacy (Community),SANTA ANA, ORANGE, 92704
APOTHERA ,License Type: Pharmacy (Community),IRVINE, ORANGE, 92618
APPLE PHARMACY ,License Type: Pharmacy (Community),GARDEN GROVE, ORANGE, 92840
APPLE PHARMACY III ,License Type: Pharmacy (Community),ANAHEIM, ORANGE, 92804
ARC CARES PHARMACY ,License Type: Pharmacy (Community),BREA, ORANGE, 92821
AUDREY PHARMACY ,License Type: Pharmacy (Community),WESTMINSTER, ORANGE, 92683
AUDREY PHARMACY ,License Type: Pharmacy (Community),WESTMINSTER, ORANGE, 92683
AUM PHARMACY ,License Type: Pharmacy (Community),ANAHEIM, ORANGE, 92801
AUSTIN DRUGS ,License Type: Pharmacy (Community),BUENA PARK, ORANGE, 90620
B & B VILLAGE CENTER PHARMACY ,License Type: Pharmacy (Community),YORBA LINDA, ORANGE, 92886
BALBOA PHARMACY ,License Type: Pharmacy (Community),NEWPORT BEACH, ORANGE, 92661
BAYTREE PHARMACY LLC ,License Type: Pharmacy (Community),IRVINE, ORANGE, 92614
BE WELL PHARMACY ,License Type: Pharmacy (Community),FULLERTON, ORANGE, 92832
BEACH MEDICAL PHARMACY ,License Type: Pharmacy (Community),BUENA PARK, ORANGE, 90621
BEACH PROFESSIONAL PHARMACY ,License Type: Pharmacy (Community),HUNTINGTON BEACH, ORANGE, 92647
BELLA TERRA PHARMACY ,License Type: Pharmacy (Community),HUNTINGTON BEACH, ORANGE, 92647
BEN'S VAL MESA PHARMACY ,License Type: Pharmacy (Community),FULLERTON, ORANGE, 92835
BEST CHOICE PHARMACY ,License Type: Pharmacy (Community),NEWPORT BEACH, ORANGE, 92660
BESTCARE PHARMACY ,License Type: Pharmacy (Community),BUENA PARK, ORANGE, 90620
BI RITE QUALITY PHARMACIES ,License Type: Pharmacy (Community),LA HABRA, ORANGE, 90631
BINH-DAN PHARMACY ,License Type: Pharmacy (Community),WESTMINSTER, ORANGE, 92683
BIOLOGIC INFUSION PHARMACY ,License Type: Pharmacy (Community),CYPRESS, ORANGE, 90630
BIOSCRIP INFUSION SERVICES INC ,License Type: Pharmacy (Community),IRVINE, ORANGE, 92618
BLESSING PHARMACY INC ,License Type: Pharmacy (Community),WESTMINSTER, ORANGE, 92683
BLUE COAST PHARMACY AND COMPOUNDING CENTER ,License Type: Pharmacy (Community),HUNTINGTON BEACH, ORANGE, 92648
BOLSA EXPRESS PHARMACY INC ,License Type: Pharmacy (Community),WESTMINSTER, ORANGE, 92683
BOLSA GRANDE PHARMACY ,License Type: Pharmacy (Community),SANTA ANA, ORANGE, 92704
BOLSA MEDICAL ARTS PHARMACY ,License Type: Pharmacy (Community),WESTMINSTER, ORANGE, 92683
BRISTOL MEDICAL PHARMACY ,License Type: Pharmacy (Community),SANTA ANA, ORANGE, 92704
BRISTOL PHARMACY ,License Type: Pharmacy (Community),IRVINE, ORANGE, 92604
BT PHARMACY ,License Type: Pharmacy (Community),WESTMINSTER, ORANGE, 92683
BUSHARD'S PHARMACY ,License Type: Pharmacy (Community),LAGUNA BEACH, ORANGE, 92651
BYRAM HEALTHCARE CENTERS INC ,License Type: Pharmacy (Community),HUNTINGTON BEACH, ORANGE, 92647
C & A PHARMACEUTICAL ENTERPRISES-CA LLC ,License Type: Pharmacy (Community),LAGUNA BEACH, ORANGE, 92651
C & H PHARMACY ,License Type: Pharmacy (Community),LOS ALAMITOS, ORANGE, 90720
C3 HEALTHCARERX ,License Type: Pharmacy (Community),MISSION VIEJO, ORANGE, 92692
CAL MED PHARMACY ,License Type: Pharmacy (Community),MISSION VIEJO, ORANGE, 92692
CAL PHARMACY ,License Type: Pharmacy (Community),GARDEN GROVE, ORANGE, 92844
CALI CARE PHARMACY ,License Type: Pharmacy (Community),GARDEN GROVE, ORANGE, 92843
CALIFORNIA PHARMACY ,License Type: Pharmacy (Community),WESTMINSTER, ORANGE, 92683
"CARDINAL HEALTH 414,LLC ",License Type: Pharmacy (Community),PLACENTIA, ORANGE, 92870
CARDINAL HEALTH PHARMACY SERVICES LLC ,License Type: Pharmacy (Community),IRVINE, ORANGE, 92618
CARE ONE PHARMACY ,License Type: Pharmacy (Community),FOUNTAIN VALLEY, ORANGE, 92708
CAREMAX PHARMACY ,License Type: Pharmacy (Community),BUENA PARK, ORANGE, 90621
CAREMAX PHARMACY ,License Type: Pharmacy (Community),GARDEN GROVE, ORANGE, 92843
CAREMEDS PHARMACY INC. ,License Type: Pharmacy (Community),IRVINE, ORANGE, 92614
CATALINA PHARMACY ,License Type: Pharmacy (Community),GARDEN GROVE, ORANGE, 92844
CATINAT PHARMACY ,License Type: Pharmacy (Community),WESTMINSTER, ORANGE, 92683
CATINAT PHARMACY ,License Type: Pharmacy (Community),SANTA ANA, ORANGE, 92704
CCS MEDICAL ,License Type: Pharmacy (Community),ANAHEIM, ORANGE, 92807
CDM DRUGS ,License Type: Pharmacy (Community),CORONA DEL MAR, ORANGE, 92625
CENTER FOR COMPREHENSIVE CARE & DIAGNOSIS OF INHERITED BLOOD DISO ,License Type: Pharmacy (Community),SANTA ANA, ORANGE, 92705
CENTRAL DRUGS ,License Type: Pharmacy (Community),FULLERTON, ORANGE, 92835
CHAMPION RX ,License Type: Pharmacy (Community),HUNTINGTON BEACH, ORANGE, 92649
CHAPMAN MEDICAL OUTPATIENT PHARMACY ,License Type: Pharmacy (Community),ORANGE, ORANGE, 92867
CHILDREN'S HOSP OF ORANGE CO CLINIC PHY ,License Type: Pharmacy (Community),ORANGE, ORANGE, 92868
COAST HILLS PHARMACY ,License Type: Pharmacy (Community),NEWPORT BEACH, ORANGE, 92660
COASTLINE CARE PHARMACY ,License Type: Pharmacy (Community),FOUNTAIN VALLEY, ORANGE, 92708
"COMMUNITY, A WALGREENS PHARMACY #03815 ",License Type: Pharmacy (Community),ORANGE, ORANGE, 92868
COMPOUND CENTRAL PHARMACY ,License Type: Pharmacy (Community),LOS ALAMITOS, ORANGE, 90720
CORAM CVS/SPECIALTY INFUSION SERVICES ,License Type: Pharmacy (Community),TUSTIN, ORANGE, 92780
COSTCO PHARMACY #1001 ,License Type: Pharmacy (Community),TUSTIN, ORANGE, 92782
COSTCO PHARMACY #1110 ,License Type: Pharmacy (Community),HUNTINGTON BEACH, ORANGE, 92647
COSTCO PHARMACY #122 ,License Type: Pharmacy (Community),TUSTIN, ORANGE, 92782
COSTCO PHARMACY #126 ,License Type: Pharmacy (Community),GARDEN GROVE, ORANGE, 92843
COSTCO PHARMACY #28 ,License Type: Pharmacy (Community),LAGUNA NIGUEL, ORANGE, 92677
COSTCO PHARMACY #418 ,License Type: Pharmacy (Community),FULLERTON, ORANGE, 92832
COSTCO PHARMACY #429 ,License Type: Pharmacy (Community),SAN JUAN CAPISTRANO, ORANGE, 92675
COSTCO PHARMACY #445 ,License Type: Pharmacy (Community),YORBA LINDA, ORANGE, 92887
COSTCO PHARMACY #454 ,License Type: Pharmacy (Community),Probation, ORANGE, 92618
COSTCO PHARMACY #748 ,License Type: Pharmacy (Community),CYPRESS, ORANGE, 90720
COSTCO PHARMACY #777 ,License Type: Pharmacy (Community),LA HABRA, ORANGE, 90631
COSTCO PHARMACY 411 ,License Type: Pharmacy (Community),FOUNTAIN VALLEY, ORANGE, 92708
COSTCO PHARMACY NO 690 ,License Type: Pharmacy (Community),LAGUNA NIGUEL, ORANGE, 92677
CREATIVE COMPOUNDING PHARMACY INC ,License Type: Pharmacy (Community),COSTA MESA, ORANGE, 92626
CRESCENT PHARM D ,License Type: Pharmacy (Community),IRVINE, ORANGE, 92614
CSUF STUDENT HEALTH & COUNSELING CENTER ,License Type: Pharmacy (Government Owned Community),FULLERTON, ORANGE, 92834
CURA PHARMACY ,License Type: Pharmacy (Community),TUSTIN, ORANGE, 92780
CUSTOM HEALTHCARE COMPOUNDING PHARMACY ,License Type: Pharmacy (Community),LAGUNA HILLS, ORANGE, 92653
CVS PHARMACY #10225 ,License Type: Pharmacy (Community),ANAHEIM, ORANGE, 92802
CVS PHARMACY #1764 ,License Type: Pharmacy (Community),MISSION VIEJO, ORANGE, 92691
CVS PHARMACY #387 ,License Type: Pharmacy (Community),IRVINE, ORANGE, 92620
CVS PHARMACY #4043 ,License Type: Pharmacy (Community),LOS ALAMITOS, ORANGE, 90720
CVS PHARMACY #5803 ,License Type: Pharmacy (Community),PLACENTIA, ORANGE, 92870
CVS PHARMACY #6710 ,License Type: Pharmacy (Community),LADERA RANCH, ORANGE, 92694
CVS PHARMACY #6782 ,License Type: Pharmacy (Community),HUNTINGTON BEACH, ORANGE, 92648
CVS PHARMACY #7079 ,License Type: Pharmacy (Community),FULLERTON, ORANGE, 92835
CVS PHARMACY #8830 ,License Type: Pharmacy (Community),COSTA MESA, ORANGE, 92626
CVS PHARMACY #8834 ,License Type: Pharmacy (Community),FOOTHILL RANCH, ORANGE, 92610
CVS PHARMACY #8843 ,License Type: Pharmacy (Community),SEAL BEACH, ORANGE, 90740
CVS PHARMACY #8846 ,License Type: Pharmacy (Community),TRABUCO CANYON, ORANGE, 92679
CVS PHARMACY #8849 ,License Type: Pharmacy (Community),SANTA ANA, ORANGE, 92706
CVS PHARMACY #8850 ,License Type: Pharmacy (Community),HUNTINGTON BEACH, ORANGE, 92648
CVS PHARMACY #8851 ,License Type: Pharmacy (Community),LAKE FOREST, ORANGE, 92630
CVS PHARMACY #8854 ,License Type: Pharmacy (Community),SANTA ANA, ORANGE, 92705
CVS PHARMACY #8855 ,License Type: Pharmacy (Community),SANTA ANA, ORANGE, 92703
CVS PHARMACY #8861 ,License Type: Pharmacy (Community),BUENA PARK, ORANGE, 90620
CVS PHARMACY #8862 ,License Type: Pharmacy (Community),GARDEN GROVE, ORANGE, 92840
CVS PHARMACY #8863 ,License Type: Pharmacy (Community),LAGUNA NIGUEL, ORANGE, 92677
CVS PHARMACY #8869 ,License Type: Pharmacy (Community),IRVINE, ORANGE, 92603
CVS PHARMACY #8872 ,License Type: Pharmacy (Community),ALISO VIEJO, ORANGE, 92656
CVS PHARMACY #8874 ,License Type: Pharmacy (Community),ANAHEIM, ORANGE, 92802
CVS PHARMACY #8877 ,License Type: Pharmacy (Community),TUSTIN, ORANGE, 92780
CVS PHARMACY #8880 ,License Type: Pharmacy (Community),LAGUNA NIGUEL, ORANGE, 92677
CVS PHARMACY #8881 ,License Type: Pharmacy (Community),NEWPORT BEACH, ORANGE, 92660
CVS PHARMACY #8882 ,License Type: Pharmacy (Community),SAN CLEMENTE, ORANGE, 92673
CVS PHARMACY #8883 ,License Type: Pharmacy (Community),SANTA ANA, ORANGE, 92704
CVS PHARMACY #8884 ,License Type: Pharmacy (Community),LAKE FOREST, ORANGE, 92630
CVS PHARMACY #8885 ,License Type: Pharmacy (Community),HUNTINGTON BEACH, ORANGE, 92647
CVS PHARMACY #8890 ,License Type: Pharmacy (Community),TUSTIN, ORANGE, 92780
CVS PHARMACY #8891 ,License Type: Pharmacy (Community),MISSION VIEJO, ORANGE, 92691
CVS PHARMACY #8893 ,License Type: Pharmacy (Community),SAN CLEMENTE, ORANGE, 92672
CVS PHARMACY #9119 ,License Type: Pharmacy (Community),ORANGE, ORANGE, 92869
CVS PHARMACY #9481 ,License Type: Pharmacy (Community),STANTON, ORANGE, 90680
CVS PHARMACY #9483 ,License Type: Pharmacy (Community),HUNTINGTON BEACH, ORANGE, 92646
CVS PHARMACY #9484 ,License Type: Pharmacy (Community),COSTA MESA, ORANGE, 92626
CVS PHARMACY #9485 ,License Type: Pharmacy (Community),MISSION VIEJO, ORANGE, 92692
CVS PHARMACY #9486 ,License Type: Pharmacy (Community),IRVINE, ORANGE, 92604
CVS PHARMACY #9491 ,License Type: Pharmacy (Community),HUNTINGTON BEACH, ORANGE, 92649
CVS PHARMACY #9492 ,License Type: Pharmacy (Community),YORBA LINDA, ORANGE, 92886
CVS PHARMACY #9497 ,License Type: Pharmacy (Community),IRVINE, ORANGE, 92604
CVS PHARMACY #9508 ,License Type: Pharmacy (Community),COSTA MESA, ORANGE, 92627
CVS PHARMACY #9510 ,License Type: Pharmacy (Community),WESTMINSTER, ORANGE, 92683
CVS PHARMACY #9540 ,License Type: Pharmacy (Community),NEWPORT BEACH, ORANGE, 92660
CVS PHARMACY #9551 ,License Type: Pharmacy (Community),SEAL BEACH, ORANGE, 90740
CVS PHARMACY #9552 ,License Type: Pharmacy (Community),LADERA RANCH, ORANGE, 92694
CVS PHARMACY #9555 ,License Type: Pharmacy (Community),ANAHEIM, ORANGE, 92804
CVS PHARMACY #9560 ,License Type: Pharmacy (Community),ANAHEIM, ORANGE, 92804
CVS PHARMACY #9561 ,License Type: Pharmacy (Community),IRVINE, ORANGE, 92614
CVS PHARMACY #9562 ,License Type: Pharmacy (Community),IRVINE, ORANGE, 92602
CVS PHARMACY #9569 ,License Type: Pharmacy (Community),FOUNTAIN VALLEY, ORANGE, 92708
CVS PHARMACY #9575 ,License Type: Pharmacy (Community),CYPRESS, ORANGE, 90630
CVS PHARMACY #9577 ,License Type: Pharmacy (Community),HUNTINGTON BEACH, ORANGE, 92647
CVS PHARMACY #9581 ,License Type: Pharmacy (Community),DANA POINT, ORANGE, 92629
CVS PHARMACY #9583 ,License Type: Pharmacy (Community),SANTA ANA, ORANGE, 92701
CVS PHARMACY #9587 ,License Type: Pharmacy (Community),LAKE FOREST, ORANGE, 92630
CVS PHARMACY #9591 ,License Type: Pharmacy (Community),LAGUNA BEACH, ORANGE, 92651
CVS PHARMACY #9598 ,License Type: Pharmacy (Community),FULLERTON, ORANGE, 92831
CVS PHARMACY #9725 ,License Type: Pharmacy (Community),ORANGE, ORANGE, 92868
CVS PHARMACY #9744 ,License Type: Pharmacy (Community),ORANGE, ORANGE, 92867
CVS PHARMACY #9747 ,License Type: Pharmacy (Community),PLACENTIA, ORANGE, 92870
CVS PHARMACY #9749 ,License Type: Pharmacy (Community),ORANGE, ORANGE, 92865
CVS PHARMACY #9753 ,License Type: Pharmacy (Community),ANAHEIM, ORANGE, 92807
CVS PHARMACY #9754 ,License Type: Pharmacy (Community),FULLERTON, ORANGE, 92833
CVS PHARMACY #9759 ,License Type: Pharmacy (Community),ANAHEIM, ORANGE, 92805
CVS PHARMACY #9760 ,License Type: Pharmacy (Community),ANAHEIM, ORANGE, 92807
CVS PHARMACY #9762 ,License Type: Pharmacy (Community),ANAHEIM, ORANGE, 92806
CVS PHARMACY #9765 ,License Type: Pharmacy (Community),FULLERTON, ORANGE, 92832
CVS PHARMACY #9774 ,License Type: Pharmacy (Community),ANAHEIM HILLS, ORANGE, 92808
CVS PHARMACY #9777 ,License Type: Pharmacy (Community),PLACENTIA, ORANGE, 92870
CVS PHARMACY NO 5837 ,License Type: Pharmacy (Community),Public Reprimand, ORANGE, 90620
CVS PHARMACY NO 5841 ,License Type: Pharmacy (Community),SANTA ANA, ORANGE, 92707
CVS PHARMACY NO 6768 ,License Type: Pharmacy (Community),IRVINE, ORANGE, 92604
CVS PHARMACY NO 6770 ,License Type: Pharmacy (Community),RANCHO SANTA MARGARITA, ORANGE, 92688
CVS/PHARMACY # 16045 ,License Type: Pharmacy (Community),GARDEN GROVE, ORANGE, 92840
CVS/PHARMACY # 16046 ,License Type: Pharmacy (Community),GARDEN GROVE, ORANGE, 92843
CVS/PHARMACY # 16063 ,License Type: Pharmacy (Community),CYPRESS, ORANGE, 90630
CVS/PHARMACY # 16064 ,License Type: Pharmacy (Community),ORANGE, ORANGE, 92865
CVS/PHARMACY # 16071 ,License Type: Pharmacy (Community),WESTMINSTER, ORANGE, 92683
CVS/PHARMACY # 16072 ,License Type: Pharmacy (Community),SANTA ANA, ORANGE, 92704
CVS/PHARMACY # 16077 ,License Type: Pharmacy (Community),ALISO VIEJO, ORANGE, 92656
CVS/PHARMACY # 16090 ,License Type: Pharmacy (Community),SANTA ANA, ORANGE, 92705
CVS/PHARMACY # 16098 ,License Type: Pharmacy (Community),MISSION VIEJO, ORANGE, 92691
CVS/PHARMACY # 16120 ,License Type: Pharmacy (Community),IRVINE, ORANGE, 92606
CVS/PHARMACY # 16201 ,License Type: Pharmacy (Community),ANAHEIM, ORANGE, 92808
CVS/PHARMACY # 16339 ,License Type: Pharmacy (Community),FOOTHILL RANCH, ORANGE, 92610
CVS/PHARMACY # 16340 ,License Type: Pharmacy (Community),RANCHO SANTA MARGARITA, ORANGE, 92688
CVS/PHARMACY # 16591 ,License Type: Pharmacy (Community),IRVINE, ORANGE, 92602
CVS/PHARMACY # 16669 ,License Type: Pharmacy (Community),SEAL BEACH, ORANGE, 90740
CVS/PHARMACY # 16722 ,License Type: Pharmacy (Community),FULLERTON, ORANGE, 92833
CVS/PHARMACY # 16756 ,License Type: Pharmacy (Community),FULLERTON, ORANGE, 92832
CVS/PHARMACY # 17141 ,License Type: Pharmacy (Community),HUNTINGTON BEACH, ORANGE, 92646
CVS/PHARMACY # 17170 ,License Type: Pharmacy (Community),BUENA PARK, ORANGE, 90621
CVS/PHARMACY # 17211 ,License Type: Pharmacy (Community),IRVINE, ORANGE, 92618
CVS/PHARMACY # 17233 ,License Type: Pharmacy (Community),TUSTIN, ORANGE, 92782
CVS/PHARMACY # 17243 ,License Type: Pharmacy (Community),MISSION VIEJO, ORANGE, 92691
CVS/PHARMACY # 17372 ,License Type: Pharmacy (Community),WESTMINSTER, ORANGE, 92683
CVS/PHARMACY # 17460 ,License Type: Pharmacy (Community),LA HABRA, ORANGE, 90631
CVS/PHARMACY # 17478 ,License Type: Pharmacy (Community),ANAHEIM, ORANGE, 92802
CVS/PHARMACY # 17530 ,License Type: Pharmacy (Community),BREA, ORANGE, 92821
CVS/PHARMACY # 17610 ,License Type: Pharmacy (Community),SAN CLEMENTE, ORANGE, 92673
CVS/PHARMACY #09373 ,License Type: Pharmacy (Community),HUNTINGTON BEACH, ORANGE, 92649
CVS/PHARMACY #09541 ,License Type: Pharmacy (Community),LAKE FOREST, ORANGE, 92630
CVS/PHARMACY #09831 ,License Type: Pharmacy (Community),LA HABRA, ORANGE, 90631
CVS/PHARMACY #09863 ,License Type: Pharmacy (Community),COSTA MESA, ORANGE, 92627
CVS/PHARMACY #09905 ,License Type: Pharmacy (Community),YORBA LINDA, ORANGE, 92886
CVS/PHARMACY #09912 ,License Type: Pharmacy (Community),DANA POINT, ORANGE, 92629
CVS/PHARMACY #09924 ,License Type: Pharmacy (Community),LAGUNA NIGUEL, ORANGE, 92677
CVS/PHARMACY #10223 ,License Type: Pharmacy (Community),LA HABRA, ORANGE, 90631
CVS/PHARMACY #16637 ,License Type: Pharmacy (Community),COSTA MESA, ORANGE, 92626
CVS/PHARMACY #3057 ,License Type: Pharmacy (Community),LAGUNA NIGUEL, ORANGE, 92677
CVS/PHARMACY #7088 ,License Type: Pharmacy (Community),HUNTINGTON BEACH, ORANGE, 92647
CVS/PHARMACY #819 ,License Type: Pharmacy (Community),HUNTINGTON BEACH, ORANGE, 92648
CVS/PHARMACY #9242 ,License Type: Pharmacy (Community),MISSION VIEJO, ORANGE, 92691
CVS/PHARMACY #9246 ,License Type: Pharmacy (Community),LAGUNA WOODS, ORANGE, 92637
D S K PHARMACY ,License Type: Pharmacy (Community),GARDEN GROVE, ORANGE, 92844
DANHS PHCY ,License Type: Pharmacy (Community),WESTMINSTER, ORANGE, 92683
DIACARE PHARMACY ,License Type: Pharmacy (Community),SANTA ANA, ORANGE, 92705
DIRECT PHARMACY CARE ,License Type: Pharmacy (Community),BUENA PARK, ORANGE, 90621
DIRECT RX PHARMACY INC ,License Type: Pharmacy (Community),LAGUNA HILLS, ORANGE, 92653
DIRECTCARE PHARMACY ,License Type: Pharmacy (Community),FOUNTAIN VALLEY, ORANGE, 92708
DONGNAI PHARMACY ,License Type: Pharmacy (Community),WESTMINSTER, ORANGE, 92683
DRAGON PHARMACY ,License Type: Pharmacy (Community),WESTMINSTER, ORANGE, 92683
DRUG DEPOT PHARMACY INC ,License Type: Pharmacy (Community),SANTA ANA, ORANGE, 92705
E-Z CARE PHARMACY ,License Type: Pharmacy (Community),SANTA ANA, ORANGE, 92703
EARTH VILLAGE PHARMACY ,License Type: Pharmacy (Community),BUENA PARK, ORANGE, 90621
EASTGATE PHARMACY ,License Type: Pharmacy (Community),CYPRESS, ORANGE, 90630
EL TORO PHARMACY ,License Type: Pharmacy (Community),LAGUNA HILLS, ORANGE, 92653
ELONG PHARMACY ,License Type: Pharmacy (Community),IRVINE, ORANGE, 92618
EXCELCARE PHARMACY ,License Type: Pharmacy (Community),SANTA ANA, ORANGE, 92706
FAMILY CARE INVESTMENTS LLC DBA VALUE PHARMACY ,License Type: Pharmacy (Community),IRVINE, ORANGE, 92614
FAMILY CARE PHARMACY ,License Type: Pharmacy (Community),BUENA PARK, ORANGE, 90621
FAMILY PHARMACY ,License Type: Pharmacy (Community),SAN JUAN CAPISTRANO, ORANGE, 92675
FARMACIA BRISTOL ,License Type: Pharmacy (Community),SANTA ANA, ORANGE, 92707
FARMACIA FAMILIAR ,License Type: Pharmacy (Community),SANTA ANA, ORANGE, 92704
FIRST STREET MEDICAL PLAZA PHARMACY ,License Type: Pharmacy (Community),SANTA ANA, ORANGE, 92705
FISHER'S BREA PHARMACY ,License Type: Pharmacy (Community),BREA, ORANGE, 92821
FOUNTAIN VALLEY CENTRAL PHARMACY ,License Type: Pharmacy (Community),FOUNTAIN VALLEY, ORANGE, 92708
FOUNTAIN VALLEY MEDICAL CENTER PHARMACY ,License Type: Pharmacy (Community),FOUNTAIN VALLEY, ORANGE, 92708
FRIENDLY CARE PHARMACY ,License Type: Pharmacy (Community),WESTMINSTER, ORANGE, 92683
FULLERTON MEDICAL PHARMACY ,License Type: Pharmacy (Community),FULLERTON, ORANGE, 92833
GARDEN GROVE COMMUNITY PHARMACY ,License Type: Pharmacy (Community),GARDEN GROVE, ORANGE, 92843
GARDEN PHARMACY ,License Type: Pharmacy (Community),GARDEN GROVE, ORANGE, 92841
GARFIELD BEACH CVS LLC D/B/A CVS/PHARMACY # 17707 ,License Type: Pharmacy (Community),IRVINE, ORANGE, 92612
GARFIELD BEACH CVS LLC D/B/A CVS/PHARMACY # 17716 ,License Type: Pharmacy (Community),ORANGE, ORANGE, 92869
GARFIELD BEACH CVS LLC D/B/A CVS/PHARMACY # 17730 ,License Type: Pharmacy (Community),ANAHEIM, ORANGE, 92806
GARFIELD BEACH CVS LLC DBA CVS PHARMACY #10806 ,License Type: Pharmacy (Community),TUSTIN, ORANGE, 92782
GARFIELD BEACH CVS LLC DBA CVS PHARMACY #11111 ,License Type: Pharmacy (Community),BREA, ORANGE, 92821
GARFIELD BEACH CVS LLC DBA CVS PHARMACY #17746 ,License Type: Pharmacy (Community),MISSION VIEJO, ORANGE, 92691
GE HEALTHCARE ,License Type: Pharmacy (Community),ANAHEIM, ORANGE, 92805
GENOA HEALTHCARE LLC ,License Type: Pharmacy (Community),SANTA ANA, ORANGE, 92701
GILBERT DRUGS ,License Type: Pharmacy (Community),GARDEN GROVE, ORANGE, 92844
GLOBAL EXPRESS PHARMACY ,License Type: Pharmacy (Community),GARDEN GROVE, ORANGE, 92843
GLOBAL RX PHARMACY & COMPOUNDING ,License Type: Pharmacy (Community),Public Reprimand, ORANGE, 92604
GOLDEN PHARMACY ,License Type: Pharmacy (Community),WESTMINSTER, ORANGE, 92683
GOOD HEALTH PHARMACY ,License Type: Pharmacy (Community),IRVINE, ORANGE, 92614
GRACE COMMUNITY PHARMACY ,License Type: Pharmacy (Community),LA PALMA, ORANGE, 90623
GROVE HARBOR MEDICAL CENTER PHARMACY ,License Type: Pharmacy (Community),GARDEN GROVE, ORANGE, 92843
GUARDIAN PHARMACY OF ANAHEIM ,License Type: Pharmacy (Community),ANAHEIM, ORANGE, 92801
GUIDED ALLIANCE PHARMACY INC ,License Type: Pharmacy (Community),ALISO VIEJO, ORANGE, 92656
HAPPY CARE PHARMACY ,License Type: Pharmacy (Community),SANTA ANA, ORANGE, 92704
HARBOR HEALTHY LIVING PHARMACY ,License Type: Pharmacy (Community),SANTA ANA, ORANGE, 92704
HARBOR PHARMACY ,License Type: Pharmacy (Community),FOUNTAIN VALLEY, ORANGE, 92708
HARBOR PHARMACY 3 ,License Type: Pharmacy (Community),GARDEN GROVE, ORANGE, 92843
HAU GIANG PHARMACY ,License Type: Pharmacy (Community),GARDEN GROVE, ORANGE, 92843
HEALING PHARMACY ,License Type: Pharmacy (Community),WESTMINSTER, ORANGE, 92683
HEALTH FIRST PHARMACY ,License Type: Pharmacy (Community),ANAHEIM, ORANGE, 92804
HEALTH TREE PHARMACY ,License Type: Pharmacy (Community),LA HABRA, ORANGE, 90631
HEALTHCARE PHARMACY ,License Type: Pharmacy (Community),TUSTIN, ORANGE, 92780
HEALTHY LIVING PHARMACY ,License Type: Pharmacy (Community),YORBA LINDA, ORANGE, 92887
HEMOPHILIAC SUPPORT SYSTEMS ,License Type: Pharmacy (Community),CYPRESS, ORANGE, 90630
HILL PHARMACY ,License Type: Pharmacy (Community),NEWPORT BEACH, ORANGE, 92660
HOAG INFUSION CENTER PHARMACY ,License Type: Pharmacy (Community),IRVINE, ORANGE, 92618
HOME CARE-RX INC ,License Type: Pharmacy (Community),COSTA MESA, ORANGE, 92626
HONG'S PHARMACY ,License Type: Pharmacy (Community),GARDEN GROVE, ORANGE, 92844
HOSPICARE PHARMACY AND HOME INFUSION OF IRVINE INC ,License Type: Pharmacy (Community),IRVINE, ORANGE, 92614
HV PHARMACY ,License Type: Pharmacy (Community),LAKE FOREST, ORANGE, 92630
INFUSION SOLUTIONS PHARMACY ,License Type: Pharmacy (Community),ANAHEIM, ORANGE, 92807
"INLAND MEDICAL CONSULTANTS, LLC_DBA ADVANCED THERAPEUTICS ",License Type: Pharmacy (Community),PLACENTIA, ORANGE, 92870
IRVINE MEDICAL CENTER PHARMACY ,License Type: Pharmacy (Community),IRVINE, ORANGE, 92618
IRVINE PHARMACY ,License Type: Pharmacy (Community),IRVINE, ORANGE, 92604
K & T PHARMACY ,License Type: Pharmacy (Community),ORANGE, ORANGE, 92869
KAISER PERMANENTE NO 371 ,License Type: Pharmacy (Community),BREA, ORANGE, 92821
KAISER PERMANENTE PHARMACY ,License Type: Pharmacy (Community),YORBA LINDA, ORANGE, 92887
KAISER PERMANENTE PHARMACY  357 ,License Type: Pharmacy (Community),GARDEN GROVE, ORANGE, 92840
KAISER PERMANENTE PHARMACY #352 ,License Type: Pharmacy (Community),ANAHEIM, ORANGE, 92801
KAISER PERMANENTE PHARMACY #355 ,License Type: Pharmacy (Community),ANAHEIM, ORANGE, 92807
KAISER PERMANENTE PHARMACY #361 ,License Type: Pharmacy (Community),SANTA ANA, ORANGE, 92705
KAISER PERMANENTE PHARMACY #363 ,License Type: Pharmacy (Community),ANAHEIM, ORANGE, 92806
KAISER PERMANENTE PHARMACY #363C ,License Type: Pharmacy (Community),ANAHEIM, ORANGE, 92806
KAISER PERMANENTE PHARMACY #369 ,License Type: Pharmacy (Community),FOOTHILL RANCH, ORANGE, 92610
KAISER PERMANENTE PHARMACY #374C ,License Type: Pharmacy (Community),IRVINE, ORANGE, 92618
KAISER PERMANENTE PHARMACY #376 ,License Type: Pharmacy (Community),ORANGE, ORANGE, 92868
KAISER PERMANENTE PHARMACY #379 ,License Type: Pharmacy (Community),TUSTIN, ORANGE, 92780
KAISER PERMANENTE PHARMACY #384 ,License Type: Pharmacy (Community),LA HABRA, ORANGE, 90631
KAISER PERMANENTE PHARMACY 356 ,License Type: Pharmacy (Community),HUNTINGTON BEACH, ORANGE, 92648
KAISER PERMANENTE PHARMACY 364 ,License Type: Pharmacy (Community),MISSION VIEJO, ORANGE, 92691
KAISER PERMANENTE PHARMACY 366 ,License Type: Pharmacy (Community),IRVINE, ORANGE, 92604
KAISER PERMANENTE PHARMACY 383 ,License Type: Pharmacy (Community),LA PALMA, ORANGE, 90623
KAISER PERMANENTE PHARMACY 390 ,License Type: Pharmacy (Community),ALISO VIEJO, ORANGE, 92656
KAISER PERMANENTE PHARMACY NO 391 ,License Type: Pharmacy (Community),SAN JUAN CAPISTRANO, ORANGE, 92675
KAISER PERMANENTE PHARMACY NO 394 ,License Type: Pharmacy (Community),SANTA ANA, ORANGE, 92704
KAISER PERMANENTE PHRMCY #374 ,License Type: Pharmacy (Community),IRVINE, ORANGE, 92618
KAJU PHARMACY ,License Type: Pharmacy (Community),GARDEN GROVE, ORANGE, 92844
KATRINA PHARMACY ,License Type: Pharmacy (Community),SANTA ANA, ORANGE, 92703
KECK HOSPITAL OF USC - HUNTINGTON BEACH TREATMENT CENTER ,License Type: Pharmacy (Community),HUNTINGTON BEACH, ORANGE, 92648
KECK HOSPITAL OF USC ORANGE COUNTY PHARMACY ,License Type: Pharmacy (Community),NEWPORT BEACH, ORANGE, 92663
KIM AN PHARMACY ,License Type: Pharmacy (Community),WESTMINSTER, ORANGE, 92683
KIM PHARMACY ,License Type: Pharmacy (Community),GARDEN GROVE, ORANGE, 92844
KIM PHARMACY ,License Type: Pharmacy (Community),WESTMINSTER, ORANGE, 92683
KING'S PHARMACY AND COMPOUNDING CENTER ,License Type: Pharmacy (Community),IRVINE, ORANGE, 92618
KING'S PHARMACY AND COMPOUNDING CENTER ,License Type: Pharmacy (Community),NEWPORT BEACH, ORANGE, 92663
KINGS PHARMACY ,License Type: Pharmacy (Community),ANAHEIM, ORANGE, 92801
KROGER SPECIALTY PHARMACY CA ,License Type: Pharmacy (Community),GARDEN GROVE, ORANGE, 92841
KROGER SPECIALTY PHARMACY INC DBA KROGER SPECIALTY PHARMACY CA 3 ,License Type: Pharmacy (Community),IRVINE, ORANGE, 92614
LA PALMA TOWERS PHARMACY ,License Type: Pharmacy (Community),LA PALMA, ORANGE, 90623
LAGUNA BEACH PHARMACY ,License Type: Pharmacy (Community),LAGUNA BEACH, ORANGE, 92651
LAGUNA DRUG ,License Type: Pharmacy (Community),LAGUNA BEACH, ORANGE, 92651
LAGUNA HILLS PHARMACY ,License Type: Pharmacy (Community),LAGUNA HILLS, ORANGE, 92653
LAM PHARMACY ,License Type: Pharmacy (Community),GARDEN GROVE, ORANGE, 92843
LANVY PHARMACY ,License Type: Pharmacy (Community),WESTMINSTER, ORANGE, 92683
LAURA PHARMACY ,License Type: Pharmacy (Community),SANTA ANA, ORANGE, 92706
LC SCRIPTS ,License Type: Pharmacy (Community),WESTMINSTER, ORANGE, 92683
LCD PHARMACY ,License Type: Pharmacy (Community),ORANGE, ORANGE, 92866
LEISURE WORLD PHARMACY ,License Type: Pharmacy (Community),SEAL BEACH, ORANGE, 90740
LIFE CARE PHARMACY ,License Type: Pharmacy (Community),ANAHEIM, ORANGE, 92805
LIFETIME VALUE PHARMACY III INC ,License Type: Pharmacy (Community),SANTA ANA, ORANGE, 92706
LINDA VISTA PHARMACY ,License Type: Pharmacy (Community),YORBA LINDA, ORANGE, 92886
LINH'S PHARMACY ,License Type: Pharmacy (Community),WESTMINSTER, ORANGE, 92683
LINH'S PHARMACY #2 ,License Type: Pharmacy (Community),WESTMINSTER, ORANGE, 92683
LOS ALAMITOS PHARMACY ,License Type: Pharmacy (Community),LOS ALAMITOS, ORANGE, 90720
LOS COYOTES DRUG ,License Type: Pharmacy (Community),LOS ALAMITOS, ORANGE, 90720
LST GARDEN PHARMACY INC ,License Type: Pharmacy (Community),WESTMINSTER, ORANGE, 92683
MAICO PHARMACY ,License Type: Pharmacy (Community),WESTMINSTER, ORANGE, 92683
MAILAN HERITAGE PHARMACY ,License Type: Pharmacy (Community),WESTMINSTER, ORANGE, 92683
MANNA PHARMACY ,License Type: Pharmacy (Community),GARDEN GROVE, ORANGE, 92843
MARBELLA PHARMACY ,License Type: Pharmacy (Community),SAN JUAN CAPISTRANO, ORANGE, 92675
MARIA PHARMACY ,License Type: Pharmacy (Community),GARDEN GROVE, ORANGE, 92843
MARINER'S PHARMACY ,License Type: Pharmacy (Community),Probation Terminated/Completed, ORANGE, 92663
MAXINE PHARMACY ,License Type: Pharmacy (Community),GARDEN GROVE, ORANGE, 92843
MAY PHARMACY ,License Type: Pharmacy (Community),WESTMINSTER, ORANGE, 92683
MCGUFF COMPOUNDING PHY SERVICES INC ,License Type: Pharmacy (Community),SANTA ANA, ORANGE, 92704
MED CENTER PHARMACY ,License Type: Pharmacy (Community),IRVINE, ORANGE, 92604
MED CHOICE PHARMACY ,License Type: Pharmacy (Community),ANAHEIM, ORANGE, 92801
MED-PROS PHARMACY & MEDICAL SUPPLIES ,License Type: Pharmacy (Community),GARDEN GROVE, ORANGE, 92843
MED-ZONE PHARMACY ,License Type: Pharmacy (Community),SANTA ANA, ORANGE, 92705
MEDCARE FAMILY PHARMACY ,License Type: Pharmacy (Community),SANTA ANA, ORANGE, 92707
MEDCARE FAMILY PHARMACY II ,License Type: Pharmacy (Community),SANTA ANA, ORANGE, 92704
MEDCARE LTC PHARMACY ,License Type: Pharmacy (Community),ANAHEIM, ORANGE, 92801
MEDCARE PHARMACY ,License Type: Pharmacy (Community),ANAHEIM, ORANGE, 92801
MEDI-EX PHARMACY ,License Type: Pharmacy (Community),ANAHEIM, ORANGE, 92806
MEDICAL ARTS REXALL PHARMACY ,License Type: Pharmacy (Community),ANAHEIM, ORANGE, 92801
MEDICAL TOWERS PHARMACY ,License Type: Pharmacy (Community),HUNTINGTON BEACH, ORANGE, 92647
MEDICINE SHOPPE ,License Type: Pharmacy (Community),SANTA ANA, ORANGE, 92701
MEDISOURCE RX ,License Type: Pharmacy (Community),LOS ALAMITOS, ORANGE, 90720
MEDLIFE PHARMACY & COMPOUNDING ,License Type: Pharmacy (Community),IRVINE, ORANGE, 92618
MEDSPECIALTIES COMPOUNDING PHARMACY ,License Type: Pharmacy (Community),YORBA LINDA, ORANGE, 92886
MERCY MEDICAL CENTER PHARMACY ,License Type: Pharmacy (Community),SANTA ANA, ORANGE, 92704
MERUS HEALTH ,License Type: Pharmacy (Community),PLACENTIA, ORANGE, 92870
MESA VERDE PHARMACY ,License Type: Pharmacy (Community),COSTA MESA, ORANGE, 92626
MINH PHARMACY ,License Type: Pharmacy (Community),SANTA ANA, ORANGE, 92703
MISSION MEDICAL PHARMACY ,License Type: Pharmacy (Community),MISSION VIEJO, ORANGE, 92691
MISSION PLAZA PHARMACY ,License Type: Pharmacy (Community),MISSION VIEJO, ORANGE, 92691
MODERN DRUG ,License Type: Pharmacy (Community),GARDEN GROVE, ORANGE, 92840
MTM PHARMACY ,License Type: Pharmacy (Community),GARDEN GROVE, ORANGE, 92840
MTM PHARMACY ,License Type: Pharmacy (Community),SANTA ANA, ORANGE, 92703
MTM PHARMACY BOLSA MEDICAL ,License Type: Pharmacy (Community),HUNTINGTON BEACH, ORANGE, 92647
MTM PHARMACY FAIRVIEW ,License Type: Pharmacy (Community),SANTA ANA, ORANGE, 92703
MTM PHARMACY V ,License Type: Pharmacy (Community),ANAHEIM, ORANGE, 92801
NATICO PHARMACY ,License Type: Pharmacy (Community),GARDEN GROVE, ORANGE, 92843
NEW DAY PHARMACY ,License Type: Pharmacy (Community),GARDEN GROVE, ORANGE, 92843
NEW VISTA PHARMACY ,License Type: Pharmacy (Community),ANAHEIM, ORANGE, 92802
NEWPORT CARE CENTER PHARMACY ,License Type: Pharmacy (Community),NEWPORT BEACH, ORANGE, 92663
NEWPORT CENTER PHARMACY ,License Type: Pharmacy (Community),NEWPORT BEACH, ORANGE, 92660
NEWPORT COAST PHARMACY ,License Type: Pharmacy (Community),NEWPORT BEACH, ORANGE, 92660
NEWPORT LIDO PHARMACY ,License Type: Pharmacy (Community),NEWPORT BEACH, ORANGE, 92663
NGOC MAI PHARMACY ,License Type: Pharmacy (Community),WESTMINSTER, ORANGE, 92683
NHAN HOA PHARMACY ,License Type: Pharmacy (Community),GARDEN GROVE, ORANGE, 92841
NIMBLE PHARMACY ,License Type: Pharmacy (Community),SANTA ANA, ORANGE, 92705
OC PHARMACY ,License Type: Pharmacy (Community),SAN JUAN CAPISTRANO, ORANGE, 92675
OC PHARMACY ,License Type: Pharmacy (Community),GARDEN GROVE, ORANGE, 92843
OC PHARMACY ,License Type: Pharmacy (Community),GARDEN GROVE, ORANGE, 92843
OC WELLNESS AND SPECIALTY PHARMACY ,License Type: Pharmacy (Community),ORANGE, ORANGE, 92869
ONE PHARMACY ,License Type: Pharmacy (Community),FOUNTAIN VALLEY, ORANGE, 92708
OPTIMAL WELLNESS PHARMACY ,License Type: Pharmacy (Community),IRVINE, ORANGE, 92620
OPTUMRX ,License Type: Pharmacy (Community),CYPRESS, ORANGE, 90630
OPTUMRX ,License Type: Pharmacy (Community),COSTA MESA, ORANGE, 92626
ORANGE COAST MEMORIAL OUTPATIENT PHARMACY ,License Type: Pharmacy (Community),FOUNTAIN VALLEY, ORANGE, 92708
ORANGE COUNTY COMPOUNDING PHARMACY ,License Type: Pharmacy (Community),IRVINE, ORANGE, 92618
ORANGE COUNTY JAIL PHARMACY ,License Type: Correctional Pharmacy,SANTA ANA, ORANGE, 92703
ORANGE EXPRESS PHARMACY ,License Type: Pharmacy (Community),ORANGE, ORANGE, 92867
ORANGE PLAZA PHARMACY ,License Type: Pharmacy (Community),ORANGE, ORANGE, 92868
OSO HOME CARE PHARMACY ,License Type: Pharmacy (Community),IRVINE, ORANGE, 92614
OSO MEDICAL PHARMACY ,License Type: Pharmacy (Community),MISSION VIEJO, ORANGE, 92691
PACIFIC COAST PHARMACY ,License Type: Pharmacy (Community),GARDEN GROVE, ORANGE, 92843
PACIFIC SIDE PHARMACY ,License Type: Pharmacy (Community),HUNTINGTON BEACH, ORANGE, 92648
PARAGON COMPOUNDING PHARMACY INC ,License Type: Pharmacy (Community),ANAHEIM, ORANGE, 92802
PARK COMPOUNDING INC ,License Type: Pharmacy (Community),Accusation filed, ORANGE, 92618
PARS PHARMACY ,License Type: Pharmacy (Community),Probation, ORANGE, 92604
PAVILIONS  PHARMACY #1911 ,License Type: Pharmacy (Community),NEWPORT COAST, ORANGE, 92657
PAVILIONS  PHARMACY #2089 ,License Type: Pharmacy (Community),LAGUNA BEACH, ORANGE, 92651
PAVILIONS  PHARMACY #2210 ,License Type: Pharmacy (Community),MISSION VIEJO, ORANGE, 92692
PAVILIONS  PHARMACY #2216 ,License Type: Pharmacy (Community),ANAHEIM, ORANGE, 92808
PAVILIONS  PHARMACY #2217 ,License Type: Pharmacy (Community),RANCHO SANTA MARGARITA, ORANGE, 92688
PAVILIONS PHARMACY #2412 ,License Type: Pharmacy (Community),IRVINE, ORANGE, 92602
PAVILIONS PHARMACY #2508 ,License Type: Pharmacy (Community),LAGUNA NIGUEL, ORANGE, 92677
PHARMACY ALTERNATIVES CALIFORNIA LLC ,License Type: Pharmacy (Community),ANAHEIM, ORANGE, 92806
PHARMACY FOR LIVING WELL ,License Type: Pharmacy (Community),ANAHEIM, ORANGE, 92802
PHARMACY OF OC ,License Type: Pharmacy (Community),HUNTINGTON BEACH, ORANGE, 92647
PHARMACY PLUS ,License Type: Pharmacy (Community),ANAHEIM, ORANGE, 92801
PHARMEDQUEST PHARMACY ,License Type: Pharmacy (Community),BREA, ORANGE, 92821
PHARMEDQUEST PHARMACY SERVICES ,License Type: Pharmacy (Community),BREA, ORANGE, 92821
PHARMERICA ,License Type: Pharmacy (Community),CYPRESS, ORANGE, 90630
PIONEER PHARMACY ,License Type: Pharmacy (Community),FOUNTAIN VALLEY, ORANGE, 92708
PL RX PHARMACY INC DBA: PREMIER LIFE PHARMACY ,License Type: Pharmacy (Community),FOUNTAIN VALLEY, ORANGE, 92708
PLACENTIA LINDA PHARMACY INC ,License Type: Pharmacy (Community),PLACENTIA, ORANGE, 92870
PMQ 125 PHARMACY ,License Type: Pharmacy (Community),BREA, ORANGE, 92821
PREFERRED EXCELLENT CARE ,License Type: Pharmacy (Community),GARDEN GROVE, ORANGE, 92843
PREFERRED PHARMACY INC ,License Type: Pharmacy (Community),COSTA MESA, ORANGE, 92626
PRESTIGE MEDICAL PHARMACY ,License Type: Pharmacy (Community),FOUNTAIN VALLEY, ORANGE, 92708
PRIME PHARMACY ,License Type: Pharmacy (Community),ORANGE, ORANGE, 92868
PROCARE PHARMACY ,License Type: Pharmacy (Community),GARDEN GROVE, ORANGE, 92844
Q PHARMACY ,License Type: Pharmacy (Community),WESTMINSTER, ORANGE, 92683
QLT CARE PHARMACY ,License Type: Pharmacy (Community),FOUNTAIN VALLEY, ORANGE, 92708
QUALITY CARE PHARMACY ,License Type: Pharmacy (Community),SANTA ANA, ORANGE, 92704
QUALITY DRUG CLINICAL CARE ,License Type: Pharmacy (Community),IRVINE, ORANGE, 92618
QUINNS APOTHECARY PHARMACY ,License Type: Pharmacy (Community),HUNTINGTON BEACH, ORANGE, 92648
RALPHS PHARMACY 70300033 ,License Type: Pharmacy (Community),COSTA MESA, ORANGE, 92627
RALPHS PHARMACY 70300072 ,License Type: Pharmacy (Community),FULLERTON, ORANGE, 92832
RALPHS PHARMACY 70300099 ,License Type: Pharmacy (Community),FOOTHILL RANCH, ORANGE, 92610
RALPHS PHARMACY 70300223 ,License Type: Pharmacy (Community),LAGUNA HILLS, ORANGE, 92653
RALPHS PHARMACY 70300287 ,License Type: Pharmacy (Community),SAN CLEMENTE, ORANGE, 92673
RALPHS PHARMACY 70300288 ,License Type: Pharmacy (Community),LAKE FOREST, ORANGE, 92630
RALPHS PHARMACY 70300299 ,License Type: Pharmacy (Community),IRVINE, ORANGE, 92620
RALPHS PHARMACY 70300604 ,License Type: Pharmacy (Community),SEAL BEACH, ORANGE, 90740
RALPHS PHARMACY 70300650 ,License Type: Pharmacy (Community),HUNTINGTON BEACH, ORANGE, 92648
RALPHS PHARMACY 70300756 ,License Type: Pharmacy (Community),PLACENTIA, ORANGE, 92870
RAMSAY REXALL DRUGS ,License Type: Pharmacy (Community),COSTA MESA, ORANGE, 92627
RAZI PHARMACY ,License Type: Pharmacy (Community),MISSION VIEJO, ORANGE, 92691
RE COMMUNITY PHARMACY ,License Type: Pharmacy (Community),ANAHEIM, ORANGE, 92801
RE COMMUNITY PHARMACY ,License Type: Pharmacy (Community),SAN JUAN CAPISTRANO, ORANGE, 92675
RED CHIP OF NEVADA ,License Type: Pharmacy (Community),IRVINE, ORANGE, 92614
RITE AID  5766 ,License Type: Pharmacy (Community),IRVINE, ORANGE, 92612
RITE AID #6472 ,License Type: Pharmacy (Community),FULLERTON, ORANGE, 92833
RITE AID 5499 ,License Type: Pharmacy (Community),BUENA PARK, ORANGE, 90621
RITE AID 5500 ,License Type: Pharmacy (Community),CYPRESS, ORANGE, 90630
RITE AID 5501 ,License Type: Pharmacy (Community),LA HABRA, ORANGE, 90631
RITE AID 5732 ,License Type: Pharmacy (Community),BREA, ORANGE, 92821
RITE AID 5733 ,License Type: Pharmacy (Community),COSTA MESA, ORANGE, 92627
RITE AID 5735 ,License Type: Pharmacy (Community),DANA POINT, ORANGE, 92629
RITE AID 5739 ,License Type: Pharmacy (Community),GARDEN GROVE, ORANGE, 92840
RITE AID 5741 ,License Type: Pharmacy (Community),GARDEN GROVE, ORANGE, 92843
RITE AID 5742 ,License Type: Pharmacy (Community),GARDEN GROVE, ORANGE, 92845
RITE AID 5743 ,License Type: Pharmacy (Community),GARDEN GROVE, ORANGE, 92845
RITE AID 5745 ,License Type: Pharmacy (Community),HUNTINGTON BEACH, ORANGE, 92649
RITE AID 5746 ,License Type: Pharmacy (Community),NEWPORT BEACH, ORANGE, 92660
RITE AID 5747 ,License Type: Pharmacy (Community),NEWPORT BEACH, ORANGE, 92660
RITE AID 5748 ,License Type: Pharmacy (Community),ORANGE, ORANGE, 92867
RITE AID 5749 ,License Type: Pharmacy (Community),SAN CLEMENTE, ORANGE, 92672
RITE AID 5750 ,License Type: Pharmacy (Community),SAN JUAN CAPISTRANO, ORANGE, 92675
RITE AID 5751 ,License Type: Pharmacy (Community),SAN JUAN CAPISTRANO, ORANGE, 92675
RITE AID 5753 ,License Type: Pharmacy (Community),LAGUNA NIGUEL, ORANGE, 92677
RITE AID 5754 ,License Type: Pharmacy (Community),TUSTIN, ORANGE, 92782
RITE AID 5755 ,License Type: Pharmacy (Community),TUSTIN, ORANGE, 92780
RITE AID 5756 ,License Type: Pharmacy (Community),WESTMINSTER, ORANGE, 92683
RITE AID 5757 ,License Type: Pharmacy (Community),YORBA LINDA, ORANGE, 92886
RITE AID 5758 ,License Type: Pharmacy (Community),RANCHO SANTA MARGARITA, ORANGE, 92688
RITE AID 5760 ,License Type: Pharmacy (Community),SANTA ANA, ORANGE, 92704
RITE AID 5761 ,License Type: Pharmacy (Community),SANTA ANA, ORANGE, 92704
RITE AID 5762 ,License Type: Pharmacy (Community),FOUNTAIN VALLEY, ORANGE, 92708
RITE AID 5763 ,License Type: Pharmacy (Community),FOUNTAIN VALLEY, ORANGE, 92708
RITE AID 5765 ,License Type: Pharmacy (Community),IRVINE, ORANGE, 92606
RITE AID 5768 ,License Type: Pharmacy (Community),ANAHEIM, ORANGE, 92804
RITE AID 5770 ,License Type: Pharmacy (Community),ANAHEIM, ORANGE, 92807
RITE AID 6207 ,License Type: Pharmacy (Community),CORONA DEL MAR, ORANGE, 92625
RITE AID NO 5515 ,License Type: Pharmacy (Community),SEAL BEACH, ORANGE, 90740
RITE AID NO 5734 ,License Type: Pharmacy (Community),COSTA MESA, ORANGE, 92626
RITE AID NO 5736 ,License Type: Pharmacy (Community),LAGUNA WOODS, ORANGE, 92637
RITE AID NO 5759 ,License Type: Pharmacy (Community),SANTA ANA, ORANGE, 92701
RITE AID NO 6213 ,License Type: Pharmacy (Community),COSTA MESA, ORANGE, 92626
RITE AID NO 6441 ,License Type: Pharmacy (Community),LA HABRA, ORANGE, 90631
RITE PRICE PHARMACY ,License Type: Pharmacy (Community),LAKE FOREST, ORANGE, 92630
RIVER'S EDGE SPECIALTY PHARMACY ,License Type: Pharmacy (Community),BUENA PARK, ORANGE, 90621
RIVER'S EDGE SPECIALTY PHARMACY ,License Type: Pharmacy (Community),IRVINE, ORANGE, 92614
ROSE PHARMACY ,License Type: Pharmacy (Community),SANTA ANA, ORANGE, 92707
ROSS PHARMACY ,License Type: Pharmacy (Community),LOS ALAMITOS, ORANGE, 90720
ROYAL PHARMACY ,License Type: Pharmacy (Community),HUNTINGTON BEACH, ORANGE, 92646
RX PLUS PHARMACY ,License Type: Pharmacy (Community),ANAHEIM, ORANGE, 92805
RX SOLUTION PHARMACY ,License Type: Pharmacy (Community),ORANGE, ORANGE, 92869
SADDLEBACK MEDICAL ARTS PHARMACY INC ,License Type: Pharmacy (Community),LAGUNA HILLS, ORANGE, 92653
SADDLEBACK MEDICAL CENTER PHARMACY ,License Type: Pharmacy (Community),LAGUNA HILLS, ORANGE, 92653
SADDLEBACK VALLEY PHARMACY ,License Type: Pharmacy (Community),LAGUNA HILLS, ORANGE, 92653
SAFETY FIRST PHARMACY ,License Type: Pharmacy (Community),SANTA ANA, ORANGE, 92703
SAIGON PHARMACY ,License Type: Pharmacy (Community),GARDEN GROVE, ORANGE, 92843
SAM'S CLUB PHARMACY NO 10-4735 ,License Type: Pharmacy (Community),LA HABRA, ORANGE, 90631
SAM'S PHARMACY #10-6615 ,License Type: Pharmacy (Community),FOUNTAIN VALLEY, ORANGE, 92708
SAMS CLUB PHARMACY #10-6616 ,License Type: Pharmacy (Community),FULLERTON, ORANGE, 92831
SANTA ANA PHARMACY HEALTH CENTER ,License Type: Pharmacy (Community),SANTA ANA, ORANGE, 92704
SANTA ANA TUSTIN PROF CLN PHCY ,License Type: Pharmacy (Community),SANTA ANA, ORANGE, 92705
SANTA MARIA PHARMACY ,License Type: Pharmacy (Community),ANAHEIM, ORANGE, 92804
SAV-ON PHARMACY #110 ,License Type: Pharmacy (Community),HUNTINGTON BEACH, ORANGE, 92648
SAV-ON PHARMACY #1105 ,License Type: Pharmacy (Community),BUENA PARK, ORANGE, 90620
SAV-ON PHARMACY #1165 ,License Type: Pharmacy (Community),FULLERTON, ORANGE, 92833
SAV-ON PHARMACY #1585 ,License Type: Pharmacy (Community),ORANGE, ORANGE, 92869
SAV-ON PHARMACY #170 ,License Type: Pharmacy (Community),FOUNTAIN VALLEY, ORANGE, 92708
SAV-ON PHARMACY #194 ,License Type: Pharmacy (Community),ANAHEIM, ORANGE, 92806
SAV-ON PHARMACY #2141 ,License Type: Pharmacy (Community),BREA, ORANGE, 92821
SAV-ON PHARMACY #2509 ,License Type: Pharmacy (Community),SAN CLEMENTE, ORANGE, 92673
SAV-ON PHARMACY #2549 ,License Type: Pharmacy (Community),MISSION VIEJO, ORANGE, 92692
SAV-ON PHARMACY #2551 ,License Type: Pharmacy (Community),ORANGE, ORANGE, 92869
SAV-ON PHARMACY #2558 ,License Type: Pharmacy (Community),DANA POINT, ORANGE, 92629
SAV-ON PHARMACY #2591 ,License Type: Pharmacy (Community),IRVINE, ORANGE, 92620
SAV-ON PHARMACY #3534 ,License Type: Pharmacy (Community),ORANGE, ORANGE, 92867
SAV-ON PHARMACY #3574 ,License Type: Pharmacy (Community),TUSTIN, ORANGE, 92780
SAV-ON PHARMACY #4145 ,License Type: Pharmacy (Community),WESTMINSTER, ORANGE, 92683
SAV-ON PHARMACY #4563 ,License Type: Pharmacy (Community),SAN CLEMENTE, ORANGE, 92673
SAV-ON PHARMACY #552 ,License Type: Pharmacy (Community),LADERA RANCH, ORANGE, 92694
SAV-ON PHARMACY #597 ,License Type: Pharmacy (Community),IRVINE, ORANGE, 92612
SAV-ON PHARMACY #598 ,License Type: Pharmacy (Community),SANTA ANA, ORANGE, 92705
SAV-ON PHARMACY #724 ,License Type: Pharmacy (Community),HUNTINGTON BEACH, ORANGE, 92648
SAV-ON PHARMACY #802 ,License Type: Pharmacy (Community),HUNTINGTON BEACH, ORANGE, 92649
SAV-ON PHARMACY #819 ,License Type: Pharmacy (Community),FULLERTON, ORANGE, 92831
SEA VIEW PHARMACY ,License Type: Pharmacy (Community),SAN CLEMENTE, ORANGE, 92673
SEENA PHARMACY ,License Type: Pharmacy (Community),LAGUNA HILLS, ORANGE, 92653
SENIOR CARE PHARMACY SERVICES INC ,License Type: Pharmacy (Community),GARDEN GROVE, ORANGE, 92841
SHARE OUR SELVES COMMUNITY HEALTH CENTER ,License Type: Pharmacy (Community),COSTA MESA, ORANGE, 92627
SO-LOW DRUGS ,License Type: Pharmacy (Community),LOS ALAMITOS, ORANGE, 90720
SOUTH COAST PHARMACY ,License Type: Pharmacy (Community),SANTA ANA, ORANGE, 92704
SOUTH GATE ROSE PHARMACY INC ,License Type: Pharmacy (Community),SANTA ANA, ORANGE, 92701
SOUTH MAIN ALOHA PHARMACY ,License Type: Pharmacy (Community),SANTA ANA, ORANGE, 92701
SOUTH MARINA PHARMACY ,License Type: Pharmacy (Community),ALISO VIEJO, ORANGE, 92656
SPECIALTY CARE RX ,License Type: Pharmacy (Community),ORANGE, ORANGE, 92868
SPECTRUM PHARMACY ,License Type: Pharmacy (Community),IRVINE, ORANGE, 92618
SPECTRUM PHARMACY- ANAHEIM ,License Type: Pharmacy (Community),ANAHEIM, ORANGE, 92801
ST JOSEPH HEALTH SYSTEM HOME HEALTH PHY ,License Type: Pharmacy (Community),ANAHEIM, ORANGE, 92805
ST JOSEPH PAVILION PHARMACY ,License Type: Pharmacy (Community),ORANGE, ORANGE, 92868
STUDENT HEALTH PHARMACY UC IRVINE ,License Type: Pharmacy (Government Owned Community),IRVINE, ORANGE, 92697
SUN RX PHARMACY ,License Type: Pharmacy (Community),ANAHEIM, ORANGE, 92801
SUNCOAST PHARMACY ,License Type: Pharmacy (Community),HUNTINGTON BEACH, ORANGE, 92648
SUNNY HILLS PHARMACY ,License Type: Pharmacy (Community),FULLERTON, ORANGE, 92835
SUNRISE VILLAGE PHARMACY ,License Type: Pharmacy (Community),FULLERTON, ORANGE, 92835
TAJ MAHAL MEDICAL CENTER PHARMACY ,License Type: Pharmacy (Community),LAGUNA HILLS, ORANGE, 92653
TAM'S RX PHARMACY ,License Type: Pharmacy (Community),WESTMINSTER, ORANGE, 92683
TAN BINH PHARMACY INC ,License Type: Pharmacy (Community),WESTMINSTER, ORANGE, 92683
TANA PHARMACY ,License Type: Pharmacy (Community),WESTMINSTER, ORANGE, 92683
TAO WELLNESS PHARMACY ,License Type: Pharmacy (Community),FOUNTAIN VALLEY, ORANGE, 92708
TELNET-RX PHARMACY ,License Type: Pharmacy (Community),YORBA LINDA, ORANGE, 92886
THE DRUGGIST #2 ,License Type: Pharmacy (Community),HUNTINGTON BEACH, ORANGE, 92649
THE DRUGGIST PHARMACY ,License Type: Pharmacy (Community),LAGUNA NIGUEL, ORANGE, 92677
THE MEDICINE SHOPPE ,License Type: Pharmacy (Community),ANAHEIM, ORANGE, 92801
THE PHARMACY ,License Type: Pharmacy (Community),ANAHEIM, ORANGE, 92804
THE PROFESSIONAL PHARMACY ,License Type: Pharmacy (Community),WESTMINSTER, ORANGE, 92683
THEO PHARMACY ,License Type: Pharmacy (Community),WESTMINSTER, ORANGE, 92683
THRIFTY PAYLESS INC DBA RITE AID #5497 ,License Type: Pharmacy (Community),ANAHEIM, ORANGE, 92801
THRIFTY PAYLESS INC DBA RITE AID #6717 ,License Type: Pharmacy (Community),IRVINE, ORANGE, 92618
THRIFTY PAYLESS INC RITE AID #6743 ,License Type: Pharmacy (Community),RANCHO MISSION VIEJO, ORANGE, 92694
THU VAN PHARMACY ,License Type: Pharmacy (Community),WESTMINSTER, ORANGE, 92683
TIGOM LLC / DBA MP PHARMACY II ,License Type: Pharmacy (Community),LOS ALAMITOS, ORANGE, 90720
TLC XPRESS PHARMACY ,License Type: Pharmacy (Community),Probation, ORANGE, 92708
TNT PHARMACY 2 ,License Type: Pharmacy (Community),ORANGE, ORANGE, 92868
TOP DRUGS PHARMACY ,License Type: Pharmacy (Community),GARDEN GROVE, ORANGE, 92841
TOTAL CARE RX PHARMACY ,License Type: Pharmacy (Community),HUNTINGTON BEACH, ORANGE, 92648
TOWER PHARMACY ,License Type: Pharmacy (Community),Probation, ORANGE, 92691
TRAN PHARMACY ,License Type: Pharmacy (Community),GARDEN GROVE, ORANGE, 92843
TRAN PHARMACY #2 ,License Type: Pharmacy (Community),GARDEN GROVE, ORANGE, 92844
TRINITY CARE RX ,License Type: Pharmacy (Community),STANTON, ORANGE, 90680
TRINITY MISSION PHARMACY ,License Type: Pharmacy (Community),FOUNTAIN VALLEY, ORANGE, 92708
TRUCARE PHARMACY ,License Type: Pharmacy (Community),GARDEN GROVE, ORANGE, 92840
TRUE CARE PHARMACY ,License Type: Pharmacy (Community),ANAHEIM, ORANGE, 92801
TT PHARMACY ,License Type: Pharmacy (Community),WESTMINSTER, ORANGE, 92683
TUSTIN PHARMACY ,License Type: Pharmacy (Community),TUSTIN, ORANGE, 92780
TUSTIN PREMIER PHARMACY ,License Type: Pharmacy (Community),ORANGE, ORANGE, 92866
UC IRVINE HEALTH - OUTPATIENT PHARMACY ,License Type: Pharmacy (Government Owned Community),ORANGE, ORANGE, 92868
UC IRVINE HEALTH CANCER CENTER - NEWPORT ,License Type: Pharmacy (Government Owned Community),COSTA MESA, ORANGE, 92627
UCI FAMILY HEALTH CENTER ,License Type: Pharmacy (Government Owned Community),SANTA ANA, ORANGE, 92701
UNIPHARMA INC ,License Type: Pharmacy (Community),LOS ALAMITOS, ORANGE, 90720
UNIVERSITY OF CA IRVINE MEDICAL CTR ,License Type: Pharmacy (Government Owned Community),ORANGE, ORANGE, 92868
US BIOSERVICES ,License Type: Pharmacy (Community),ANAHEIM, ORANGE, 92807
VALUE CARE PHARMACY ,License Type: Pharmacy (Community),ANAHEIM, ORANGE, 92805
VALUE RX PHARMACY ,License Type: Pharmacy (Community),IRVINE, ORANGE, 92618
VALUE SCRIPTS PHARMACY ,License Type: Pharmacy (Community),WESTMINSTER, ORANGE, 92683
VAN PHARMACY ,License Type: Pharmacy (Community),GARDEN GROVE, ORANGE, 92843
VIA LIDO DRUGS ,License Type: Pharmacy (Community),NEWPORT BEACH, ORANGE, 92663
VILLA PARK PHARMACY ,License Type: Pharmacy (Community),VILLA PARK, ORANGE, 92861
VISTA DRUG ,License Type: Pharmacy (Community),COSTA MESA, ORANGE, 92627
VN DRUGS ,License Type: Pharmacy (Community),GARDEN GROVE, ORANGE, 92843
VONS PHARMACY #1626 ,License Type: Pharmacy (Community),SANTA ANA, ORANGE, 92704
VONS PHARMACY #2091 ,License Type: Pharmacy (Community),SAN JUAN CAPISTRANO, ORANGE, 92675
VONS PHARMACY #2206 ,License Type: Pharmacy (Community),WESTMINSTER, ORANGE, 92683
VONS PHARMACY #2335 ,License Type: Pharmacy (Community),ORANGE, ORANGE, 92865
VONS PHARMACY #3069 ,License Type: Pharmacy (Community),YORBA LINDA, ORANGE, 92886
VONS PHARMACY #3160 ,License Type: Pharmacy (Community),HUNTINGTON BEACH, ORANGE, 92646
WAGNER PHARMACY ,License Type: Pharmacy (Community),SANTA ANA, ORANGE, 92705
WAL MART PHARMACY 10 2218 ,License Type: Pharmacy (Community),FOOTHILL RANCH, ORANGE, 92610
WAL MART PHARMACY 10 2495 ,License Type: Pharmacy (Community),WESTMINSTER, ORANGE, 92683
WAL-MART PHARMACY 10-2242 ,License Type: Pharmacy (Community),ANAHEIM, ORANGE, 92801
WAL-MART PHARMACY 10-3099 ,License Type: Pharmacy (Community),LA PALMA, ORANGE, 90623
WAL-MART PHARMACY 10-4134 ,License Type: Pharmacy (Community),STANTON, ORANGE, 90680
WAL-MART PHARMACY 10-4171 ,License Type: Pharmacy (Community),GARDEN GROVE, ORANGE, 92841
WAL-MART PHARMACY 10-5600 ,License Type: Pharmacy (Community),RANCHO SANTA MARGARITA, ORANGE, 92688
WAL-MART PHARMACY 10-5601 ,License Type: Pharmacy (Community),HUNTINGTON BEACH, ORANGE, 92648
WAL-MART PHARMACY 10-5639 ,License Type: Pharmacy (Community),GARDEN GROVE, ORANGE, 92840
WAL-MART PHARMACY 10-5640 ,License Type: Pharmacy (Community),ANAHEIM, ORANGE, 92805
WAL-MART PHARMACY 10-5641 ,License Type: Pharmacy (Community),LA HABRA, ORANGE, 90631
WAL-MART PHARMACY 10-5644 ,License Type: Pharmacy (Community),IRVINE, ORANGE, 92606
WAL-MART PHARMACY 10-5687 ,License Type: Pharmacy (Community),IRVINE, ORANGE, 92618
WALGREEN CO D/B/A WALGREENS #09977 ,License Type: Pharmacy (Community),ANAHEIM, ORANGE, 92802
WALGREENS #01750 ,License Type: Pharmacy (Community),FULLERTON, ORANGE, 92831
WALGREENS #02162 ,License Type: Pharmacy (Community),WESTMINSTER, ORANGE, 92683
WALGREENS #03560 ,License Type: Pharmacy (Community),PLACENTIA, ORANGE, 92870
WALGREENS #03588 ,License Type: Pharmacy (Community),SANTA ANA, ORANGE, 92704
WALGREENS #03636 ,License Type: Pharmacy (Community),ORANGE, ORANGE, 92869
WALGREENS #03674 ,License Type: Pharmacy (Community),GARDEN GROVE, ORANGE, 92840
WALGREENS #03747 ,License Type: Pharmacy (Community),LA HABRA, ORANGE, 90631
WALGREENS #03936 ,License Type: Pharmacy (Community),LAKE FOREST, ORANGE, 92630
WALGREENS #04207 ,License Type: Pharmacy (Community),LAGUNA HILLS, ORANGE, 92653
WALGREENS #04354 ,License Type: Pharmacy (Community),HUNTINGTON BEACH, ORANGE, 92647
WALGREENS #05672 ,License Type: Pharmacy (Community),LA HABRA, ORANGE, 90631
WALGREENS #05744 ,License Type: Pharmacy (Community),ANAHEIM, ORANGE, 92806
WALGREENS #05771 ,License Type: Pharmacy (Community),HUNTINGTON BEACH, ORANGE, 92647
WALGREENS #05881 ,License Type: Pharmacy (Community),HUNTINGTON BEACH, ORANGE, 92648
WALGREENS #05972 ,License Type: Pharmacy (Community),GARDEN GROVE, ORANGE, 92840
WALGREENS #06157 ,License Type: Pharmacy (Community),ANAHEIM, ORANGE, 92804
WALGREENS #06187 ,License Type: Pharmacy (Community),GARDEN GROVE, ORANGE, 92845
WALGREENS #06215 ,License Type: Pharmacy (Community),FULLERTON, ORANGE, 92833
WALGREENS #06388 ,License Type: Pharmacy (Community),SANTA ANA, ORANGE, 92705
WALGREENS #06446 ,License Type: Pharmacy (Community),STANTON, ORANGE, 90680
WALGREENS #06726 ,License Type: Pharmacy (Community),ANAHEIM, ORANGE, 92801
WALGREENS #06954 ,License Type: Pharmacy (Community),ANAHEIM, ORANGE, 92804
WALGREENS #06975 ,License Type: Pharmacy (Community),LAGUNA NIGUEL, ORANGE, 92677
WALGREENS #07286 ,License Type: Pharmacy (Community),TUSTIN, ORANGE, 92780
WALGREENS #07629 ,License Type: Pharmacy (Community),CYPRESS, ORANGE, 90630
WALGREENS #07679 ,License Type: Pharmacy (Community),BUENA PARK, ORANGE, 90620
WALGREENS #09089 ,License Type: Pharmacy (Community),HUNTINGTON BEACH, ORANGE, 92646
WALGREENS #09197 ,License Type: Pharmacy (Community),PLACENTIA, ORANGE, 92870
WALGREENS #09533 ,License Type: Pharmacy (Community),WESTMINSTER, ORANGE, 92683
WALGREENS #09534 ,License Type: Pharmacy (Community),FOUNTAIN VALLEY, ORANGE, 92708
WALGREENS #09843 ,License Type: Pharmacy (Community),MISSION VIEJO, ORANGE, 92692
WALGREENS #09883 ,License Type: Pharmacy (Community),IRVINE, ORANGE, 92620
WALGREENS #10336 ,License Type: Pharmacy (Community),ORANGE, ORANGE, 92866
WALGREENS #10397 ,License Type: Pharmacy (Community),SANTA ANA, ORANGE, 92706
WALGREENS #10629 ,License Type: Pharmacy (Community),ANAHEIM, ORANGE, 92804
WALGREENS #10630 ,License Type: Pharmacy (Community),LA PALMA, ORANGE, 90623
WALGREENS #10852 ,License Type: Pharmacy (Community),LAGUNA NIGUEL, ORANGE, 92677
WALGREENS #11241 ,License Type: Pharmacy (Community),ALISO VIEJO, ORANGE, 92656
WALGREENS #11652 ,License Type: Pharmacy (Community),COSTA MESA, ORANGE, 92627
WALGREENS #11786 ,License Type: Pharmacy (Community),IRVINE, ORANGE, 92618
WALGREENS #12140 ,License Type: Pharmacy (Community),HUNTINGTON BEACH, ORANGE, 92649
WALGREENS #12573 ,License Type: Pharmacy (Community),FOUNTAIN VALLEY, ORANGE, 92708
WALGREENS #12682 ,License Type: Pharmacy (Community),LAKE FOREST, ORANGE, 92630
WALGREENS #12916 ,License Type: Pharmacy (Community),RANCHO SANTA MARGARITA, ORANGE, 92688
WALMART PHARMACY 10 2206 ,License Type: Pharmacy (Community),LAGUNA NIGUEL, ORANGE, 92677
WALMART PHARMACY 10 2517 ,License Type: Pharmacy (Community),SANTA ANA, ORANGE, 92704
WALMART PHARMACY 10 2523 ,License Type: Pharmacy (Community),BREA, ORANGE, 92821
WALMART PHARMACY 10 2546 ,License Type: Pharmacy (Community),ORANGE, ORANGE, 92865
WALMART PHARMACY 10-3101 ,License Type: Pharmacy (Community),ANAHEIM, ORANGE, 92801
WALMART PHARMACY 10-5930 ,License Type: Pharmacy (Community),ANAHEIM, ORANGE, 92801
WALMART PHARMACY NO 10 2527 ,License Type: Pharmacy (Community),SAN CLEMENTE, ORANGE, 92673
WALMART PHARMACY NO 10-2636 ,License Type: Pharmacy (Community),HUNTINGTON BEACH, ORANGE, 92646
WALMART PHARMACY NO 10-3248 ,License Type: Pharmacy (Community),LA HABRA, ORANGE, 90631
WALMART PHARMACY NO 10-5032 ,License Type: Pharmacy (Community),BUENA PARK, ORANGE, 90620
WALNUT VILLAGE PHARMACY ,License Type: Pharmacy (Community),IRVINE, ORANGE, 92604
WARNER VILLAGE PHARMACY ,License Type: Pharmacy (Community),FOUNTAIN VALLEY, ORANGE, 92708
WELLCARE RX ,License Type: Pharmacy (Community),FOUNTAIN VALLEY, ORANGE, 92708
WEST DRUG ,License Type: Pharmacy (Community),WESTMINSTER, ORANGE, 92683
WEST PHARMACY ,License Type: Pharmacy (Community),HUNTINGTON BEACH, ORANGE, 92648
WESTCLIFF COMPOUNDING PHARMACY ,License Type: Pharmacy (Community),NEWPORT BEACH, ORANGE, 92660
WESTMED PHARMACY ,License Type: Pharmacy (Community),GARDEN GROVE, ORANGE, 92844
WHITE FRONT PHARMACY ,License Type: Pharmacy (Community),COSTA MESA, ORANGE, 92626
WHOLE HEALTH PHARMACY ,License Type: Pharmacy (Community),MISSION VIEJO, ORANGE, 92691
WOW PHARMACY ,License Type: Pharmacy (Community),BUENA PARK, ORANGE, 90621
WOW PHARMACY ,License Type: Pharmacy (Community),GARDEN GROVE, ORANGE, 92840
XUANS PHARMACY ,License Type: Pharmacy (Community),WESTMINSTER, ORANGE, 92683
YORBA LINDA PHARMACY ,License Type: Pharmacy (Community),Accusation filed, ORANGE, 92807
