,name,license_type,county,city,zip
0,12422 CENTRAL PHARMACY ,License Type: Pharmacy (Community),CHINO, SAN BERNARDINO, 91710
1,1ST CHOICE PHARMACY ,License Type: Pharmacy (Community),POWAY, SAN DIEGO, 92064
2,4 FRONT PHARMACY ,License Type: Pharmacy (Community),LA MESA, SAN DIEGO, 91942
3,A FAMILY PHARMACY ,License Type: Pharmacy (Community),HESPERIA, SAN BERNARDINO, 92345
4,A FAMILY PHARMACY APPLE VALLEY ,License Type: Pharmacy (Community),APPLE VALLEY, SAN BERNARDINO, 92307
5,A1 CARE PHARMACY ,License Type: Pharmacy (Community),FONTANA, SAN BERNARDINO, 92336
6,ABC PHARMACY ,License Type: Pharmacy (Community),ONTARIO, SAN BERNARDINO, 91764
7,ABC PHARMACY ,License Type: Pharmacy (Community),REDLANDS, SAN BERNARDINO, 92374
8,ABC PHARMACY ,License Type: Pharmacy (Community),RIALTO, SAN BERNARDINO, 92376
9,ABC PHARMACY ,License Type: Pharmacy (Community),RANCHO CUCAMONGA, SAN BERNARDINO, 91730
10,ABC PHARMACY ,License Type: Pharmacy (Community),UPLAND, SAN BERNARDINO, 91786
11,ABC PHARMACY ,License Type: Pharmacy (Community),MONTCLAIR, SAN BERNARDINO, 91763
12,ACE PHARMACY ,License Type: Pharmacy (Community),UPLAND, SAN BERNARDINO, 91786
13,ADVANCE CARE PHARMACY ,License Type: Pharmacy (Community),ESCONDIDO, SAN DIEGO, 92025
14,AHF PHARMACY ,License Type: Pharmacy (Community),SAN DIEGO, SAN DIEGO, 92103
15,ALL CARE PHARMACY ,License Type: Pharmacy (Community),SANTEE, SAN DIEGO, 92071
16,ALLCARE PHARMACY ,License Type: Pharmacy (Community),VICTORVILLE, SAN BERNARDINO, 92395
17,ALLEN PHARMACY ,License Type: Pharmacy (Community),SAN DIEGO, SAN DIEGO, 92101
18,ALTA CARE PHARMACY ,License Type: Pharmacy (Community),UPLAND, SAN BERNARDINO, 91786
19,ALTA VISTA PHARMACY ,License Type: Pharmacy (Community),MONTCLAIR, SAN BERNARDINO, 91763
20,ALVARADO COMMUNITY PHARMACY ,License Type: Pharmacy (Community),SAN DIEGO, SAN DIEGO, 92120
21,ALVARADO PHARMACY SERVICES INC ,License Type: Pharmacy (Community),SAN DIEGO, SAN DIEGO, 92120
22,AM PHARMACY ,License Type: Pharmacy (Community),HESPERIA, SAN BERNARDINO, 92345
23,AMBER ENTERPRISES INC D/B/A AMBER PHARMACY ,License Type: Pharmacy (Community),SAN BERNARDINO, SAN BERNARDINO, 92408
24,AMERICAN SURGICAL PHARMACY ,License Type: Pharmacy (Community),SAN BERNARDINO, SAN BERNARDINO, 92404
25,ARROW PHARMACY ,License Type: Pharmacy (Community),RANCHO CUCAMONGA, SAN BERNARDINO, 91730
26,ARROWCARE PHARMACY ,License Type: Pharmacy (Community),SAN BERNARDINO, SAN BERNARDINO, 92404
27,ARROWHEAD REGIONAL MED CTR PHY ,License Type: Pharmacy (Government Owned Community),COLTON, SAN BERNARDINO, 92324
28,ASMAR COMMUNITY PHARMACY ,License Type: Pharmacy (Community),EL CAJON, SAN DIEGO, 92020
29,AVALON PHARMACY ,License Type: Pharmacy (Community),YUCCA VALLEY, SAN BERNARDINO, 92284
30,BALDY VISTA PHARMACY ,License Type: Pharmacy (Community),ONTARIO, SAN BERNARDINO, 91762
31,BEEMANS HIGHLAND PHARMACY ,License Type: Pharmacy (Community),SAN BERNARDINO, SAN BERNARDINO, 92404
32,BEEMANS LAKE ARROWHEAD PHARMACY ,License Type: Pharmacy (Community),LAKE ARROWHEAD, SAN BERNARDINO, 92352
33,BEEMANS PRESCRIPTION PHARMACY ,License Type: Pharmacy (Community),SAN BERNARDINO, SAN BERNARDINO, 92404
34,BEEMANS REDLANDS PHARMACY ,License Type: Pharmacy (Community),REDLANDS, SAN BERNARDINO, 92373
35,BEST PHARMACY ,License Type: Pharmacy (Community),VICTORVILLE, SAN BERNARDINO, 92395
36,BIOSCRIP INFUSION SERVICES INC ,License Type: Pharmacy (Community),ONTARIO, SAN BERNARDINO, 91761
37,BORREGO COMMUNITY HEALTH FOUNDATION ,License Type: Pharmacy (Community),Probation Terminated/Completed, SAN DIEGO, 92004
38,BORREGO PHARMACY BARSTOW ,License Type: Pharmacy (Community),BARSTOW, SAN BERNARDINO, 92311
39,BRAND NEW PHARMACY INC ,License Type: Pharmacy (Community),REDLANDS, SAN BERNARDINO, 92373
40,BRIAN PHARMACY ,License Type: Pharmacy (Community),SAN DIEGO, SAN DIEGO, 92115
41,BROADWAY PHARMACY ,License Type: Pharmacy (Community),LEMON GROVE, SAN DIEGO, 91945
42,CA&K INC DBA PRICE RITE PHARMACY ,License Type: Pharmacy (Community),CARLSBAD, SAN DIEGO, 92011
43,CAJON PHARMACY ,License Type: Pharmacy (Community),REDLANDS, SAN BERNARDINO, 92373
44,CALICARE PHARMACY ,License Type: Pharmacy (Community),CHINO, SAN BERNARDINO, 91710
45,CANARY PHARMACY ,License Type: Pharmacy (Community),MONTCLAIR, SAN BERNARDINO, 91763
46,CARDINAL HEALTH ,License Type: Pharmacy (Community),SAN DIEGO, SAN DIEGO, 92108
47,"CARDINAL HEALTH 414,LLC ",License Type: Pharmacy (Community),COLTON, SAN BERNARDINO, 92324
48,CARE PHARMACY ,License Type: Pharmacy (Community),SAN DIEGO, SAN DIEGO, 92115
49,CARE PHARMACY ,License Type: Pharmacy (Community),FONTANA, SAN BERNARDINO, 92335
50,CAREMARK CALIFORNIA SPECIALTY PHARMACY LLC DBA CVS SPECIALTY ,License Type: Pharmacy (Community),REDLANDS, SAN BERNARDINO, 92374
51,"CAREMARK, L.L.C DBA CVS/SPECIALTY ",License Type: Pharmacy (Community),REDLANDS, SAN BERNARDINO, 92374
52,CARLSBAD VILLAGE PHARMACY ,License Type: Pharmacy (Community),CARLSBAD, SAN DIEGO, 92008
53,CARMEL VALLEY PHARMACY ,License Type: Pharmacy (Community),SAN DIEGO, SAN DIEGO, 92130
54,CBC COMMUNITY PHARMACY ,License Type: Pharmacy (Community),SAN BERNARDINO, SAN BERNARDINO, 92411
55,CEDAR PARK PHARMACY ,License Type: Pharmacy (Community),VISTA, SAN DIEGO, 92083
56,CHILDRENS MEDICAL CENTER PHARMACY ,License Type: Pharmacy (Community),SAN DIEGO, SAN DIEGO, 92123
57,CHINO HILLS PROFESSIONAL PHARMACY ,License Type: Pharmacy (Community),CHINO HILLS, SAN BERNARDINO, 91709
58,CHINO MEDICAL PHARMACY ,License Type: Pharmacy (Community),CHINO, SAN BERNARDINO, 91710
59,CHINO PLAZA PHARMACY ,License Type: Pharmacy (Community),CHINO, SAN BERNARDINO, 91710
60,CHINOCARE PHARMACY ,License Type: Pharmacy (Community),CHINO, SAN BERNARDINO, 91710
61,CHULAVISTA PHARMACY ,License Type: Pharmacy (Community),CHULA VISTA, SAN DIEGO, 91910
62,CITRUS PHARMACY ,License Type: Pharmacy (Community),REDLANDS, SAN BERNARDINO, 92373
63,COAST COMPOUNDING PHARMACY ,License Type: Pharmacy (Community),OCEANSIDE, SAN DIEGO, 92054
64,COLE'S VILLAGE PHARMACY ,License Type: Pharmacy (Community),FONTANA, SAN BERNARDINO, 92335
65,COLTON PHARMACY ,License Type: Pharmacy (Community),COLTON, SAN BERNARDINO, 92324
66,COMMUNITY A WALGREENS PHARMACY #16490 ,License Type: Pharmacy (Community),LA JOLLA, SAN DIEGO, 92037
67,COMMUNITY CARE PHARMACY ,License Type: Pharmacy (Community),APPLE VALLEY, SAN BERNARDINO, 92307
68,COMMUNITY HEALTHCARE SERVICES INC ,License Type: Pharmacy (Community),LOMA LINDA, SAN BERNARDINO, 92354
69,COMMUNITY MEDICAL CENTER PHARMACY ,License Type: Pharmacy (Community),SAN DIEGO, SAN DIEGO, 92102
70,COMMUNITY PHARMACY OF VALLEY CENTER ,License Type: Pharmacy (Community),VALLEY CENTER, SAN DIEGO, 92082
71,"COMMUNITY, A WALGREENS PHARMACY_#13434 ",License Type: Pharmacy (Community),SAN DIEGO, SAN DIEGO, 92103
72,COMPREHENSIVE HEALTH CENTER PHARMACY ,License Type: Pharmacy (Community),SAN DIEGO, SAN DIEGO, 92113
73,COOLEY HEALTH PHARMACY ,License Type: Pharmacy (Community),COLTON, SAN BERNARDINO, 92324
74,CORAM CVS/SPECIALTY INFUSION SERVICES ,License Type: Pharmacy (Community),SAN DIEGO, SAN DIEGO, 92128
75,CORAM CVS/SPECIALTY INFUSION SERVICES ,License Type: Pharmacy (Community),ONTARIO, SAN BERNARDINO, 91761
76,CORTEXRX ,License Type: Pharmacy (Community),LA JOLLA, SAN DIEGO, 92037
77,COSTCO PHARMACY #1010 ,License Type: Pharmacy (Community),VICTORVILLE, SAN BERNARDINO, 92395
78,COSTCO PHARMACY #1080 ,License Type: Pharmacy (Community),SAN MARCOS, SAN DIEGO, 92069
79,COSTCO PHARMACY #124 ,License Type: Pharmacy (Community),VISTA, SAN DIEGO, 92081
80,COSTCO PHARMACY #401 ,License Type: Pharmacy (Community),SAN DIEGO, SAN DIEGO, 92117
81,COSTCO PHARMACY #452 ,License Type: Pharmacy (Community),SAN DIEGO, SAN DIEGO, 92128
82,COSTCO PHARMACY #462 ,License Type: Pharmacy (Community),CARLSBAD, SAN DIEGO, 92011
83,COSTCO PHARMACY #627 ,License Type: Pharmacy (Community),FONTANA, SAN BERNARDINO, 92336
84,COSTCO PHARMACY #775 ,License Type: Pharmacy (Community),POWAY, SAN DIEGO, 92064
85,COSTCO PHARMACY #781 ,License Type: Pharmacy (Community),CHULA VISTA, SAN DIEGO, 91911
86,COSTCO PHARMACY 403 ,License Type: Pharmacy (Community),SANTEE, SAN DIEGO, 92071
87,COSTCO PHARMACY 460 ,License Type: Pharmacy (Community),CHULA VISTA, SAN DIEGO, 91910
88,COSTCO PHARMACY 469 ,License Type: Pharmacy (Community),LA MESA, SAN DIEGO, 91942
89,COSTCO PHARMACY 473 ,License Type: Pharmacy (Community),CHINO HILLS, SAN BERNARDINO, 91709
90,COSTCO PHARMACY NO 478 ,License Type: Pharmacy (Community),SAN BERNARDINO, SAN BERNARDINO, 92408
91,COSTCO PHARMACY NO 678 ,License Type: Pharmacy (Community),RANCHO CUCAMONGA, SAN BERNARDINO, 91730
92,COSTCO PHARMACY NO 686 ,License Type: Pharmacy (Community),MONTCLAIR, SAN BERNARDINO, 91763
93,COSTCO WHOLESALE PHARMACY NO 483 ,License Type: Pharmacy (Community),SAN DIEGO, SAN DIEGO, 92102
94,COSTCO WHOLESALE PHARMACY NO 488 ,License Type: Pharmacy (Community),SAN DIEGO, SAN DIEGO, 92108
95,CRESCENT HEALTHCARE ,License Type: Pharmacy (Community),SAN DIEGO, SAN DIEGO, 92128
96,CROALS REXALL DRUGS ,License Type: Pharmacy (Community),BARSTOW, SAN BERNARDINO, 92311
97,CROWN PLAZA PHARMACY ,License Type: Pharmacy (Community),MONTCLAIR, SAN BERNARDINO, 91763
98,CSU SAN MARCOS SHCS PHARMACY ,License Type: Pharmacy (Government Owned Community),SAN MARCOS, SAN DIEGO, 92096
99,CUCAMONGA COMMUNITY PHARMACY ,License Type: Pharmacy (Community),RANCHO CUCAMONGA, SAN BERNARDINO, 91730
100,CUCAMONGA PHARMACY ,License Type: Pharmacy (Community),RANCHO CUCAMONGA, SAN BERNARDINO, 91730
101,CURE STAT RX ,License Type: Pharmacy (Community),SAN DIEGO, SAN DIEGO, 92121
102,CURT'S PHARMACY ,License Type: Pharmacy (Community),VICTORVILLE, SAN BERNARDINO, 92395
103,CVS PHARMACY #10919 ,License Type: Pharmacy (Community),SPRING VALLEY, SAN DIEGO, 91977
104,CVS PHARMACY #4148 ,License Type: Pharmacy (Community),VICTORVILLE, SAN BERNARDINO, 92392
105,CVS PHARMACY #8523 ,License Type: Pharmacy (Community),RIALTO, SAN BERNARDINO, 92376
106,CVS PHARMACY #8818 ,License Type: Pharmacy (Community),SAN MARCOS, SAN DIEGO, 92069
107,CVS PHARMACY #8825 ,License Type: Pharmacy (Community),GRAND TERRACE, SAN BERNARDINO, 92313
108,CVS PHARMACY #8833 ,License Type: Pharmacy (Community),SAN DIEGO, SAN DIEGO, 92123
109,CVS PHARMACY #8836 ,License Type: Pharmacy (Community),VISTA, SAN DIEGO, 92081
110,CVS PHARMACY #8842 ,License Type: Pharmacy (Community),EL CAJON, SAN DIEGO, 92020
111,CVS PHARMACY #8857 ,License Type: Pharmacy (Community),VISTA, SAN DIEGO, 92804
112,CVS PHARMACY #8859 ,License Type: Pharmacy (Community),CHULA VISTA, SAN DIEGO, 91910
113,CVS PHARMACY #8866 ,License Type: Pharmacy (Community),OCEANSIDE, SAN DIEGO, 92054
114,CVS PHARMACY #8894 ,License Type: Pharmacy (Community),REDLANDS, SAN BERNARDINO, 92373
115,CVS PHARMACY #9102 ,License Type: Pharmacy (Community),SAN DIEGO, SAN DIEGO, 92131
116,CVS PHARMACY #9103 ,License Type: Pharmacy (Community),ESCONDIDO, SAN DIEGO, 92026
117,CVS PHARMACY #9104 ,License Type: Pharmacy (Community),ESCONDIDO, SAN DIEGO, 92027
118,CVS PHARMACY #9105 ,License Type: Pharmacy (Community),POWAY, SAN DIEGO, 92064
119,CVS PHARMACY #9108 ,License Type: Pharmacy (Community),ESCONDIDO, SAN DIEGO, 92025
120,CVS PHARMACY #9109 ,License Type: Pharmacy (Community),SAN DIEGO, SAN DIEGO, 92115
121,CVS PHARMACY #9110 ,License Type: Pharmacy (Community),FALLBROOK, SAN DIEGO, 92028
122,CVS PHARMACY #9111 ,License Type: Pharmacy (Community),RANCHO BERNARDO, SAN DIEGO, 92128
123,CVS PHARMACY #9112 ,License Type: Pharmacy (Community),LEMON GROVE, SAN DIEGO, 91945
124,CVS PHARMACY #9113 ,License Type: Pharmacy (Community),CHULA VISTA, SAN DIEGO, 91911
125,CVS PHARMACY #9114 ,License Type: Pharmacy (Community),EL CAJON, SAN DIEGO, 92021
126,CVS PHARMACY #9115 ,License Type: Pharmacy (Community),SAN DIEGO, SAN DIEGO, 92154
127,CVS PHARMACY #9120 ,License Type: Pharmacy (Community),IMPERIAL BEACH, SAN DIEGO, 91932
128,CVS PHARMACY #9121 ,License Type: Pharmacy (Community),SAN DIEGO, SAN DIEGO, 92115
129,CVS PHARMACY #9131 ,License Type: Pharmacy (Community),SAN DIEGO, SAN DIEGO, 92127
130,CVS PHARMACY #9137 ,License Type: Pharmacy (Community),SAN DIEGO, SAN DIEGO, 92119
131,CVS PHARMACY #9138 ,License Type: Pharmacy (Community),NATIONAL CITY, SAN DIEGO, 91950
132,CVS PHARMACY #9140 ,License Type: Pharmacy (Community),CHULA VISTA, SAN DIEGO, 91910
133,CVS PHARMACY #9141 ,License Type: Pharmacy (Community),SAN DIEGO, SAN DIEGO, 92104
134,CVS PHARMACY #9145 ,License Type: Pharmacy (Community),Probation Terminated/Completed, SAN DIEGO, 92071
135,CVS PHARMACY #9148 ,License Type: Pharmacy (Community),SAN DIEGO, SAN DIEGO, 92103
136,CVS PHARMACY #9165 ,License Type: Pharmacy (Community),SAN DIEGO, SAN DIEGO, 92110
137,CVS PHARMACY #9166 ,License Type: Pharmacy (Community),SAN MARCOS, SAN DIEGO, 92078
138,CVS PHARMACY #9173 ,License Type: Pharmacy (Community),EL CAJON, SAN DIEGO, 92020
139,CVS PHARMACY #9175 ,License Type: Pharmacy (Community),SAN DIEGO, SAN DIEGO, 92117
140,CVS PHARMACY #9177 ,License Type: Pharmacy (Community),SAN DIEGO, SAN DIEGO, 92126
141,CVS PHARMACY #9181 ,License Type: Pharmacy (Community),ENCINITAS, SAN DIEGO, 92024
142,CVS PHARMACY #9187 ,License Type: Pharmacy (Community),SOLANA BEACH, SAN DIEGO, 92075
143,CVS PHARMACY #9192 ,License Type: Pharmacy (Community),SAN DIEGO, SAN DIEGO, 92128
144,CVS PHARMACY #9193 ,License Type: Pharmacy (Community),SAN DIEGO, SAN DIEGO, 92113
145,CVS PHARMACY #9194 ,License Type: Pharmacy (Community),RAMONA, SAN DIEGO, 92065
146,CVS PHARMACY #9195 ,License Type: Pharmacy (Community),LA JOLLA, SAN DIEGO, 92037
147,CVS PHARMACY #9196 ,License Type: Pharmacy (Community),CHULA VISTA, SAN DIEGO, 91911
148,CVS PHARMACY #9197 ,License Type: Pharmacy (Community),SAN DIEGO, SAN DIEGO, 92129
149,CVS PHARMACY #9479 ,License Type: Pharmacy (Community),CARLSBAD, SAN DIEGO, 92008
150,CVS PHARMACY #9524 ,License Type: Pharmacy (Community),SAN DIEGO, SAN DIEGO, 92154
151,CVS PHARMACY #9528 ,License Type: Pharmacy (Community),CARLSBAD, SAN DIEGO, 92009
152,CVS PHARMACY #9532 ,License Type: Pharmacy (Community),OCEANSIDE, SAN DIEGO, 92057
153,CVS PHARMACY #9549 ,License Type: Pharmacy (Community),OCEANSIDE, SAN DIEGO, 92056
154,CVS PHARMACY #9574 ,License Type: Pharmacy (Community),VISTA, SAN DIEGO, 92083
155,CVS PHARMACY #9585 ,License Type: Pharmacy (Community),OCEANSIDE, SAN DIEGO, 92058
156,CVS PHARMACY #9619 ,License Type: Pharmacy (Community),FONTANA, SAN BERNARDINO, 92335
157,CVS PHARMACY #9644 ,License Type: Pharmacy (Community),HESPERIA, SAN BERNARDINO, 92345
158,CVS PHARMACY #9649 ,License Type: Pharmacy (Community),YUCAIPA, SAN BERNARDINO, 92399
159,CVS PHARMACY #9650 ,License Type: Pharmacy (Community),VICTORVILLE, SAN BERNARDINO, 92392
160,CVS PHARMACY #9664 ,License Type: Pharmacy (Community),SAN BERNARDINO, SAN BERNARDINO, 92411
161,CVS PHARMACY #9698 ,License Type: Pharmacy (Community),UPLAND, SAN BERNARDINO, 91786
162,CVS PHARMACY #9705 ,License Type: Pharmacy (Community),CHINO HILLS, SAN BERNARDINO, 91709
163,CVS PHARMACY #9723 ,License Type: Pharmacy (Community),RANCHO CUCAMONGA, SAN BERNARDINO, 91701
164,CVS PHARMACY #9724 ,License Type: Pharmacy (Community),RANCHO CUCAMONGA, SAN BERNARDINO, 91730
165,CVS PHARMACY #9727 ,License Type: Pharmacy (Community),ONTARIO, SAN BERNARDINO, 91761
166,CVS PHARMACY #9729 ,License Type: Pharmacy (Community),ONTARIO, SAN BERNARDINO, 91762
167,CVS PHARMACY #9739 ,License Type: Pharmacy (Community),BIG BEAR LAKE, SAN BERNARDINO, 92315
168,CVS PHARMACY #9745 ,License Type: Pharmacy (Community),MONTCLAIR, SAN BERNARDINO, 91763
169,CVS PHARMACY #9778 ,License Type: Pharmacy (Community),CHINO, SAN BERNARDINO, 91710
170,CVS PHARMACY #9792 ,License Type: Pharmacy (Community),UPLAND, SAN BERNARDINO, 91786
171,CVS PHARMACY #9794 ,License Type: Pharmacy (Community),SAN BERNARDINO, SAN BERNARDINO, 92407
172,CVS PHY #8589 ,License Type: Pharmacy (Community),FONTANA, SAN BERNARDINO, 92336
173,CVS/PHARMACY # 16042 ,License Type: Pharmacy (Community),SAN BERNARDINO, SAN BERNARDINO, 92408
174,CVS/PHARMACY # 16051 ,License Type: Pharmacy (Community),SAN DIEGO, SAN DIEGO, 92110
175,CVS/PHARMACY # 16052 ,License Type: Pharmacy (Community),CHULA VISTA, SAN DIEGO, 91911
176,CVS/PHARMACY # 16076 ,License Type: Pharmacy (Community),CHINO, SAN BERNARDINO, 91710
177,CVS/PHARMACY # 16083 ,License Type: Pharmacy (Community),ESCONDIDO, SAN DIEGO, 92029
178,CVS/PHARMACY # 16099 ,License Type: Pharmacy (Community),RANCHO CUCAMONGA, SAN BERNARDINO, 91730
179,CVS/PHARMACY # 16101 ,License Type: Pharmacy (Community),OCEANSIDE, SAN DIEGO, 92054
180,CVS/PHARMACY # 16102 ,License Type: Pharmacy (Community),EL CAJON, SAN DIEGO, 92021
181,CVS/PHARMACY # 16103 ,License Type: Pharmacy (Community),SAN DIEGO, SAN DIEGO, 92126
182,CVS/PHARMACY # 16187 ,License Type: Pharmacy (Community),FONTANA, SAN BERNARDINO, 92337
183,CVS/PHARMACY # 16338 ,License Type: Pharmacy (Community),CHINO, SAN BERNARDINO, 91710
184,CVS/PHARMACY # 16358 ,License Type: Pharmacy (Community),APPLE VALLEY, SAN BERNARDINO, 92308
185,CVS/PHARMACY # 16416 ,License Type: Pharmacy (Community),ENCINITAS, SAN DIEGO, 92024
186,CVS/PHARMACY # 16425 ,License Type: Pharmacy (Community),VISTA, SAN DIEGO, 92083
187,CVS/PHARMACY # 16504 ,License Type: Pharmacy (Community),EL CAJON, SAN DIEGO, 92019
188,CVS/PHARMACY # 16749 ,License Type: Pharmacy (Community),SAN DIEGO, SAN DIEGO, 92108
189,CVS/PHARMACY # 16760 ,License Type: Pharmacy (Community),MONTCLAIR, SAN BERNARDINO, 91763
190,CVS/PHARMACY # 16817 ,License Type: Pharmacy (Community),SANTEE, SAN DIEGO, 92071
191,CVS/PHARMACY # 16955 ,License Type: Pharmacy (Community),UPLAND, SAN BERNARDINO, 91784
192,CVS/PHARMACY # 16989 ,License Type: Pharmacy (Community),REDLANDS, SAN BERNARDINO, 92374
193,CVS/PHARMACY # 17074 ,License Type: Pharmacy (Community),FONTANA, SAN BERNARDINO, 92336
194,CVS/PHARMACY # 17245 ,License Type: Pharmacy (Community),VISTA, SAN DIEGO, 92081
195,CVS/PHARMACY # 17320 ,License Type: Pharmacy (Community),ONTARIO, SAN BERNARDINO, 91764
196,CVS/PHARMACY # 17334 ,License Type: Pharmacy (Community),APPLE VALLEY, SAN BERNARDINO, 92307
197,CVS/PHARMACY # 17517 ,License Type: Pharmacy (Community),SAN DIEGO, SAN DIEGO, 92111
198,CVS/PHARMACY # 17519 ,License Type: Pharmacy (Community),HESPERIA, SAN BERNARDINO, 92345
199,CVS/PHARMACY # 17644 ,License Type: Pharmacy (Community),ESCONDIDO, SAN DIEGO, 92025
200,CVS/PHARMACY # 17668 ,License Type: Pharmacy (Community),SAN DIEGO, SAN DIEGO, 92127
201,CVS/PHARMACY # 17676 ,License Type: Pharmacy (Community),SAN DIEGO, SAN DIEGO, 92102
202,CVS/PHARMACY #09538 ,License Type: Pharmacy (Community),SAN DIEGO, SAN DIEGO, 92109
203,CVS/PHARMACY #09558 ,License Type: Pharmacy (Community),SAN MARCOS, SAN DIEGO, 92078
204,CVS/PHARMACY #09693 ,License Type: Pharmacy (Community),ESCONDIDO, SAN DIEGO, 92027
205,CVS/PHARMACY #09783 ,License Type: Pharmacy (Community),NATIONAL CITY, SAN DIEGO, 91950
206,CVS/PHARMACY #09818 ,License Type: Pharmacy (Community),EL CAJON, SAN DIEGO, 92020
207,CVS/PHARMACY #09837 ,License Type: Pharmacy (Community),UPLAND, SAN BERNARDINO, 91786
208,CVS/PHARMACY #09861 ,License Type: Pharmacy (Community),REDLANDS, SAN BERNARDINO, 92374
209,CVS/PHARMACY #09903 ,License Type: Pharmacy (Community),SAN DIEGO, SAN DIEGO, 92101
210,CVS/PHARMACY #09922 ,License Type: Pharmacy (Community),SAN DIEGO, SAN DIEGO, 92110
211,CVS/PHARMACY #09926 ,License Type: Pharmacy (Community),LA JOLLA, SAN DIEGO, 92037
212,CVS/PHARMACY #09937 ,License Type: Pharmacy (Community),SAN DIEGO, SAN DIEGO, 92109
213,CVS/PHARMACY #09959 ,License Type: Pharmacy (Community),ESCONDIDO, SAN DIEGO, 92029
214,CVS/PHARMACY #09961 ,License Type: Pharmacy (Community),SAN MARCOS, SAN DIEGO, 92069
215,CVS/PHARMACY #09963 ,License Type: Pharmacy (Community),SAN DIEGO, SAN DIEGO, 92108
216,CVS/PHARMACY #3025 ,License Type: Pharmacy (Community),ALPINE, SAN DIEGO, 91901
217,CVS/PHARMACY #3068 ,License Type: Pharmacy (Community),SAN DIEGO, SAN DIEGO, 92126
218,CVS/PHARMACY #3914 ,License Type: Pharmacy (Community),SAN DIEGO, SAN DIEGO, 92127
219,CVS/PHARMACY #3942 ,License Type: Pharmacy (Community),SAN DIEGO, SAN DIEGO, 92122
220,CVS/PHARMACY #3951 ,License Type: Pharmacy (Community),SOLANA BEACH, SAN DIEGO, 92075
221,CVS/PHARMACY #4291 ,License Type: Pharmacy (Community),ADELANTO, SAN BERNARDINO, 92301
222,CVS/PHARMACY #4768 ,License Type: Pharmacy (Community),SAN DIEGO, SAN DIEGO, 92101
223,CVS/PHARMACY #4788 ,License Type: Pharmacy (Community),REDLANDS, SAN BERNARDINO, 92373
224,CVS/PHARMACY #6332 ,License Type: Pharmacy (Community),SAN DIEGO, SAN DIEGO, 92101
225,CVS/PHARMACY #6368 ,License Type: Pharmacy (Community),VISTA, SAN DIEGO, 92081
226,CVS/PHARMACY #7127 ,License Type: Pharmacy (Community),SAN MARCOS, SAN DIEGO, 92069
227,CVS/PHARMACY #7962 ,License Type: Pharmacy (Community),SAN DIEGO, SAN DIEGO, 92111
228,CVS/PHARMACY #8436 ,License Type: Pharmacy (Community),HIGHLAND, SAN BERNARDINO, 92346
229,CVS/PHARMACY #9135 ,License Type: Pharmacy (Community),ENCINITAS, SAN DIEGO, 92024
230,CVS/PHARMACY #9154 ,License Type: Pharmacy (Community),SAN DIEGO, SAN DIEGO, 92120
231,CVS/PHARMACY #9162 ,License Type: Pharmacy (Community),LA MESA, SAN DIEGO, 91941
232,CVS/PHARMACY #9167 ,License Type: Pharmacy (Community),EL CAJON, SAN DIEGO, 92019
233,CVS/PHARMACY #9169 ,License Type: Pharmacy (Community),LA MESA, SAN DIEGO, 91942
234,CVS/PHARMACY #9240 ,License Type: Pharmacy (Community),CHULA VISTA, SAN DIEGO, 91910
235,CVS/PHARMACY #9247 ,License Type: Pharmacy (Community),DEL MAR, SAN DIEGO, 92014
236,CVS/PHARMACY #9268 ,License Type: Pharmacy (Community),LA JOLLA, SAN DIEGO, 92037
237,CVS/PHARMACY #9311 ,License Type: Pharmacy (Community),APPLE VALLEY, SAN BERNARDINO, 92307
238,CVS/PHARMACY #9313 ,License Type: Pharmacy (Community),HIGHLAND, SAN BERNARDINO, 92346
239,CVS/PHARMACY #9341 ,License Type: Pharmacy (Community),SAN BERNARDINO, SAN BERNARDINO, 92404
240,CVS/PHARMACY #9816 ,License Type: Pharmacy (Community),CHINO HILLS, SAN BERNARDINO, 91709
241,DAWN PHARMACY ,License Type: Pharmacy (Community),SAN DIEGO, SAN DIEGO, 92115
242,DEL'S PHARMACY ,License Type: Pharmacy (Community),RANCHO CUCAMONGA, SAN BERNARDINO, 91730
243,DEL'S PHARMACY I ,License Type: Pharmacy (Community),RANCHO CUCAMONGA, SAN BERNARDINO, 91730
244,DELTA DRUGS ,License Type: Pharmacy (Community),SAN BERNARDINO, SAN BERNARDINO, 92411
245,DIPLOMAT SPECIALTY INFUSION GROUP ,License Type: Pharmacy (Community),CARLSBAD, SAN DIEGO, 92008
246,DIPLOMAT SPECIALTY PHARMACY ,License Type: Pharmacy (Community),ONTARIO, SAN BERNARDINO, 91761
247,DK PHARMACY ,License Type: Pharmacy (Community),RANCHO CUCAMONGA, SAN BERNARDINO, 91737
248,DMK PHARMACY ,License Type: Pharmacy (Community),EL CAJON, SAN DIEGO, 92021
249,DOCTOR'S CHOICE PHARMACY ,License Type: Pharmacy (Community),UPLAND, SAN BERNARDINO, 91786
250,DON'S DRUGS ,License Type: Pharmacy (Community),SAN BERNARDINO, SAN BERNARDINO, 92411
251,EDGEMOOR GERIATRIC HOSPITAL PHARMACY ,License Type: Pharmacy (Government Owned Community),SANTEE, SAN DIEGO, 92071
252,"EISENHOWER MEDICAL CENTER, YUCCA VALLEY ",License Type: Pharmacy (Community),YUCCA VALLEY, SAN BERNARDINO, 92284
253,EL NORTE PHARMACY ,License Type: Pharmacy (Community),ESCONDIDO, SAN DIEGO, 92026
254,ELDAHMY WELLNESS PHARMACY INC ,License Type: Pharmacy (Community),SAN DIEGO, SAN DIEGO, 92113
255,ESCONDIDO PHARMACY & DME INC ,License Type: Pharmacy (Community),ESCONDIDO, SAN DIEGO, 92025
256,EXCEL CARE PHARMACY ,License Type: Pharmacy (Community),CHINO, SAN BERNARDINO, 91710
257,FAIRBANKS PHARMACY ,License Type: Pharmacy (Community),RANCHO SANTA FE, SAN DIEGO, 92067
258,FAMILY PHARMACY ,License Type: Pharmacy (Community),SAN BERNARDINO, SAN BERNARDINO, 92410
259,FARMACIA M ,License Type: Pharmacy (Community),FONTANA, SAN BERNARDINO, 92336
260,FELICITA PHARMACY ,License Type: Pharmacy (Community),ESCONDIDO, SAN DIEGO, 92025
261,FINLEY'S REXALL DRUG ,License Type: Pharmacy (Community),FONTANA, SAN BERNARDINO, 92335
262,FROST MEDICAL PHARMACY ,License Type: Pharmacy (Community),SAN DIEGO, SAN DIEGO, 92123
263,GALLOWAYS MEDICAL CENTER PHARMACY ,License Type: Pharmacy (Community),SAN DIEGO, SAN DIEGO, 92113
264,GARFIELD BEACH CVS LLC D/B/A CVS/PHARMACY # 10182 ,License Type: Pharmacy (Community),CHULA VISTA, SAN DIEGO, 91914
265,GARFIELD BEACH CVS LLC D/B/A CVS/PHARMACY # 11112 ,License Type: Pharmacy (Community),UPLAND, SAN BERNARDINO, 91784
266,GARFIELD BEACH CVS LLC D/B/A CVS/PHARMACY # 17725 ,License Type: Pharmacy (Community),OCEANSIDE, SAN DIEGO, 92057
267,GARFIELD BEACH CVS LLC D/B/A CVS/PHARMACY #10805 ,License Type: Pharmacy (Community),RANCHO CUCAMONGA, SAN BERNARDINO, 91739
268,GARFIELD BEACH CVS LLC D/B/A CVS/PHARMACY #10819 ,License Type: Pharmacy (Community),SAN DIEGO, SAN DIEGO, 92101
269,GARFIELD BEACH CVS LLC D/B/A CVS/PHARMACY #10914 ,License Type: Pharmacy (Community),RANCHO CUCAMONGA, SAN BERNARDINO, 91730
270,GARFIELD BEACH CVS LLC D/B/A CVS/PHARMACY #10954 ,License Type: Pharmacy (Community),SAN DIEGO, SAN DIEGO, 92101
271,GARFIELD BEACH CVS LLC D/B/A CVS/PHARMACY #11035 ,License Type: Pharmacy (Community),FONTANA, SAN BERNARDINO, 92336
272,GARFIELD BEACH CVS LLC DBA CVS PHARMACY #10310 ,License Type: Pharmacy (Community),REDLANDS, SAN BERNARDINO, 92374
273,GARFIELD BEACH CVS LLC DBA CVS PHARMACY #10508 ,License Type: Pharmacy (Community),SAN DIEGO, SAN DIEGO, 92107
274,GE HEALTHCARE ,License Type: Pharmacy (Community),SAN DIEGO, SAN DIEGO, 92111
275,GELSONS PHARMACY ,License Type: Pharmacy (Community),CARLSBAD, SAN DIEGO, 92009
276,GELSONS PHARMACY ,License Type: Pharmacy (Community),DEL MAR, SAN DIEGO, 92014
277,GEMMELS COMPOUNDING PHARMACY ,License Type: Pharmacy (Community),ONTARIO, SAN BERNARDINO, 91762
278,GLOBAL PHARMACY LTC ,License Type: Pharmacy (Community),ONTARIO, SAN BERNARDINO, 91761
279,GOOD MORNING PHARMACY ,License Type: Pharmacy (Community),SAN DIEGO, SAN DIEGO, 92111
280,GOOD PHARMA COMPOUNDING PHARMACY ,License Type: Pharmacy (Community),SAN DIEGO, SAN DIEGO, 92109
281,GOOD SAMARITAN PHARMACY ,License Type: Pharmacy (Community),RANCHO CUCAMONGA, SAN BERNARDINO, 91730
282,GRANDVIEW PHARMACY ,License Type: Pharmacy (Community),CHINO, SAN BERNARDINO, 91710
283,GREEN VALLEY PHARMACY ,License Type: Pharmacy (Community),YUCAIPA, SAN BERNARDINO, 92399
284,GREENFIELD COMPOUNDING PHARMACY ,License Type: Pharmacy (Community),VISTA, SAN DIEGO, 92083
285,GROSSMONT HOSPITAL OUTPATIENT PHARMACY ,License Type: Pharmacy (Community),LA MESA, SAN DIEGO, 91942
286,GROSSMONT PHARMACY ,License Type: Pharmacy (Community),LA MESA, SAN DIEGO, 91942
287,HAL'S COMPOUNDING PHARMACY ,License Type: Pharmacy (Community),SAN DIEGO, SAN DIEGO, 92104
288,HAVEN PHARMACY ,License Type: Pharmacy (Community),RANCHO CUCAMONGA, SAN BERNARDINO, 91730
289,HIGHLAND COMMUNITY PHARMACY ,License Type: Pharmacy (Community),HIGHLAND, SAN BERNARDINO, 92346
290,HILLCREST PHARMACY ,License Type: Pharmacy (Community),SAN DIEGO, SAN DIEGO, 92103
291,HILLCREST PHARMACY NORTH ,License Type: Pharmacy (Community),VISTA, SAN DIEGO, 92081
292,HOMES PHARMACY ,License Type: Pharmacy (Community),RANCHO CUCAMONGA, SAN BERNARDINO, 91730
293,HOSPICARE PHARMACY SAN DIEGO ,License Type: Pharmacy (Community),ESCONDIDO, SAN DIEGO, 92025
294,IHC SANTA YSABEL PHARMACY ,License Type: Pharmacy (Community),SANTA YSABEL, SAN DIEGO, 92070
295,IMPERIAL BEACH PHARMACY ,License Type: Pharmacy (Community),IMPERIAL BEACH, SAN DIEGO, 91932
296,INDIAN HEALTH COUNCIL PHARMACY ,License Type: Pharmacy (Government Owned Community),VALLEY CENTER, SAN DIEGO, 92082
297,INJOY RX LLC ,License Type: Pharmacy (Community),CHINO HILLS, SAN BERNARDINO, 91709
298,INLAND BEHAVIORAL & HEALTH SERVICES INC ,License Type: Pharmacy (Community),SAN BERNARDINO, SAN BERNARDINO, 92401
299,JONATHAN'S PHARMACY ,License Type: Pharmacy (Community),Probation, SAN BERNARDINO, 92308
300,JP PHARMACY INC ,License Type: Pharmacy (Community),SAN DIEGO, SAN DIEGO, 92126
301,K'S PHARMACY ,License Type: Pharmacy (Community),CHINO, SAN BERNARDINO, 91710
302,KAISER FOUND. HOSP. PHY. #176 ,License Type: Pharmacy (Community),FONTANA, SAN BERNARDINO, 92335
303,KAISER FOUNDATION HOSPITAL ,License Type: Pharmacy (Community),SAN DIEGO, SAN DIEGO, 92120
304,KAISER ONCOLOGY PHARMACY #247 ,License Type: Pharmacy (Community),SAN MARCOS, SAN DIEGO, 92078
305,KAISER ONCOLOGY PHRMCY #170 ,License Type: Pharmacy (Community),FONTANA, SAN BERNARDINO, 92335
306,KAISER PERMANENTE PHARMACY ,License Type: Pharmacy (Community),EL CAJON, SAN DIEGO, 92021
307,KAISER PERMANENTE PHARMACY ,License Type: Pharmacy (Community),CARLSBAD, SAN DIEGO, 92011
308,KAISER PERMANENTE PHARMACY ,License Type: Pharmacy (Community),SAN BERNARDINO, SAN BERNARDINO, 92404
309,KAISER PERMANENTE PHARMACY ,License Type: Pharmacy (Community),BONITA, SAN DIEGO, 91902
310,KAISER PERMANENTE PHARMACY ,License Type: Pharmacy (Community),SAN DIEGO, SAN DIEGO, 92111
311,KAISER PERMANENTE PHARMACY  239 ,License Type: Pharmacy (Community),VISTA, SAN DIEGO, 92083
312,KAISER PERMANENTE PHARMACY #155 ,License Type: Pharmacy (Community),FONTANA, SAN BERNARDINO, 92335
313,KAISER PERMANENTE PHARMACY #162 ,License Type: Pharmacy (Community),FONTANA, SAN BERNARDINO, 92335
314,KAISER PERMANENTE PHARMACY #163 ,License Type: Pharmacy (Community),COLTON, SAN BERNARDINO, 92324
315,KAISER PERMANENTE PHARMACY #167 ,License Type: Pharmacy (Community),ONTARIO, SAN BERNARDINO, 91761
316,KAISER PERMANENTE PHARMACY #168 ,License Type: Pharmacy (Community),ONTARIO, SAN BERNARDINO, 91761
317,KAISER PERMANENTE PHARMACY #168F ,License Type: Pharmacy (Community),ONTARIO, SAN BERNARDINO, 91761
318,KAISER PERMANENTE PHARMACY #171 ,License Type: Pharmacy (Community),ONTARIO, SAN BERNARDINO, 91761
319,KAISER PERMANENTE PHARMACY #189 ,License Type: Pharmacy (Community),FONTANA, SAN BERNARDINO, 92335
320,KAISER PERMANENTE PHARMACY #197 ,License Type: Pharmacy (Community),FONTANA, SAN BERNARDINO, 92335
321,KAISER PERMANENTE PHARMACY #208 ,License Type: Pharmacy (Community),ESCONDIDO, SAN DIEGO, 92025
322,KAISER PERMANENTE PHARMACY #214 ,License Type: Pharmacy (Community),SAN DIEGO, SAN DIEGO, 92110
323,KAISER PERMANENTE PHARMACY #217 ,License Type: Pharmacy (Community),SAN DIEGO, SAN DIEGO, 92120
324,KAISER PERMANENTE PHARMACY #220 ,License Type: Pharmacy (Community),SAN DIEGO, SAN DIEGO, 92111
325,KAISER PERMANENTE PHARMACY #221 ,License Type: Pharmacy (Community),SAN DIEGO, SAN DIEGO, 92120
326,KAISER PERMANENTE PHARMACY #230 ,License Type: Pharmacy (Community),LA MESA, SAN DIEGO, 91942
327,KAISER PERMANENTE PHARMACY #237 ,License Type: Pharmacy (Community),SAN DIEGO, SAN DIEGO, 92130
328,KAISER PERMANENTE PHARMACY #245 ,License Type: Pharmacy (Community),LA MESA, SAN DIEGO, 91941
329,KAISER PERMANENTE PHARMACY #249 ,License Type: Pharmacy (Community),SAN DIEGO, SAN DIEGO, 92128
330,KAISER PERMANENTE PHARMACY #657 ,License Type: Pharmacy (Community),ONTARIO, SAN BERNARDINO, 91761
331,KAISER PERMANENTE PHARMACY #658 ,License Type: Pharmacy (Community),CHINO, SAN BERNARDINO, 91710
332,KAISER PERMANENTE PHARMACY #751 ,License Type: Pharmacy (Community),SAN DIEGO, SAN DIEGO, 92123
333,KAISER PERMANENTE PHARMACY #752 ,License Type: Pharmacy (Community),OCEANSIDE, SAN DIEGO, 92056
334,KAISER PERMANENTE PHARMACY 225 ,License Type: Pharmacy (Community),EL CAJON, SAN DIEGO, 92020
335,KAISER PERMANENTE PHARMACY NO 157 ,License Type: Pharmacy (Community),VICTORVILLE, SAN BERNARDINO, 92392
336,KAISER PERMANENTE PHARMACY NO 179 ,License Type: Pharmacy (Community),RANCHO CUCAMONGA, SAN BERNARDINO, 91730
337,KAISER PERMANENTE PHARMACY NO 195 ,License Type: Pharmacy (Community),CHINO, SAN BERNARDINO, 91710
338,KAISER PERMANENTE PHARMACY NO 216 ,License Type: Pharmacy (Community),SAN DIEGO, SAN DIEGO, 92154
339,KAISER PERMANENTE PHARMACY NO 220 ,License Type: Pharmacy (Community),SAN MARCOS, SAN DIEGO, 92069
340,KAISER PERMANENTE PHRMCY #156 ,License Type: Pharmacy (Community),REDLANDS, SAN BERNARDINO, 92374
341,KAISER PERMANENTE PHRMCY #187 ,License Type: Pharmacy (Community),UPLAND, SAN BERNARDINO, 91786
342,KAISER PERMANENTE PHY #193 ,License Type: Pharmacy (Community),FONTANA, SAN BERNARDINO, 92337
343,KEN PHARMACY ,License Type: Pharmacy (Community),UPLAND, SAN BERNARDINO, 91786
344,KHANH PHARMACY ,License Type: Pharmacy (Community),SAN DIEGO, SAN DIEGO, 92115
345,KING'S PHARMACY ,License Type: Pharmacy (Community),UPLAND, SAN BERNARDINO, 91786
346,KP PHARMACY #181 MOB #1-FAMILY MEDICINE ,License Type: Pharmacy (Community),FONTANA, SAN BERNARDINO, 92335
347,KP PHARMACY #182 MOB #1 3RD FLR OB-GYN ,License Type: Pharmacy (Community),FONTANA, SAN BERNARDINO, 92335
348,LA JOLLA DISCOUNT PHARMACY ,License Type: Pharmacy (Community),Probation, SAN DIEGO, 92037
349,LA MAESTRA COMMUNITY PHARMACY ,License Type: Pharmacy (Community),SAN DIEGO, SAN DIEGO, 92105
350,LA MAESTRA COMMUNITY PHARMACY EL CAJON ,License Type: Pharmacy (Community),EL CAJON, SAN DIEGO, 92019
351,LA MAESTRA COMMUNITY PHARMACY NATIONAL CITY ,License Type: Pharmacy (Community),NATIONAL CITY, SAN DIEGO, 91950
352,LA MESA PHARMACY ,License Type: Pharmacy (Community),LA MESA, SAN DIEGO, 91942
353,LA VITA COMPOUNDING PHARMACY ,License Type: Pharmacy (Community),SAN DIEGO, SAN DIEGO, 92121
354,LAKE GREGORY PHARMACY ,License Type: Pharmacy (Community),CRESTLINE, SAN BERNARDINO, 92325
355,LARSON PHARMACY ,License Type: Pharmacy (Community),COLTON, SAN BERNARDINO, 92324
356,LEO'S LAKESIDE PHARMACY ,License Type: Pharmacy (Community),LAKESIDE, SAN DIEGO, 92040
357,LINDA VISTA PHARMACY ,License Type: Pharmacy (Community),SAN DIEGO, SAN DIEGO, 92111
358,LLUMC OUTPATIENT PHARMACY ,License Type: Pharmacy (Community),LOMA LINDA, SAN BERNARDINO, 92354
359,LOMA LINDA HEALTH PHARMACY ,License Type: Pharmacy (Community),LOMA LINDA, SAN BERNARDINO, 92354
360,LOMA LINDA PHARMACY INC ,License Type: Pharmacy (Community),Accusation filed, SAN BERNARDINO, 92354
361,LOMA LINDA UNIVERSITY COMMUNITY PHY ,License Type: Pharmacy (Community),LOMA LINDA, SAN BERNARDINO, 92354
362,LOMA LINDA UNIVERSITY FACULTY PHARMACY ,License Type: Pharmacy (Community),LOMA LINDA, SAN BERNARDINO, 92354
363,LOMA LINDA UNIVERSITY HOME DELIVERY PHARMACY ,License Type: Pharmacy (Community),SAN BERNARDINO, SAN BERNARDINO, 92408
364,LOMA LINDA UNIVERSITY MEDICAL CENTER - MERIDIAN PHARMACY ,License Type: Pharmacy (Community),LOMA LINDA, SAN BERNARDINO, 92354
365,LOMA LINDA UNIVERSITY PHARMACY ,License Type: Pharmacy (Community),SAN BERNARDINO, SAN BERNARDINO, 92410
366,LONGS DRUG STORES CALIFORNIA LLC DBA CVS/PHARMACY #9632 ,License Type: Pharmacy (Community),CHULA VISTA, SAN DIEGO, 91910
367,MAJESTIC PHARMACY INC ,License Type: Pharmacy (Community),SAN DIEGO, SAN DIEGO, 92111
368,MED CARE PHARMACY ,License Type: Pharmacy (Community),VISTA, SAN DIEGO, 92083
369,MED RX PHARMACY AND COMPOUNDING ,License Type: Pharmacy (Community),VISTA, SAN DIEGO, 92084
370,MED-PLAZA PHARMACY ,License Type: Pharmacy (Community),CHINO HILLS, SAN BERNARDINO, 91709
371,MED-PLUS PHARMACY ,License Type: Pharmacy (Community),SAN DIEGO, SAN DIEGO, 92128
372,MEDICAL ARTS PHARMACY ,License Type: Pharmacy (Community),LA MESA, SAN DIEGO, 91942
373,MEDICAL CENTER PHARMACY ,License Type: Pharmacy (Community),SAN DIEGO, SAN DIEGO, 92114
374,MEDICAL CENTER PHARMACY ,License Type: Pharmacy (Community),SAN DIEGO, SAN DIEGO, 92103
375,MEDICAL CENTER PHARMACY ,License Type: Pharmacy (Community),SAN DIEGO, SAN DIEGO, 92105
376,MEDICAL CENTER PHARMACY ,License Type: Pharmacy (Community),CHULA VISTA, SAN DIEGO, 91910
377,MEDICAL CENTER PHARMACY ,License Type: Pharmacy (Community),CHULA VISTA, SAN DIEGO, 91910
378,MEDICINE CARE PHARMACY ,License Type: Pharmacy (Community),EL CAJON, SAN DIEGO, 92021
379,MEDICINE CARE PHARMACY II ,License Type: Pharmacy (Community),EL CAJON, SAN DIEGO, 92021
380,MEDICINE SHOPPE ,License Type: Pharmacy (Community),HESPERIA, SAN BERNARDINO, 92345
381,MEDPILOT PHARMACY INCORPORATED ,License Type: Pharmacy (Community),SAN DIEGO, SAN DIEGO, 92123
382,MEDWATCHERS ,License Type: Pharmacy (Community),SAN DIEGO, SAN DIEGO, 92121
383,MERCY CARE PHARMACY ,License Type: Pharmacy (Community),ESCONDIDO, SAN DIEGO, 92025
384,MKT PHARMACY ,License Type: Pharmacy (Community),SAN DIEGO, SAN DIEGO, 92105
385,MOLLISON PHARMACY ,License Type: Pharmacy (Community),EL CAJON, SAN DIEGO, 92021
386,MONTCLAIR PHARMACY ,License Type: Pharmacy (Community),MONTCLAIR, SAN BERNARDINO, 91763
387,MONTE VISTA PHARMACY ,License Type: Pharmacy (Community),MONTCLAIR, SAN BERNARDINO, 91763
388,MOUNTAIN PLAZA PHARMACY ,License Type: Pharmacy (Community),UPLAND, SAN BERNARDINO, 91784
389,MT VIEW PHARMACEUTICALS ,License Type: Pharmacy (Community),LOMA LINDA, SAN BERNARDINO, 92354
390,NEIGHBORHOOD HEALTHCARE ESCONDIDO ,License Type: Pharmacy (Community),ESCONDIDO, SAN DIEGO, 92025
391,NEW PHARMACY ,License Type: Pharmacy (Community),YUCCA VALLEY, SAN BERNARDINO, 92284
392,NEW PHARMACY 2 ,License Type: Pharmacy (Community),TWENTYNINE PALMS, SAN BERNARDINO, 92277
393,NGUYEN HIEN'S PHARMACY ,License Type: Pharmacy (Community),SAN DIEGO, SAN DIEGO, 92105
394,NIMBLE PHARMACY ,License Type: Pharmacy (Community),NATIONAL CITY, SAN DIEGO, 91950
395,NORTH CO HEALTH SVCS-OCEANSIDE-CARLSBAD ,License Type: Pharmacy (Community),OCEANSIDE, SAN DIEGO, 92054
396,NORTH COAST MEDICAL PHARMACY INC ,License Type: Pharmacy (Community),ENCINITAS, SAN DIEGO, 92024
397,NORTH COAST MEDICAL SUPPLY_DBA ADVANCED DIABETES SUPPLY ,License Type: Pharmacy (Community),CARLSBAD, SAN DIEGO, 92009
398,NORTH COUNTY HEALTH SERVICES PHARMACY ,License Type: Pharmacy (Community),SAN MARCOS, SAN DIEGO, 92069
399,NORTH COUNTY ONCOLOGY ,License Type: Pharmacy (Government Owned Community),OCEANSIDE, SAN DIEGO, 92056
400,NORTH RIALTO DRUG ,License Type: Pharmacy (Community),RIALTO, SAN BERNARDINO, 92376
401,NUDO'S PHARMACY ,License Type: Pharmacy (Community),EL CAJON, SAN DIEGO, 92020
402,OASIS PHARMACY ,License Type: Pharmacy (Community),VICTORVILLE, SAN BERNARDINO, 92392
403,OB PHARMACY ,License Type: Pharmacy (Community),SAN BERNARDINO, SAN BERNARDINO, 92410
404,OCEANSIDE PHARMACY ,License Type: Pharmacy (Community),OCEANSIDE, SAN DIEGO, 92056
405,OMNICARE OF SAN DIEGO ,License Type: Pharmacy (Community),SAN DIEGO, SAN DIEGO, 92121
406,ONTARIO PHARMACY INC ,License Type: Pharmacy (Community),ONTARIO, SAN BERNARDINO, 91764
407,OPTUMRX ,License Type: Pharmacy (Community),Public Reprimand, SAN DIEGO, 92010
408,PALM CARE PHARMACY ,License Type: Pharmacy (Community),EL CAJON, SAN DIEGO, 92021
409,PALM CARE PHARMACY ,License Type: Pharmacy (Community),NATIONAL CITY, SAN DIEGO, 91950
410,PARADISE HILLS PHARMACY ,License Type: Pharmacy (Community),SAN DIEGO, SAN DIEGO, 92139
411,PARADISE PHARMACY ,License Type: Pharmacy (Community),NATIONAL CITY, SAN DIEGO, 91950
412,PARKVIEW PHARMACY & HOME HEALTH CARE ,License Type: Pharmacy (Community),RANCHO CUCAMONGA, SAN BERNARDINO, 91730
413,PAVILIONS PHARMACY #2119 ,License Type: Pharmacy (Community),SAN DIEGO, SAN DIEGO, 92130
414,PEARSON'S MEDICAL GROUP PHARMACY ,License Type: Pharmacy (Community),SAN BERNARDINO, SAN BERNARDINO, 92404
415,PETNET PHARMACEUTICAL ,License Type: Pharmacy (Community),LOMA LINDA, SAN BERNARDINO, 92354
416,PETNET PHARMACEUTICAL ,License Type: Pharmacy (Community),SAN DIEGO, SAN DIEGO, 92121
417,PHARMACA INTEGRATIVE PHARMACY INC ,License Type: Pharmacy (Community),LA JOLLA, SAN DIEGO, 92037
418,PHARMACA INTEGRATIVE PHARMACY INC ,License Type: Pharmacy (Community),CARLSBAD, SAN DIEGO, 92009
419,PHARMACY OF THE WOODS ,License Type: Pharmacy (Community),LAKE ARROWHEAD, SAN BERNARDINO, 92352
420,PHARMERICA ,License Type: Pharmacy (Community),SAN DIEGO, SAN DIEGO, 92126
421,PHILLIP PHARMACY ,License Type: Pharmacy (Community),SAN DIEGO, SAN DIEGO, 92115
422,PLAZA PHARMACY ,License Type: Pharmacy (Community),NATIONAL CITY, SAN DIEGO, 91950
423,PMC OUTPATIENT PHARMACY ,License Type: Pharmacy (Government Owned Community),ESCONDIDO, SAN DIEGO, 92029
424,POINT LOMA CABRILLO DRUG ,License Type: Pharmacy (Community),SAN DIEGO, SAN DIEGO, 92106
425,POINT LOMA SHELTER ISLAND DRUG ,License Type: Pharmacy (Community),SAN DIEGO, SAN DIEGO, 92106
426,POWAY PHARMACY ,License Type: Pharmacy (Community),POWAY, SAN DIEGO, 92064
427,PRESCRIPTION SHOPPE ,License Type: Pharmacy (Community),VICTORVILLE, SAN BERNARDINO, 92395
428,PRESCRIPTION STATION PHARMACY ,License Type: Pharmacy (Community),VICTORVILLE, SAN BERNARDINO, 92395
429,PREVEON HEALTH ,License Type: Pharmacy (Community),SAN BERNARDINO, SAN BERNARDINO, 92405
430,PREVEON SPECIALTY PHARMACY ,License Type: Pharmacy (Community),HIGHLAND, SAN BERNARDINO, 92346
431,PRIDE PHARMACY ,License Type: Pharmacy (Community),SAN DIEGO, SAN DIEGO, 92103
432,"PROCARE PHARMACY, L.L.C DBA CVS/PHARMACY ",License Type: Pharmacy (Community),SAN DIEGO, SAN DIEGO, 92103
433,PROFUSION LLC ,License Type: Pharmacy (Community),SAN DIEGO, SAN DIEGO, 92111
434,PRXP OF CA LLC ,License Type: Pharmacy (Community),ONTARIO, SAN BERNARDINO, 91761
435,PURE CARE PHARMACY ,License Type: Pharmacy (Community),SAN DIEGO, SAN DIEGO, 92130
436,PURESCIENCERX ,License Type: Pharmacy (Community),POWAY, SAN DIEGO, 92064
437,QUALITY-CARE PHARMACY ,License Type: Pharmacy (Community),SAN MARCOS, SAN DIEGO, 92078
438,QUEENS PHARMACY INC ,License Type: Pharmacy (Community),APPLE VALLEY, SAN BERNARDINO, 92307
439,QUEENS PHARMACY INC ,License Type: Pharmacy (Community),VICTORVILLE, SAN BERNARDINO, 92395
440,QUICK CARE PHARMACY INC ,License Type: Pharmacy (Community),RANCHO CUCAMONGA, SAN BERNARDINO, 91730
441,RADIANCE PHARMACY ,License Type: Pharmacy (Community),SAN BERNARDINO, SAN BERNARDINO, 92408
442,RADY CHILDREN'S HOMECARE ,License Type: Pharmacy (Community),SAN DIEGO, SAN DIEGO, 92123
443,RALPHS PHARMACY 70300013 ,License Type: Pharmacy (Community),RANCHO CUCAMONGA, SAN BERNARDINO, 91730
444,RALPHS PHARMACY 70300051 ,License Type: Pharmacy (Community),SAN DIEGO, SAN DIEGO, 92103
445,RALPHS PHARMACY 70300054 ,License Type: Pharmacy (Community),OCEANSIDE, SAN DIEGO, 92057
446,RALPHS PHARMACY 70300105 ,License Type: Pharmacy (Community),SAN DIEGO, SAN DIEGO, 92127
447,RALPHS PHARMACY 70300108 ,License Type: Pharmacy (Community),LA JOLLA, SAN DIEGO, 92037
448,RALPHS PHARMACY 70300113 ,License Type: Pharmacy (Community),FONTANA, SAN BERNARDINO, 92335
449,RALPHS PHARMACY 70300123 ,License Type: Pharmacy (Community),SAN DIEGO, SAN DIEGO, 92101
450,RALPHS PHARMACY 70300201 ,License Type: Pharmacy (Community),SAN DIEGO, SAN DIEGO, 92110
451,RALPHS PHARMACY 70300207 ,License Type: Pharmacy (Community),SAN DIEGO, SAN DIEGO, 92109
452,RALPHS PHARMACY 70300235 ,License Type: Pharmacy (Community),CHULA VISTA, SAN DIEGO, 91911
453,RALPHS PHARMACY 70300298 ,License Type: Pharmacy (Community),OCEANSIDE, SAN DIEGO, 92056
454,RALPHS PHARMACY 70300683 ,License Type: Pharmacy (Community),SAN MARCOS, SAN DIEGO, 92078
455,RALPHS PHARMACY 70300700 ,License Type: Pharmacy (Community),RANCHO CUCAMONGA, SAN BERNARDINO, 91730
456,RANCHO DRUGS ,License Type: Pharmacy (Community),APPLE VALLEY, SAN BERNARDINO, 92307
457,RANCHO SANTA FE PHARMACY ,License Type: Pharmacy (Community),RANCHO SANTA FE, SAN DIEGO, 92067
458,REDLANDS PHARMACY ,License Type: Pharmacy (Community),REDLANDS, SAN BERNARDINO, 92373
459,REGENTS PHARMACY ,License Type: Pharmacy (Community),LA JOLLA, SAN DIEGO, 92037
460,RELIANT PHARMACY SERVICE ,License Type: Pharmacy (Community),CARLSBAD, SAN DIEGO, 92011
461,REZCARE PHARMACY ,License Type: Pharmacy (Community),SAN DIEGO, SAN DIEGO, 92123
462,RIALTO PHARMACY ,License Type: Pharmacy (Community),RIALTO, SAN BERNARDINO, 92376
463,RIALTO VISTA PHARMACY ,License Type: Pharmacy (Community),RIALTO, SAN BERNARDINO, 92376
464,RICHARD J DONOVAN CORRECTIONAL FACILITY PHARMACY ,License Type: Correctional Pharmacy,SAN DIEGO, SAN DIEGO, 92179
465,RICHARD J DONOVAN CORRECTIONAL FACILITY- FACILITY E PHARMACY ,License Type: Correctional Pharmacy,SAN DIEGO, SAN DIEGO, 92179
466,RITE AID #6465 ,License Type: Pharmacy (Community),ENCINITAS, SAN DIEGO, 92024
467,RITE AID #6473 ,License Type: Pharmacy (Community),VICTORVILLE, SAN BERNARDINO, 92394
468,RITE AID #6482 ,License Type: Pharmacy (Community),FONTANA, SAN BERNARDINO, 92336
469,RITE AID #6492 ,License Type: Pharmacy (Community),CHINO HILLS, SAN BERNARDINO, 91709
470,RITE AID #6514 ,License Type: Pharmacy (Community),VICTORVILLE, SAN BERNARDINO, 92395
471,RITE AID #6538 ,License Type: Pharmacy (Community),APPLE VALLEY, SAN BERNARDINO, 92308
472,RITE AID #6561 ,License Type: Pharmacy (Community),YUCAIPA, SAN BERNARDINO, 92399
473,RITE AID #6711 ,License Type: Pharmacy (Community),SAN DIEGO, SAN DIEGO, 92130
474,RITE AID 5578 ,License Type: Pharmacy (Community),CHINO HILLS, SAN BERNARDINO, 91709
475,RITE AID 5579 ,License Type: Pharmacy (Community),CHINO, SAN BERNARDINO, 91710
476,RITE AID 5586 ,License Type: Pharmacy (Community),RANCHO CUCAMONGA, SAN BERNARDINO, 91701
477,RITE AID 5587 ,License Type: Pharmacy (Community),RANCHO CUCAMONGA, SAN BERNARDINO, 91701
478,RITE AID 5598 ,License Type: Pharmacy (Community),ONTARIO, SAN BERNARDINO, 91762
479,RITE AID 5602 ,License Type: Pharmacy (Community),Public Reprimand, SAN BERNARDINO, 91764
480,RITE AID 5613 ,License Type: Pharmacy (Community),BONITA, SAN DIEGO, 91902
481,RITE AID 5614 ,License Type: Pharmacy (Community),CHULA VISTA, SAN DIEGO, 91910
482,RITE AID 5615 ,License Type: Pharmacy (Community),CHULA VISTA, SAN DIEGO, 91910
483,RITE AID 5617 ,License Type: Pharmacy (Community),CHULA VISTA, SAN DIEGO, 91915
484,RITE AID 5620 ,License Type: Pharmacy (Community),SPRING VALLEY, SAN DIEGO, 91977
485,RITE AID 5621 ,License Type: Pharmacy (Community),CARLSBAD, SAN DIEGO, 92008
486,RITE AID 5622 ,License Type: Pharmacy (Community),CARLSBAD, SAN DIEGO, 92011
487,RITE AID 5623 ,License Type: Pharmacy (Community),EL CAJON, SAN DIEGO, 92019
488,RITE AID 5625 ,License Type: Pharmacy (Community),EL CAJON, SAN DIEGO, 92020
489,RITE AID 5627 ,License Type: Pharmacy (Community),ENCINITAS, SAN DIEGO, 92024
490,RITE AID 5629 ,License Type: Pharmacy (Community),ESCONDIDO, SAN DIEGO, 92025
491,RITE AID 5632 ,License Type: Pharmacy (Community),LAKESIDE, SAN DIEGO, 92040
492,RITE AID 5635 ,License Type: Pharmacy (Community),OCEANSIDE, SAN DIEGO, 92056
493,RITE AID 5638 ,License Type: Pharmacy (Community),RAMONA, SAN DIEGO, 92065
494,RITE AID 5642 ,License Type: Pharmacy (Community),VISTA, SAN DIEGO, 92084
495,RITE AID 5644 ,License Type: Pharmacy (Community),SAN DIEGO, SAN DIEGO, 92103
496,RITE AID 5646 ,License Type: Pharmacy (Community),SAN DIEGO, SAN DIEGO, 92105
497,RITE AID 5647 ,License Type: Pharmacy (Community),SAN DIEGO, SAN DIEGO, 92107
498,RITE AID 5649 ,License Type: Pharmacy (Community),SAN DIEGO, SAN DIEGO, 92111
499,RITE AID 5652 ,License Type: Pharmacy (Community),SAN DIEGO, SAN DIEGO, 92116
500,RITE AID 5654 ,License Type: Pharmacy (Community),SAN DIEGO, SAN DIEGO, 92117
501,RITE AID 5655 ,License Type: Pharmacy (Community),CORONADO, SAN DIEGO, 92118
502,RITE AID 5656 ,License Type: Pharmacy (Community),SAN DIEGO, SAN DIEGO, 92119
503,RITE AID 5657 ,License Type: Pharmacy (Community),SAN DIEGO, SAN DIEGO, 92120
504,RITE AID 5658 ,License Type: Pharmacy (Community),SAN DIEGO, SAN DIEGO, 92122
505,RITE AID 5660 ,License Type: Pharmacy (Community),SAN DIEGO, SAN DIEGO, 92124
506,RITE AID 5661 ,License Type: Pharmacy (Community),SAN DIEGO, SAN DIEGO, 92126
507,RITE AID 5662 ,License Type: Pharmacy (Community),SAN DIEGO, SAN DIEGO, 92128
508,RITE AID 5665 ,License Type: Pharmacy (Community),SAN DIEGO, SAN DIEGO, 92129
509,RITE AID 5666 ,License Type: Pharmacy (Community),SAN DIEGO, SAN DIEGO, 92130
510,RITE AID 5668 ,License Type: Pharmacy (Community),SAN DIEGO, SAN DIEGO, 92154
511,RITE AID 5685 ,License Type: Pharmacy (Community),TWENTYNINE PALMS, SAN BERNARDINO, 92277
512,RITE AID 5686 ,License Type: Pharmacy (Community),YUCCA VALLEY, SAN BERNARDINO, 92284
513,RITE AID 5690 ,License Type: Pharmacy (Community),BARSTOW, SAN BERNARDINO, 92311
514,RITE AID 5692 ,License Type: Pharmacy (Community),BLUE JAY, SAN BERNARDINO, 92317
515,RITE AID 5693 ,License Type: Pharmacy (Community),COLTON, SAN BERNARDINO, 92324
516,RITE AID 5694 ,License Type: Pharmacy (Community),COLTON, SAN BERNARDINO, 92324
517,RITE AID 5695 ,License Type: Pharmacy (Community),FONTANA, SAN BERNARDINO, 92335
518,RITE AID 5696 ,License Type: Pharmacy (Community),FONTANA, SAN BERNARDINO, 92337
519,RITE AID 5699 ,License Type: Pharmacy (Community),NEEDLES, SAN BERNARDINO, 92363
520,RITE AID 5701 ,License Type: Pharmacy (Community),REDLANDS, SAN BERNARDINO, 92373
521,RITE AID 5703 ,License Type: Pharmacy (Community),RIALTO, SAN BERNARDINO, 92377
522,RITE AID 5705 ,License Type: Pharmacy (Community),VICTORVILLE, SAN BERNARDINO, 92395
523,RITE AID 5706 ,License Type: Pharmacy (Community),VICTORVILLE, SAN BERNARDINO, 92392
524,RITE AID 5708 ,License Type: Pharmacy (Community),FONTANA, SAN BERNARDINO, 92335
525,RITE AID 5709 ,License Type: Pharmacy (Community),YUCAIPA, SAN BERNARDINO, 92399
526,RITE AID 5710 ,License Type: Pharmacy (Community),SAN BERNARDINO, SAN BERNARDINO, 92404
527,RITE AID 5711 ,License Type: Pharmacy (Community),SAN BERNARDINO, SAN BERNARDINO, 92407
528,RITE AID NO 5600 ,License Type: Pharmacy (Community),ONTARIO, SAN BERNARDINO, 91762
529,RITE AID NO 5618 ,License Type: Pharmacy (Community),LEMON GROVE, SAN DIEGO, 91945
530,RITE AID NO 5628 ,License Type: Pharmacy (Community),ESCONDIDO, SAN DIEGO, 92025
531,RITE AID NO 5631 ,License Type: Pharmacy (Community),FALLBROOK, SAN DIEGO, 92028
532,RITE AID NO 5634 ,License Type: Pharmacy (Community),OCEANSIDE, SAN DIEGO, 92054
533,RITE AID NO 5651 ,License Type: Pharmacy (Community),SAN DIEGO, SAN DIEGO, 92115
534,RITE AID NO 5653 ,License Type: Pharmacy (Community),SAN DIEGO, SAN DIEGO, 92117
535,RITE AID NO 5687 ,License Type: Pharmacy (Community),APPLE VALLEY, SAN BERNARDINO, 92307
536,RITE AID NO 5697 ,License Type: Pharmacy (Community),HESPERIA, SAN BERNARDINO, 92345
537,RITE AID NO 6225 ,License Type: Pharmacy (Community),ALPINE, SAN DIEGO, 91901
538,RITE AID NO 6256 ,License Type: Pharmacy (Community),LOMA LINDA, SAN BERNARDINO, 92354
539,RITE AID NO 6276 ,License Type: Pharmacy (Community),HESPERIA, SAN BERNARDINO, 92345
540,RITE AID NO 6318 ,License Type: Pharmacy (Community),ONTARIO, SAN BERNARDINO, 91761
541,RITE AID NO 6466 ,License Type: Pharmacy (Community),SAN DIEGO, SAN DIEGO, 92101
542,RITE AID NO 6468 ,License Type: Pharmacy (Community),RANCHO CUCAMONGA, SAN BERNARDINO, 91730
543,RIVERS EDGE COMMUNITY PHARMACY ,License Type: Pharmacy (Community),SAN DIEGO, SAN DIEGO, 92128
544,RONS PHARMACY SERVICES ,License Type: Pharmacy (Community),SAN DIEGO, SAN DIEGO, 92121
545,ROYAL PHARMACY GROUP ,License Type: Pharmacy (Community),SAN DIEGO, SAN DIEGO, 92115
546,SAIL DRUG & DISCOUNT CENTER ,License Type: Pharmacy (Community),YUCAIPA, SAN BERNARDINO, 92399
547,SAM'S CLUB PHARMACY NO 10-6610 ,License Type: Pharmacy (Community),CHINO, SAN BERNARDINO, 91710
548,SAM'S PHARMACY 10-6624 ,License Type: Pharmacy (Community),SAN BERNARDINO, SAN BERNARDINO, 92408
549,SAMS PHARMACY NO 10 6235 ,License Type: Pharmacy (Community),Accusation filed, SAN DIEGO, 92115
550,SAMS PHARMACY NO 10-6619 ,License Type: Pharmacy (Community),ONTARIO, SAN BERNARDINO, 91764
551,SAN DIEGO COMPOUNDING PHARMACY ,License Type: Pharmacy (Community),SAN DIEGO, SAN DIEGO, 92123
552,SAN DIEGO OPTIMUM COMPOUNDING ,License Type: Pharmacy (Community),POWAY, SAN DIEGO, 92064
553,SAN DIEGO STATE UNIVERSITY STUDENT HEALTH ,License Type: Pharmacy (Government Owned Community),SAN DIEGO, SAN DIEGO, 92182
554,SAN MANUEL INDIAN HEALTH CLINIC ,License Type: Pharmacy (Community),GRAND TERRACE, SAN BERNARDINO, 92313
555,SAN MARCOS PHARMACY ,License Type: Pharmacy (Community),SAN MARCOS, SAN DIEGO, 92078
556,SAN YSIDRO HEALTH CENTER PHARMACY ,License Type: Pharmacy (Community),SAN YSIDRO, SAN DIEGO, 92173
557,SANTA FE PHARMACY ,License Type: Pharmacy (Community),CHINO, SAN BERNARDINO, 91710
558,SAV-ON PHARMACY #1319 ,License Type: Pharmacy (Community),REDLANDS, SAN BERNARDINO, 92373
559,SAV-ON PHARMACY #2303 ,License Type: Pharmacy (Community),HIGHLAND, SAN BERNARDINO, 92346
560,SAV-ON PHARMACY #2515 ,License Type: Pharmacy (Community),CHINO HILLS, SAN BERNARDINO, 91709
561,SAV-ON PHARMACY #2767 ,License Type: Pharmacy (Community),OCEANSIDE, SAN DIEGO, 92058
562,SAV-ON PHARMACY #2783 ,License Type: Pharmacy (Community),EL CAJON, SAN DIEGO, 92019
563,SAV-ON PHARMACY #3177 ,License Type: Pharmacy (Community),RANCHO CUCAMONGA, SAN BERNARDINO, 91730
564,SAV-ON PHARMACY #3179 ,License Type: Pharmacy (Community),SAN DIEGO, SAN DIEGO, 92128
565,SAV-ON PHARMACY #3202 ,License Type: Pharmacy (Community),EL CAJON, SAN DIEGO, 92021
566,SAV-ON PHARMACY #3513 ,License Type: Pharmacy (Community),APPLE VALLEY, SAN BERNARDINO, 92307
567,SAV-ON PHARMACY #3592 ,License Type: Pharmacy (Community),CHINO HILLS, SAN BERNARDINO, 91709
568,SAV-ON PHARMACY #4713 ,License Type: Pharmacy (Community),ESCONDIDO, SAN DIEGO, 92027
569,SAV-ON PHARMACY #4786 ,License Type: Pharmacy (Community),FALLBROOK, SAN DIEGO, 92028
570,SAV-ON PHARMACY #599 ,License Type: Pharmacy (Community),UPLAND, SAN BERNARDINO, 91784
571,SAV-ON PHARMACY #704 ,License Type: Pharmacy (Community),ALPINE, SAN DIEGO, 91901
572,SAV-ON PHARMACY #710 ,License Type: Pharmacy (Community),LA MESA, SAN DIEGO, 91942
573,SAV-ON PHARMACY #723 ,License Type: Pharmacy (Community),SPRING VALLEY, SAN DIEGO, 91977
574,SAV-ON PHARMACY #725 ,License Type: Pharmacy (Community),RAMONA, SAN DIEGO, 92065
575,SAV-ON PHARMACY #733 ,License Type: Pharmacy (Community),OCEANSIDE, SAN DIEGO, 92056
576,SAV-ON PHARMACY #745 ,License Type: Pharmacy (Community),SAN DIEGO, SAN DIEGO, 92101
577,SAV-ON PHARMACY #750 ,License Type: Pharmacy (Community),SAN MARCOS, SAN DIEGO, 92078
578,SAV-ON PHARMACY #757 ,License Type: Pharmacy (Community),CHULA VISTA, SAN DIEGO, 91910
579,SAV-ON PHARMACY #758 ,License Type: Pharmacy (Community),SPRING VALLEY, SAN DIEGO, 91977
580,SCRIPPS HEALTH ENCINITAS AMBULATORY PHARMACY ,License Type: Pharmacy (Community),ENCINITAS, SAN DIEGO, 92024
581,SCRIPPS HEALTH GREEN AMBULATORY PHARMACY ,License Type: Pharmacy (Community),LA JOLLA, SAN DIEGO, 92037
582,SCRIPPS HEALTH MERCY AMBULATORY PHARMACY ,License Type: Pharmacy (Community),SAN DIEGO, SAN DIEGO, 92103
583,SCRIPPS PHARMACY ,License Type: Pharmacy (Community),RIALTO, SAN BERNARDINO, 92376
584,SHARP CENTRAL PHARMACY SERVICES ,License Type: Pharmacy (Community),SAN DIEGO, SAN DIEGO, 92123
585,SHARP CORONADO COMMUNITY PHARMACY ,License Type: Pharmacy (Community),CORONADO, SAN DIEGO, 92118
586,SHARP REES STEALY PHARMACY #1 ,License Type: Pharmacy (Community),SAN DIEGO, SAN DIEGO, 92101
587,SHARP REES STEALY PHARMACY #2 ,License Type: Pharmacy (Community),CHULA VISTA, SAN DIEGO, 91910
588,SHARP REES STEALY PHARMACY #4 ,License Type: Pharmacy (Community),SAN DIEGO, SAN DIEGO, 92121
589,SHARP REES STEALY PHARMACY #5 ,License Type: Pharmacy (Community),LA MESA, SAN DIEGO, 91942
590,SHARP REES STEALY PHARMACY #6 ,License Type: Pharmacy (Community),SAN DIEGO, SAN DIEGO, 92123
591,SHARP REES STEALY PHARMACY #7 ,License Type: Pharmacy (Community),CHULA VISTA, SAN DIEGO, 91913
592,SHARP REES-STEALY PHARMACY #3 ,License Type: Pharmacy (Community),SAN DIEGO, SAN DIEGO, 92127
593,SIERRA PHARMACY ,License Type: Pharmacy (Community),RANCHO CUCAMONGA, SAN BERNARDINO, 91730
594,SIERRA PHARMACY ,License Type: Pharmacy (Community),Probation, SAN BERNARDINO, 92407
595,SIERRA SAN ANTONIO PHARMACY ,License Type: Pharmacy (Community),FONTANA, SAN BERNARDINO, 92336
596,SKILLED NURSING PHARMACY ,License Type: Pharmacy (Community),SAN DIEGO, SAN DIEGO, 92131
597,SOLARA MEDICAL SUPPLIES LLC ,License Type: Pharmacy (Community),CHULA VISTA, SAN DIEGO, 91913
598,SOUTHERN CALIFORNIA COMPOUNDING PHARMACY LLC ,License Type: Pharmacy (Community),Probation, SAN DIEGO, 92121
599,SOUTHERN INDIAN HEALTH COUNCIL ,License Type: Pharmacy (Government Owned Community),ALPINE, SAN DIEGO, 91901
600,SOUTHERN INDIAN HEALTH COUNCIL INC ,License Type: Pharmacy (Government Owned Community),CAMPO, SAN DIEGO, 91906
601,ST HELEN'S MEDICAL PHARMACY ,License Type: Pharmacy (Community),FONTANA, SAN BERNARDINO, 92335
602,ST MINA PHARMACY AND HOME CARE ,License Type: Pharmacy (Community),FONTANA, SAN BERNARDINO, 92335
603,ST. MINA PHARMACY ,License Type: Pharmacy (Community),Accusation filed, SAN BERNARDINO, 92335
604,STAR PHARMACY ,License Type: Pharmacy (Community),JOSHUA TREE, SAN BERNARDINO, 92252
605,STUDENT HLTH CTR PHCY S BERNARDINO ,License Type: Pharmacy (Government Owned Community),SAN BERNARDINO, SAN BERNARDINO, 92407
606,SUITECARE PHARMACY ,License Type: Pharmacy (Community),NATIONAL CITY, SAN DIEGO, 91950
607,SUPERIOR CARE PHARMACY ,License Type: Pharmacy (Community),EL CAJON, SAN DIEGO, 92020
608,SYCUAN MEDICAL DENTAL PHARMACY ,License Type: Pharmacy (Government Owned Community),EL CAJON, SAN DIEGO, 92019
609,T.H.E. PHARMACY ,License Type: Pharmacy (Community),UPLAND, SAN BERNARDINO, 91786
610,TEPLOW DRUGS ,License Type: Pharmacy (Community),BARSTOW, SAN BERNARDINO, 92311
611,THE JOHN M & SALLY B THORNTON HOSPITAL ,License Type: Pharmacy (Government Owned Community),LA JOLLA, SAN DIEGO, 92037
612,THE MEDICINE SHOPPE ,License Type: Pharmacy (Community),PHELAN, SAN BERNARDINO, 92371
613,THE MEDICINE SHOPPE ,License Type: Pharmacy (Community),SAN DIEGO, SAN DIEGO, 92139
614,THE MEDICINE SHOPPE ,License Type: Pharmacy (Community),MONTCLAIR, SAN BERNARDINO, 91763
615,THE MEDICINE SHOPPE PHARMACY ,License Type: Pharmacy (Community),ONTARIO, SAN BERNARDINO, 91762
616,THE PRESCRIPTION SHOPPE ,License Type: Pharmacy (Community),BARSTOW, SAN BERNARDINO, 92311
617,THRIFTY PAYLESS INC DBA RITE AID #6795 ,License Type: Pharmacy (Community),SAN DIEGO, SAN DIEGO, 92109
618,THRIFTY PAYLESS INC RITE AID #5700 ,License Type: Pharmacy (Community),PHELAN, SAN BERNARDINO, 92371
619,TRIAD ISOTOPES ,License Type: Pharmacy (Community),LOMA LINDA, SAN BERNARDINO, 92354
620,TRILLIUM PHARMACY ,License Type: Pharmacy (Community),ESCONDIDO, SAN DIEGO, 92025
621,UC SAN DIEGO STUDENT HEALTH SVC PHY ,License Type: Pharmacy (Government Owned Community),LA JOLLA, SAN DIEGO, 92093
622,UCSD HOME INFUSION PHARMACY ,License Type: Pharmacy (Government Owned Community),SAN DIEGO, SAN DIEGO, 92123
623,UCSD MEDICAL OFFICES SOUTH PHARMACY ,License Type: Pharmacy (Government Owned Community),SAN DIEGO, SAN DIEGO, 92103
624,UCSD MOORES CANCER CENTER ,License Type: Pharmacy (Government Owned Community),LA JOLLA, SAN DIEGO, 92093
625,UCSD OUTPATIENT PAVILION PHARMACY ,License Type: Pharmacy (Government Owned Community),LA JOLLA, SAN DIEGO, 92037
626,UCSD RESEARCH PHARMACY ,License Type: Pharmacy (Government Owned Community),SAN DIEGO, SAN DIEGO, 92103
627,UCSD-ALTMAN CLINICAL TRANSLATIONAL RESEARCH INSTITUTE - RESEARCH ,License Type: Pharmacy (Government Owned Community),LA JOLLA, SAN DIEGO, 92037
628,UCSD-SDCC INFUSION PHARMACY ,License Type: Pharmacy (Government Owned Community),ENCINITAS, SAN DIEGO, 92024
629,UCSD-SDCC RETAIL PHARMACY ,License Type: Pharmacy (Government Owned Community),ENCINITAS, SAN DIEGO, 92024
630,UNION PHARMACY ,License Type: Pharmacy (Community),SAN DIEGO, SAN DIEGO, 92111
631,UNITED PHARMACY ,License Type: Pharmacy (Community),RANCHO CUCAMONGA, SAN BERNARDINO, 91730
632,UNITED PHARMACY SOLUTIONS ,License Type: Pharmacy (Community),CHINO, SAN BERNARDINO, 91710
633,UNIVERSITY COMPOUNDING PHARMACY ,License Type: Pharmacy (Community),Probation Terminated/Completed, SAN DIEGO, 92101
634,UPLAND PHARMACY ,License Type: Pharmacy (Community),UPLAND, SAN BERNARDINO, 91786
635,"VETERANS HOME OF CA, CHULA VISTA PHY ",License Type: Pharmacy (Government Owned Community),CHULA VISTA, SAN DIEGO, 91911
636,VIDA DRUG STORE AND PHARMACY ,License Type: Pharmacy (Community),ONTARIO, SAN BERNARDINO, 91762
637,VIET PHARMACY AND MEDICAL SUPPLIES ,License Type: Pharmacy (Community),SAN DIEGO, SAN DIEGO, 92115
638,VILLA PHARMACY ,License Type: Pharmacy (Community),ONTARIO, SAN BERNARDINO, 91761
639,VILLAGE PHARMACY ,License Type: Pharmacy (Community),FALLBROOK, SAN DIEGO, 92028
640,VILLAGE ROSE PHARMACY ,License Type: Pharmacy (Community),LA MESA, SAN DIEGO, 91941
641,VIP PHARMACY ,License Type: Pharmacy (Community),CHINO, SAN BERNARDINO, 91710
642,VISTA CARE PHARMACY ,License Type: Pharmacy (Community),VICTORVILLE, SAN BERNARDINO, 92395
643,VISTA COMMUNITY CLINIC ,License Type: Pharmacy (Community),OCEANSIDE, SAN DIEGO, 92054
644,VISTA COMMUNITY CLINIC PHARMACY ,License Type: Pharmacy (Community),VISTA, SAN DIEGO, 92084
645,VIVA PHARMACY ,License Type: Pharmacy (Community),SAN BERNARDINO, SAN BERNARDINO, 92404
646,VONS PHARMACY #1734 ,License Type: Pharmacy (Community),REDLANDS, SAN BERNARDINO, 92374
647,VONS PHARMACY #1742 ,License Type: Pharmacy (Community),FONTANA, SAN BERNARDINO, 92336
648,VONS PHARMACY #1796 ,License Type: Pharmacy (Community),YUCAIPA, SAN BERNARDINO, 92399
649,VONS PHARMACY #1797 ,License Type: Pharmacy (Community),SAN DIEGO, SAN DIEGO, 92130
650,VONS PHARMACY #1897 ,License Type: Pharmacy (Community),SANTEE, SAN DIEGO, 92071
651,VONS PHARMACY #2012 ,License Type: Pharmacy (Community),SAN DIEGO, SAN DIEGO, 92122
652,VONS PHARMACY #2053 ,License Type: Pharmacy (Community),SAN DIEGO, SAN DIEGO, 92110
653,VONS PHARMACY #2065 ,License Type: Pharmacy (Community),CARLSBAD, SAN DIEGO, 92009
654,VONS PHARMACY #2071 ,License Type: Pharmacy (Community),CHULA VISTA, SAN DIEGO, 91915
655,VONS PHARMACY #2079 ,License Type: Pharmacy (Community),RANCHO BERNARDO, SAN DIEGO, 92128
656,VONS PHARMACY #2081 ,License Type: Pharmacy (Community),SAN DIEGO, SAN DIEGO, 92129
657,VONS PHARMACY #2093 ,License Type: Pharmacy (Community),LA MESA, SAN DIEGO, 91941
658,VONS PHARMACY #2107 ,License Type: Pharmacy (Community),SAN DIEGO, SAN DIEGO, 92131
659,VONS PHARMACY #2115 ,License Type: Pharmacy (Community),SAN DIEGO, SAN DIEGO, 92154
660,VONS PHARMACY #2118 ,License Type: Pharmacy (Community),SAN DIEGO, SAN DIEGO, 92123
661,VONS PHARMACY #2131 ,License Type: Pharmacy (Community),VICTORVILLE, SAN BERNARDINO, 92392
662,VONS PHARMACY #2144 ,License Type: Pharmacy (Community),ENCINITAS, SAN DIEGO, 92024
663,VONS PHARMACY #2156 ,License Type: Pharmacy (Community),ESCONDIDO, SAN DIEGO, 92027
664,VONS PHARMACY #2323 ,License Type: Pharmacy (Community),LA JOLLA, SAN DIEGO, 92037
665,VONS PHARMACY #2327 ,License Type: Pharmacy (Community),SOLANA BEACH, SAN DIEGO, 92075
666,VONS PHARMACY #2344 ,License Type: Pharmacy (Community),ESCONDIDO, SAN DIEGO, 92025
667,VONS PHARMACY #2345 ,License Type: Pharmacy (Community),ESCONDIDO, SAN DIEGO, 92026
668,VONS PHARMACY #2352 ,License Type: Pharmacy (Community),SAN DIEGO, SAN DIEGO, 92115
669,VONS PHARMACY #2355 ,License Type: Pharmacy (Community),SAN DIEGO, SAN DIEGO, 92104
670,VONS PHARMACY #2358 ,License Type: Pharmacy (Community),SAN DIEGO, SAN DIEGO, 92116
671,VONS PHARMACY #2360 ,License Type: Pharmacy (Community),OCEANSIDE, SAN DIEGO, 92057
672,VONS PHARMACY #2376 ,License Type: Pharmacy (Community),BARSTOW, SAN BERNARDINO, 92311
673,VONS PHARMACY #2681 ,License Type: Pharmacy (Community),UPLAND, SAN BERNARDINO, 91786
674,VONS PHARMACY #2724 ,License Type: Pharmacy (Community),CARLSBAD, SAN DIEGO, 92009
675,VONS PHARMACY #2735 ,License Type: Pharmacy (Community),SAN DIEGO, SAN DIEGO, 92106
676,VONS PHARMACY #2784 ,License Type: Pharmacy (Community),SAN DIEGO, SAN DIEGO, 92103
677,VONS PHARMACY #2826 ,License Type: Pharmacy (Community),CHULA VISTA, SAN DIEGO, 91915
678,VONS PHARMACY #3044 ,License Type: Pharmacy (Community),EL CAJON, SAN DIEGO, 92020
679,VONS PHARMACY #3058 ,License Type: Pharmacy (Community),YUCCA VALLEY, SAN BERNARDINO, 92284
680,VONS PHARMACY #3323 ,License Type: Pharmacy (Community),SAN DIEGO, SAN DIEGO, 92129
681,VONS PHARMACY #3330 ,License Type: Pharmacy (Community),SAN MARCOS, SAN DIEGO, 92078
682,VONS PHARMACY #4018 ,License Type: Pharmacy (Community),SAN DIEGO, SAN DIEGO, 92131
683,WAL MART PHARMACY  10 1756 ,License Type: Pharmacy (Community),FONTANA, SAN BERNARDINO, 92335
684,WAL MART PHARMACY 10 1588 ,License Type: Pharmacy (Community),VICTORVILLE, SAN BERNARDINO, 92395
685,WAL MART PHARMACY 10 1693 ,License Type: Pharmacy (Community),REDLANDS, SAN BERNARDINO, 92373
686,WAL MART PHARMACY 10 1922 ,License Type: Pharmacy (Community),RANCHO CUCAMONGA, SAN BERNARDINO, 91739
687,WAL MART PHARMACY 10 2094 ,License Type: Pharmacy (Community),VISTA, SAN DIEGO, 92083
688,WAL MART PHARMACY 10 2150 ,License Type: Pharmacy (Community),SAN DIEGO, SAN DIEGO, 92154
689,WAL MART PHARMACY 10 2253 ,License Type: Pharmacy (Community),EL CAJON, SAN DIEGO, 92021
690,WAL MART PHARMACY 10 2291 ,License Type: Pharmacy (Community),CHULA VISTA, SAN DIEGO, 91910
691,WAL MART PHARMACY 10 2333 ,License Type: Pharmacy (Community),APPLE VALLEY, SAN BERNARDINO, 92307
692,WAL-MART PHARMACY #10-1692 ,License Type: Pharmacy (Community),COLTON, SAN BERNARDINO, 92324
693,WAL-MART PHARMACY #10-1700 ,License Type: Pharmacy (Community),POWAY, SAN DIEGO, 92064
694,WAL-MART PHARMACY #10-1915 ,License Type: Pharmacy (Community),YUCCA VALLEY, SAN BERNARDINO, 92284
695,WAL-MART PHARMACY #10-1917 ,License Type: Pharmacy (Community),SANTEE, SAN DIEGO, 92071
696,WAL-MART PHARMACY #10-1992 ,License Type: Pharmacy (Community),UPLAND, SAN BERNARDINO, 91786
697,WAL-MART PHARMACY 10-1914 ,License Type: Pharmacy (Community),HIGHLAND, SAN BERNARDINO, 92346
698,WAL-MART PHARMACY 10-2245 ,License Type: Pharmacy (Community),OCEANSIDE, SAN DIEGO, 92057
699,WAL-MART PHARMACY 10-3084 ,License Type: Pharmacy (Community),ESCONDIDO, SAN DIEGO, 92027
700,WAL-MART PHARMACY 10-3131 ,License Type: Pharmacy (Community),RIALTO, SAN BERNARDINO, 92376
701,WAL-MART PHARMACY 10-3796 ,License Type: Pharmacy (Community),ONTARIO, SAN BERNARDINO, 91762
702,WAL-MART PHARMACY 10-4340 ,License Type: Pharmacy (Community),HESPERIA, SAN BERNARDINO, 92345
703,WAL-MART PHARMACY 10-5305 ,License Type: Pharmacy (Community),CHULA VISTA, SAN DIEGO, 91911
704,WAL-MART PHARMACY 10-5637 ,License Type: Pharmacy (Community),OCEANSIDE, SAN DIEGO, 92054
705,WAL-MART PHARMACY 10-5638 ,License Type: Pharmacy (Community),SAN DIEGO, SAN DIEGO, 92102
706,WAL-MART PHARMACY 10-5684 ,License Type: Pharmacy (Community),LA MESA, SAN DIEGO, 91942
707,WAL-MART PHARMACY 10-5691 ,License Type: Pharmacy (Community),UPLAND, SAN BERNARDINO, 91786
708,WAL-MART PHARMACY 10-5886 ,License Type: Pharmacy (Community),ENCINITAS, SAN DIEGO, 92024
709,WAL-MART PHARMACY 10-5938 ,License Type: Pharmacy (Community),SAN DIEGO, SAN DIEGO, 92154
710,WAL-MART PHARMACY 10-5996 ,License Type: Pharmacy (Community),ESCONDIDO, SAN DIEGO, 92025
711,WALGREEN CO. D/B/A WALGREENS #13834 ,License Type: Pharmacy (Community),SAN DIEGO, SAN DIEGO, 92114
712,WALGREENS #01870 ,License Type: Pharmacy (Community),APPLE VALLEY, SAN BERNARDINO, 92308
713,WALGREENS #02223 ,License Type: Pharmacy (Community),HESPERIA, SAN BERNARDINO, 92345
714,WALGREENS #02623 ,License Type: Pharmacy (Community),CHULA VISTA, SAN DIEGO, 91911
715,WALGREENS #05300 ,License Type: Pharmacy (Community),HIGHLAND, SAN BERNARDINO, 92346
716,WALGREENS #05348 ,License Type: Pharmacy (Community),YUCAIPA, SAN BERNARDINO, 92399
717,WALGREENS #05372 ,License Type: Pharmacy (Community),Probation, SAN BERNARDINO, 92335
718,WALGREENS #05455 ,License Type: Pharmacy (Community),ESCONDIDO, SAN DIEGO, 92025
719,WALGREENS #05456 ,License Type: Pharmacy (Community),VISTA, SAN DIEGO, 92083
720,WALGREENS #05478 ,License Type: Pharmacy (Community),RANCHO CUCAMONGA, SAN BERNARDINO, 91701
721,WALGREENS #05506 ,License Type: Pharmacy (Community),RIALTO, SAN BERNARDINO, 92376
722,WALGREENS #05528 ,License Type: Pharmacy (Community),SAN BERNARDINO, SAN BERNARDINO, 92407
723,WALGREENS #05555 ,License Type: Pharmacy (Community),RIALTO, SAN BERNARDINO, 92376
724,WALGREENS #05556 ,License Type: Pharmacy (Community),HESPERIA, SAN BERNARDINO, 92345
725,WALGREENS #05652 ,License Type: Pharmacy (Community),RANCHO CUCAMONGA, SAN BERNARDINO, 91737
726,WALGREENS #05700 ,License Type: Pharmacy (Community),ESCONDIDO, SAN DIEGO, 92027
727,WALGREENS #05844 ,License Type: Pharmacy (Community),EL CAJON, SAN DIEGO, 92021
728,WALGREENS #06061 ,License Type: Pharmacy (Community),UPLAND, SAN BERNARDINO, 91786
729,WALGREENS #06094 ,License Type: Pharmacy (Community),SAN DIEGO, SAN DIEGO, 92110
730,WALGREENS #06147 ,License Type: Pharmacy (Community),ONTARIO, SAN BERNARDINO, 91761
731,WALGREENS #06255 ,License Type: Pharmacy (Community),CHULA VISTA, SAN DIEGO, 91910
732,WALGREENS #06399 ,License Type: Pharmacy (Community),YUCCA VALLEY, SAN BERNARDINO, 92284
733,WALGREENS #06438 ,License Type: Pharmacy (Community),CHINO, SAN BERNARDINO, 91710
734,WALGREENS #06656 ,License Type: Pharmacy (Community),SAN DIEGO, SAN DIEGO, 92104
735,WALGREENS #06685 ,License Type: Pharmacy (Community),SAN BERNARDINO, SAN BERNARDINO, 92404
736,WALGREENS #07176 ,License Type: Pharmacy (Community),SAN DIEGO, SAN DIEGO, 92119
737,WALGREENS #07751 ,License Type: Pharmacy (Community),OCEANSIDE, SAN DIEGO, 92056
738,WALGREENS #07867 ,License Type: Pharmacy (Community),CHULA VISTA, SAN DIEGO, 91915
739,WALGREENS #07869 ,License Type: Pharmacy (Community),NATIONAL CITY, SAN DIEGO, 91950
740,WALGREENS #07976 ,License Type: Pharmacy (Community),REDLANDS, SAN BERNARDINO, 92374
741,WALGREENS #09105 ,License Type: Pharmacy (Community),RIALTO, SAN BERNARDINO, 92376
742,WALGREENS #09183 ,License Type: Pharmacy (Community),SAN BERNARDINO, SAN BERNARDINO, 92411
743,WALGREENS #09254 ,License Type: Pharmacy (Community),VICTORVILLE, SAN BERNARDINO, 92392
744,WALGREENS #09389 ,License Type: Pharmacy (Community),VISTA, SAN DIEGO, 92083
745,WALGREENS #09433 ,License Type: Pharmacy (Community),OCEANSIDE, SAN DIEGO, 92058
746,WALGREENS #09588 ,License Type: Pharmacy (Community),FONTANA, SAN BERNARDINO, 92336
747,WALGREENS #09780 ,License Type: Pharmacy (Community),HESPERIA, SAN BERNARDINO, 92345
748,WALGREENS #09817 ,License Type: Pharmacy (Community),SANTEE, SAN DIEGO, 92071
749,WALGREENS #10142 ,License Type: Pharmacy (Community),ESCONDIDO, SAN DIEGO, 92025
750,WALGREENS #10202 ,License Type: Pharmacy (Community),ONTARIO, SAN BERNARDINO, 91762
751,WALGREENS #10420 ,License Type: Pharmacy (Community),BIG BEAR LAKE, SAN BERNARDINO, 92315
752,WALGREENS #10467 ,License Type: Pharmacy (Community),SAN BERNARDINO, SAN BERNARDINO, 92404
753,WALGREENS #10768 ,License Type: Pharmacy (Community),FONTANA, SAN BERNARDINO, 92337
754,WALGREENS #11081 ,License Type: Pharmacy (Community),FALLBROOK, SAN DIEGO, 92028
755,WALGREENS #11472 ,License Type: Pharmacy (Community),CHINO HILLS, SAN BERNARDINO, 91709
756,WALGREENS #11653 ,License Type: Pharmacy (Community),ENCINITAS, SAN DIEGO, 92024
757,WALGREENS #11654 ,License Type: Pharmacy (Community),SAN DIEGO, SAN DIEGO, 92126
758,WALGREENS #11989 ,License Type: Pharmacy (Community),RIALTO, SAN BERNARDINO, 92376
759,WALGREENS #11990 ,License Type: Pharmacy (Community),LAKESIDE, SAN DIEGO, 92040
760,WALGREENS #12143 ,License Type: Pharmacy (Community),SAN DIEGO, SAN DIEGO, 92111
761,WALGREENS #12332 ,License Type: Pharmacy (Community),APPLE VALLEY, SAN BERNARDINO, 92307
762,WALGREENS #12421 ,License Type: Pharmacy (Community),POWAY, SAN DIEGO, 92064
763,WALGREENS #12547 ,License Type: Pharmacy (Community),RIALTO, SAN BERNARDINO, 92377
764,WALGREENS #12576 ,License Type: Pharmacy (Community),VICTORVILLE, SAN BERNARDINO, 92394
765,WALGREENS #12841 ,License Type: Pharmacy (Community),GRAND TERRACE, SAN BERNARDINO, 92313
766,WALGREENS #12862 ,License Type: Pharmacy (Community),VICTORVILLE, SAN BERNARDINO, 92392
767,WALGREENS #12915 ,License Type: Pharmacy (Community),LEMON GROVE, SAN DIEGO, 91945
768,WALGREENS #13052 ,License Type: Pharmacy (Community),OCEANSIDE, SAN DIEGO, 92056
769,WALGREENS #13161 ,License Type: Pharmacy (Community),SAN DIEGO, SAN DIEGO, 92105
770,WALGREENS #13859 ,License Type: Pharmacy (Community),CORONADO, SAN DIEGO, 92118
771,WALGREENS #15388 ,License Type: Pharmacy (Community),SAN DIEGO, SAN DIEGO, 92103
772,WALMART PHARMACY #10-1879 ,License Type: Pharmacy (Community),BARSTOW, SAN BERNARDINO, 92311
773,WALMART PHARMACY #10-3494 ,License Type: Pharmacy (Community),SAN MARCOS, SAN DIEGO, 92069
774,WALMART PHARMACY #10-3516 ,License Type: Pharmacy (Community),CHULA VISTA, SAN DIEGO, 91915
775,WALMART PHARMACY #10-3524 ,License Type: Pharmacy (Community),EL CAJON, SAN DIEGO, 92020
776,WALMART PHARMACY #10-3947 ,License Type: Pharmacy (Community),CHULA VISTA, SAN DIEGO, 91910
777,WALMART PHARMACY #10-4169 ,License Type: Pharmacy (Community),EL CAJON, SAN DIEGO, 92021
778,WALMART PHARMACY #10-5023 ,License Type: Pharmacy (Community),NATIONAL CITY, SAN DIEGO, 91950
779,WALMART PHARMACY #10-5075 ,License Type: Pharmacy (Community),OCEANSIDE, SAN DIEGO, 92056
780,WALMART PHARMACY #10-5338 ,License Type: Pharmacy (Community),SAN DIEGO, SAN DIEGO, 92111
781,WALMART PHARMACY 10 2177 ,License Type: Pharmacy (Community),SAN DIEGO, SAN DIEGO, 92123
782,WALMART PHARMACY 10-1862 ,License Type: Pharmacy (Community),RIALTO, SAN BERNARDINO, 92376
783,WALMART PHARMACY 10-2998 ,License Type: Pharmacy (Community),LOMA LINDA, SAN BERNARDINO, 92354
784,WALMART PHARMACY 10-4392 ,License Type: Pharmacy (Community),VICTORVILLE, SAN BERNARDINO, 92392
785,WALMART PHARMACY NO 10-2479 ,License Type: Pharmacy (Community),SAN DIEGO, SAN DIEGO, 92115
786,WALMART PHARMACY NO 10-2494 ,License Type: Pharmacy (Community),OCEANSIDE, SAN DIEGO, 92054
787,WALMART PHARMACY NO 10-3276 ,License Type: Pharmacy (Community),SAN BERNARDINO, SAN BERNARDINO, 92407
788,WALMART PHARMACY NO 10-3464 ,License Type: Pharmacy (Community),CHINO, SAN BERNARDINO, 91710
789,WATERMAN PHARMACY ,License Type: Pharmacy (Community),SAN BERNARDINO, SAN BERNARDINO, 92404
790,WELCARE PHARMACY ,License Type: Pharmacy (Community),SAN MARCOS, SAN DIEGO, 92069
791,WELLNESSRX PHARMACY ,License Type: Pharmacy (Community),Accusation filed, SAN DIEGO, 92115
792,WELLS PHARMACY INC ,License Type: Pharmacy (Community),ONTARIO, SAN BERNARDINO, 91764
793,YOUR DRUG STORE ,License Type: Pharmacy (Community),VICTORVILLE, SAN BERNARDINO, 92395
794,YUCAIPA CARE PHARMACY ,License Type: Pharmacy (Community),YUCAIPA, SAN BERNARDINO, 92399
795,ZEN PHARMACY ,License Type: Pharmacy (Community),HESPERIA, SAN BERNARDINO, 92345
