name,license_type,county,city,zip
ABC PHARMACY ,License Type: Pharmacy (Community),RIVERSIDE, RIVERSIDE, 92507
ACARIAHEALTH PHARMACY #14 INC ,License Type: Pharmacy (Community),SACRAMENTO, SACRAMENTO, 95834
ACCESS MYRX PHARMACY LLC ,License Type: Pharmacy (Community),ELK GROVE, SACRAMENTO, 95624
ACCREDO HEALTH GROUP INC ,License Type: Pharmacy (Community),CORONA, RIVERSIDE, 92880
ADVANCED CARE PHARMACY ,License Type: Pharmacy (Community),CORONA, RIVERSIDE, 92880
ADVANTAGE PHARMACEUTICALS INC ,License Type: Pharmacy (Community),ROCKLIN, PLACER, 95677
AIDS FOR DAILY LIVING INC ,License Type: Pharmacy (Community),ROCKLIN, PLACER, 95765
AMBROSIA HEALTHCARE INC ,License Type: Pharmacy (Community),PALM DESERT, RIVERSIDE, 92211
AMBULATORY CARE CENTER PHARMACY ,License Type: Pharmacy (Government Owned Community),SACRAMENTO, SACRAMENTO, 95817
ANDERSON BROS FLORIN SQUARE PHARMACY ,License Type: Pharmacy (Community),SACRAMENTO, SACRAMENTO, 95822
ANDERSON BROS TOWN & COUNTRY PHARMACY INC ,License Type: Pharmacy (Community),Probation, SACRAMENTO, 95821
"ANTELOPE PHARMACY, INC ",License Type: Pharmacy (Community),ANTELOPE, SACRAMENTO, 95843
ANZA VALLEY PHARMACY ,License Type: Pharmacy (Community),ANZA, RIVERSIDE, 92539
AQUA PHARMACY INC ,License Type: Pharmacy (Community),RIVERSIDE, RIVERSIDE, 92501
ARCHANGEL MICHAEL PHARMACY ,License Type: Pharmacy (Community),TEMECULA, RIVERSIDE, 92592
ARLINGTON MEDICA PHARMACY ,License Type: Pharmacy (Community),RIVERSIDE, RIVERSIDE, 92503
ARLINGTON PRESCRIPTION PHARMACY ,License Type: Pharmacy (Community),RIVERSIDE, RIVERSIDE, 92503
AUSTIN'S PHARMACY ,License Type: Pharmacy (Community),BLYTHE, RIVERSIDE, 92225
AVELLA OF SACRAMENTO INC ,License Type: Pharmacy (Community),SACRAMENTO, SACRAMENTO, 95821
BANDYS PHARMACY ,License Type: Pharmacy (Community),BLYTHE, RIVERSIDE, 92225
BEAR CREEK PHARMACY ,License Type: Pharmacy (Community),WILDOMAR, RIVERSIDE, 92595
BEL AIR PHARMACY #502 ,License Type: Pharmacy (Community),SACRAMENTO, SACRAMENTO, 95864
BEL AIR PHARMACY #509 ,License Type: Pharmacy (Community),ROSEVILLE, PLACER, 95661
BEL AIR PHARMACY #510 ,License Type: Pharmacy (Community),SACRAMENTO, SACRAMENTO, 95833
BEL AIR PHARMACY #511 ,License Type: Pharmacy (Community),CARMICHAEL, SACRAMENTO, 95608
BEL AIR PHARMACY #512 ,License Type: Pharmacy (Community),ROSEVILLE, PLACER, 95747
BEL AIR PHARMACY #514 ,License Type: Pharmacy (Community),SACRAMENTO, SACRAMENTO, 95831
BEL AIR PHARMACY #516 ,License Type: Pharmacy (Community),ELK GROVE, SACRAMENTO, 95758
BEL AIR PHARMACY #517 ,License Type: Pharmacy (Community),AUBURN, PLACER, 95603
BEL AIR PHARMACY #518 ,License Type: Pharmacy (Community),ROCKLIN, PLACER, 95765
BEL AIR PHARMACY #519 ,License Type: Pharmacy (Community),ANTELOPE, SACRAMENTO, 95843
BEL AIR PHARMACY #522 ,License Type: Pharmacy (Community),GOLD RIVER, SACRAMENTO, 95670
BEL AIR PHARMACY #523 ,License Type: Pharmacy (Community),ELK GROVE, SACRAMENTO, 95624
BEL AIR PHARMACY #524 ,License Type: Pharmacy (Community),FOLSOM, SACRAMENTO, 95630
BEL AIR PHARMACY #525 ,License Type: Pharmacy (Community),ELK GROVE, SACRAMENTO, 95624
BEL AIR PHARMACY #528 ,License Type: Pharmacy (Community),SACRAMENTO, SACRAMENTO, 95834
BLUE OAKS LTC PHARMACY ,License Type: Pharmacy (Community),ROSEVILLE, PLACER, 95678
BLYTHE MART PHARMACY ,License Type: Pharmacy (Community),BLYTHE, RIVERSIDE, 92225
BORREGO PHARMACY ,License Type: Pharmacy (Community),CATHEDRAL CITY, RIVERSIDE, 92234
"BRIOVARX INFUSION SERVICES 401, LLC ",License Type: Pharmacy (Community),SACRAMENTO, SACRAMENTO, 95834
CA DEPT OF CORRECTIONS & REHAB - CENTRAL FILL PHY ,License Type: Correctional Pharmacy,SACRAMENTO, SACRAMENTO, 95828
CALIFORNIA INSTITUTE FOR WOMEN ,License Type: Correctional Pharmacy,CORONA, RIVERSIDE, 92880
CALIFORNIA PHARMACY ,License Type: Pharmacy (Community),SACRAMENTO, SACRAMENTO, 95827
CALIFORNIA REHABILITATION CENTER PHARMACY ,License Type: Correctional Pharmacy,NORCO, RIVERSIDE, 92860
CALIFORNIA STATE PRISON   SACRAMENTO ,License Type: Correctional Pharmacy,REPRESA, SACRAMENTO, 95671
"CARDINAL HEALTH 414,LLC ",License Type: Pharmacy (Community),SACRAMENTO, SACRAMENTO, 95815
CARE PHARMACY ,License Type: Pharmacy (Community),CORONA, RIVERSIDE, 92879
CARE PLUS PHARMACY ,License Type: Pharmacy (Community),RIVERSIDE, RIVERSIDE, 92504
CARE-MORE PHARMACY ,License Type: Pharmacy (Community),CORONA, RIVERSIDE, 92879
CARE-PRO PHARMACY ,License Type: Pharmacy (Community),CORONA, RIVERSIDE, 92882
CAREMORE PHARMACY ,License Type: Pharmacy (Community),EASTVALE, RIVERSIDE, 92880
CARMICHAEL VILLAGE PHARMACY ,License Type: Pharmacy (Community),CARMICHAEL, SACRAMENTO, 95608
CENTRAL BEST PHARMACY ,License Type: Pharmacy (Community),RIVERSIDE, RIVERSIDE, 92506
CHAPA-DE INDIAN HEALTH PROGRAM INC ,License Type: Pharmacy (Community),AUBURN, PLACER, 95603
CHUCKAWALLA VALLEY STATE PRISON ,License Type: Correctional Pharmacy,BLYTHE, RIVERSIDE, 92225
COACHELLA VALLEY LTC ,License Type: Pharmacy (Community),PALM DESERT, RIVERSIDE, 92211
COACHELLA VALLEY PHARMACY ,License Type: Pharmacy (Community),PALM DESERT, RIVERSIDE, 92211
COLE'S VILLAGE PHARMACY ,License Type: Pharmacy (Community),CORONA, RIVERSIDE, 92879
COMMUNITY A WALGREENS PHARMACY # 16554 ,License Type: Pharmacy (Community),RIVERSIDE, RIVERSIDE, 92506
COMMUNITY CARE PHARMACY ,License Type: Pharmacy (Community),RIVERSIDE, RIVERSIDE, 92501
COMMUNITY PHARMACY ,License Type: Pharmacy (Community),HEMET, RIVERSIDE, 92543
COMMUNITY PROFESSIONAL PHCY ,License Type: Pharmacy (Community),RIVERSIDE, RIVERSIDE, 92501
"COMMUNITY, A WALGREENS PHARMACY_#13435 ",License Type: Pharmacy (Community),PALM SPRINGS, RIVERSIDE, 92264
CORAM CVS/SPECIALTY INFUSION SERVICES ,License Type: Pharmacy (Community),SACRAMENTO, SACRAMENTO, 95826
CORNERSTONE PHARMACY SERVICES LLC DBA CORNERSTONE PHARMACY ,License Type: Pharmacy (Community),PALM DESERT, RIVERSIDE, 92211
CORONA SPECIALTY PHARMACY ,License Type: Pharmacy (Community),CORONA, RIVERSIDE, 92879
CORONA VALLEY PHARMACY ,License Type: Pharmacy (Community),CORONA, RIVERSIDE, 92881
COSTCO PHARMACY #1032/562 ,License Type: Pharmacy (Community),CORONA, RIVERSIDE, 92880
COSTCO PHARMACY #1274 ,License Type: Pharmacy (Community),ELK GROVE, SACRAMENTO, 95757
COSTCO PHARMACY #1317 ,License Type: Pharmacy (Community),EASTVALE, RIVERSIDE, 91752
COSTCO PHARMACY #432 ,License Type: Pharmacy (Community),CORONA, RIVERSIDE, 92879
COSTCO PHARMACY #438 ,License Type: Pharmacy (Community),RANCHO CORDOVA, SACRAMENTO, 95742
COSTCO PHARMACY #455 ,License Type: Pharmacy (Community),MORENO VALLEY, RIVERSIDE, 92553
COSTCO PHARMACY #464 ,License Type: Pharmacy (Community),SACRAMENTO, SACRAMENTO, 95823
COSTCO PHARMACY #570 ,License Type: Pharmacy (Community),CORONA, RIVERSIDE, 92880
COSTCO PHARMACY #638 ,License Type: Pharmacy (Community),LA QUINTA, RIVERSIDE, 92253
COSTCO PHARMACY #746 ,License Type: Pharmacy (Community),LAKE ELSINORE, RIVERSIDE, 92532
COSTCO PHARMACY #771 ,License Type: Pharmacy (Community),CITRUS HEIGHTS, SACRAMENTO, 95621
COSTCO PHARMACY 29 ,License Type: Pharmacy (Community),ROSEVILLE, PLACER, 95678
COSTCO PHARMACY 441 ,License Type: Pharmacy (Community),PALM DESERT, RIVERSIDE, 92211
COSTCO PHARMACY 471 ,License Type: Pharmacy (Community),SACRAMENTO, SACRAMENTO, 95815
COSTCO PHARMACY NO 491 ,License Type: Pharmacy (Community),TEMECULA, RIVERSIDE, 92591
COSTCO PHARMACY NO 765 ,License Type: Pharmacy (Community),FOLSOM, SACRAMENTO, 95630
COUNTRY VILLAGE PHARMACY ,License Type: Pharmacy (Community),MIRA LOMA, RIVERSIDE, 91752
COUNTY OF SACRAMENTO PRIMARY CARE ,License Type: Pharmacy (Government Owned Community),Probation Terminated/Completed, SACRAMENTO, 95820
CRESCENT HEALTHCARE ,License Type: Pharmacy (Community),RIVERSIDE, RIVERSIDE, 92507
CVS PHARMACY #1520 ,License Type: Pharmacy (Community),CATHEDRAL CITY, RIVERSIDE, 92234
CVS PHARMACY #182 ,License Type: Pharmacy (Community),ELK GROVE, SACRAMENTO, 95624
CVS PHARMACY #5091 ,License Type: Pharmacy (Community),ROSEVILLE, PLACER, 95747
CVS PHARMACY #5225 ,License Type: Pharmacy (Community),SACRAMENTO, SACRAMENTO, 95821
CVS PHARMACY #7554 ,License Type: Pharmacy (Community),MURRIETA, RIVERSIDE, 92562
CVS PHARMACY #7786 ,License Type: Pharmacy (Community),MURRIETA, RIVERSIDE, 92562
CVS PHARMACY #8439 ,License Type: Pharmacy (Community),MORENO VALLEY, RIVERSIDE, 92551
CVS PHARMACY #8521 ,License Type: Pharmacy (Community),HEMET, RIVERSIDE, 92543
CVS PHARMACY #8848 ,License Type: Pharmacy (Community),WINCHESTER, RIVERSIDE, 92596
CVS PHARMACY #8896 ,License Type: Pharmacy (Community),TEMECULA, RIVERSIDE, 92592
CVS PHARMACY #8943 ,License Type: Pharmacy (Community),SAN JACINTO, RIVERSIDE, 92582
CVS PHARMACY #9604 ,License Type: Pharmacy (Community),CORONA, RIVERSIDE, 92879
CVS PHARMACY #9606 ,License Type: Pharmacy (Community),TEMECULA, RIVERSIDE, 92591
CVS PHARMACY #9610 ,License Type: Pharmacy (Community),MORENO VALLEY, RIVERSIDE, 92557
CVS PHARMACY #9616 ,License Type: Pharmacy (Community),CATHEDRAL CITY, RIVERSIDE, 92234
CVS PHARMACY #9628 ,License Type: Pharmacy (Community),MURRIETA, RIVERSIDE, 92562
CVS PHARMACY #9646 ,License Type: Pharmacy (Community),PALM DESERT, RIVERSIDE, 92211
CVS PHARMACY #9648 ,License Type: Pharmacy (Community),INDIO, RIVERSIDE, 92201
CVS PHARMACY #9654 ,License Type: Pharmacy (Community),LAKE ELSINORE, RIVERSIDE, 92530
CVS PHARMACY #9718 ,License Type: Pharmacy (Community),NORCO, RIVERSIDE, 92860
CVS PHARMACY #9728 ,License Type: Pharmacy (Community),CORONA, RIVERSIDE, 92882
CVS PHARMACY #9779 ,License Type: Pharmacy (Community),INDIAN WELLS, RIVERSIDE, 92210
CVS PHARMACY #9799 ,License Type: Pharmacy (Community),RIVERSIDE, RIVERSIDE, 92506
CVS PHARMACY #9803 ,License Type: Pharmacy (Community),RIVERSIDE, RIVERSIDE, 92508
CVS PHARMACY #9804 ,License Type: Pharmacy (Community),PALM SPRINGS, RIVERSIDE, 92262
CVS PHARMACY #9817 ,License Type: Pharmacy (Community),TEMECULA, RIVERSIDE, 92591
CVS PHARMACY #9849 ,License Type: Pharmacy (Community),Probation Terminated/Completed, RIVERSIDE, 92504
CVS PHY #8897 ,License Type: Pharmacy (Community),RIVERSIDE, RIVERSIDE, 92501
CVS/PHARMACY # 16053 ,License Type: Pharmacy (Community),RIVERSIDE, RIVERSIDE, 92503
CVS/PHARMACY # 16080 ,License Type: Pharmacy (Community),ROSEVILLE, PLACER, 95661
CVS/PHARMACY # 16094 ,License Type: Pharmacy (Community),RIVERSIDE, RIVERSIDE, 92506
CVS/PHARMACY # 16104 ,License Type: Pharmacy (Community),CATHEDRAL CITY, RIVERSIDE, 92234
CVS/PHARMACY # 16106 ,License Type: Pharmacy (Community),SACRAMENTO, SACRAMENTO, 95825
CVS/PHARMACY # 16137 ,License Type: Pharmacy (Community),TEMECULA, RIVERSIDE, 92591
CVS/PHARMACY # 16221 ,License Type: Pharmacy (Community),NORCO, RIVERSIDE, 92860
CVS/PHARMACY # 16234 ,License Type: Pharmacy (Community),HEMET, RIVERSIDE, 92545
CVS/PHARMACY # 16359 ,License Type: Pharmacy (Community),PALM DESERT, RIVERSIDE, 92260
CVS/PHARMACY # 16360 ,License Type: Pharmacy (Community),HOLLISTER, SAN BENITO, 95023
CVS/PHARMACY # 16413 ,License Type: Pharmacy (Community),ELK GROVE, SACRAMENTO, 95758
CVS/PHARMACY # 16473 ,License Type: Pharmacy (Community),AUBURN, PLACER, 95603
CVS/PHARMACY # 16474 ,License Type: Pharmacy (Community),FOLSOM, SACRAMENTO, 95630
CVS/PHARMACY # 16489 ,License Type: Pharmacy (Community),CITRUS HEIGHTS, SACRAMENTO, 95610
CVS/PHARMACY # 16627 ,License Type: Pharmacy (Community),MURRIETA, RIVERSIDE, 92562
CVS/PHARMACY # 16833 ,License Type: Pharmacy (Community),ROSEVILLE, PLACER, 95678
CVS/PHARMACY # 16857 ,License Type: Pharmacy (Community),SACRAMENTO, SACRAMENTO, 95823
CVS/PHARMACY # 16876 ,License Type: Pharmacy (Community),CORONA, RIVERSIDE, 92881
CVS/PHARMACY # 16964 ,License Type: Pharmacy (Community),RIVERSIDE, RIVERSIDE, 92507
CVS/PHARMACY # 16987 ,License Type: Pharmacy (Community),LA QUINTA, RIVERSIDE, 92253
CVS/PHARMACY # 17077 ,License Type: Pharmacy (Community),EASTVALE, RIVERSIDE, 91752
CVS/PHARMACY # 17200 ,License Type: Pharmacy (Community),SACRAMENTO, SACRAMENTO, 95834
CVS/PHARMACY # 17274 ,License Type: Pharmacy (Community),LAKE ELSINORE, RIVERSIDE, 92530
CVS/PHARMACY # 17292 ,License Type: Pharmacy (Community),LINCOLN, PLACER, 95648
CVS/PHARMACY # 17377 ,License Type: Pharmacy (Community),MORENO VALLEY, RIVERSIDE, 92555
CVS/PHARMACY # 17516 ,License Type: Pharmacy (Community),RANCHO CORDOVA, SACRAMENTO, 95670
CVS/PHARMACY # 17522 ,License Type: Pharmacy (Community),MENIFEE, RIVERSIDE, 92584
CVS/PHARMACY # 17538 ,License Type: Pharmacy (Community),SACRAMENTO, SACRAMENTO, 95817
CVS/PHARMACY # 17545 ,License Type: Pharmacy (Community),MURRIETA, RIVERSIDE, 92562
CVS/PHARMACY # 17587 ,License Type: Pharmacy (Community),ROCKLIN, PLACER, 95677
CVS/PHARMACY # 5267 ,License Type: Pharmacy (Community),MENIFEE, RIVERSIDE, 92584
CVS/PHARMACY #09487 ,License Type: Pharmacy (Community),ORANGEVALE, SACRAMENTO, 95662
CVS/PHARMACY #09502 ,License Type: Pharmacy (Community),HEMET, RIVERSIDE, 92544
CVS/PHARMACY #09526 ,License Type: Pharmacy (Community),GRANITE BAY, PLACER, 95746
CVS/PHARMACY #09546 ,License Type: Pharmacy (Community),ROCKLIN, PLACER, 95765
CVS/PHARMACY #09550 ,License Type: Pharmacy (Community),TEMECULA, RIVERSIDE, 92591
CVS/PHARMACY #09809 ,License Type: Pharmacy (Community),CARMICHAEL, SACRAMENTO, 95608
CVS/PHARMACY #09814 ,License Type: Pharmacy (Community),FAIR OAKS, SACRAMENTO, 95628
CVS/PHARMACY #09823 ,License Type: Pharmacy (Community),SACRAMENTO, SACRAMENTO, 95822
CVS/PHARMACY #09826 ,License Type: Pharmacy (Community),SACRAMENTO, SACRAMENTO, 95842
CVS/PHARMACY #09847 ,License Type: Pharmacy (Community),LAKE ELSINORE, RIVERSIDE, 92532
CVS/PHARMACY #09910 ,License Type: Pharmacy (Community),RIVERSIDE, RIVERSIDE, 92503
CVS/PHARMACY #09914 ,License Type: Pharmacy (Community),AUBURN, PLACER, 95603
CVS/PHARMACY #09918 ,License Type: Pharmacy (Community),TEMECULA, RIVERSIDE, 92592
CVS/PHARMACY #09920 ,License Type: Pharmacy (Community),TEMECULA, RIVERSIDE, 92591
CVS/PHARMACY #09923 ,License Type: Pharmacy (Community),FOLSOM, SACRAMENTO, 95630
CVS/PHARMACY #09958 ,License Type: Pharmacy (Community),ROSEVILLE, PLACER, 95747
CVS/PHARMACY #09972 ,License Type: Pharmacy (Community),SACRAMENTO, SACRAMENTO, 95831
CVS/PHARMACY #09980 ,License Type: Pharmacy (Community),FOLSOM, SACRAMENTO, 95630
CVS/PHARMACY #09992 ,License Type: Pharmacy (Community),SACRAMENTO, SACRAMENTO, 95825
CVS/PHARMACY #09993 ,License Type: Pharmacy (Community),ROSEVILLE, PLACER, 95661
CVS/PHARMACY #10005 ,License Type: Pharmacy (Community),SACRAMENTO, SACRAMENTO, 95823
CVS/PHARMACY #1825 ,License Type: Pharmacy (Community),ELK GROVE, SACRAMENTO, 95758
CVS/PHARMACY #2050 ,License Type: Pharmacy (Community),INDIO, RIVERSIDE, 92203
CVS/PHARMACY #2124 ,License Type: Pharmacy (Community),ELK GROVE, SACRAMENTO, 95624
CVS/PHARMACY #2290 ,License Type: Pharmacy (Community),SACRAMENTO, SACRAMENTO, 95833
CVS/PHARMACY #2661 ,License Type: Pharmacy (Community),ROCKLIN, PLACER, 95677
CVS/PHARMACY #3022 ,License Type: Pharmacy (Community),GALT, SACRAMENTO, 95632
CVS/PHARMACY #3033 ,License Type: Pharmacy (Community),HEMET, RIVERSIDE, 92543
CVS/PHARMACY #3058 ,License Type: Pharmacy (Community),MORENO VALLEY, RIVERSIDE, 92555
CVS/PHARMACY #3066 ,License Type: Pharmacy (Community),SACRAMENTO, SACRAMENTO, 95829
CVS/PHARMACY #3341 ,License Type: Pharmacy (Community),LA QUINTA, RIVERSIDE, 92253
CVS/PHARMACY #3862 ,License Type: Pharmacy (Community),ROSEVILLE, PLACER, 95678
CVS/PHARMACY #3943 ,License Type: Pharmacy (Community),SACRAMENTO, SACRAMENTO, 95819
CVS/PHARMACY #3945 ,License Type: Pharmacy (Community),SACRAMENTO, SACRAMENTO, 95811
CVS/PHARMACY #3947 ,License Type: Pharmacy (Community),AUBURN, PLACER, 95602
CVS/PHARMACY #3950 ,License Type: Pharmacy (Community),FOLSOM, SACRAMENTO, 95630
CVS/PHARMACY #4151 ,License Type: Pharmacy (Community),SACRAMENTO, SACRAMENTO, 95835
CVS/PHARMACY #4704 ,License Type: Pharmacy (Community),RIVERSIDE, RIVERSIDE, 92507
CVS/PHARMACY #4774 ,License Type: Pharmacy (Community),RIVERSIDE, RIVERSIDE, 92506
CVS/PHARMACY #4950 ,License Type: Pharmacy (Community),RANCHO CORDOVA, SACRAMENTO, 95670
CVS/PHARMACY #5497 ,License Type: Pharmacy (Community),COACHELLA, RIVERSIDE, 92236
CVS/PHARMACY #5958 ,License Type: Pharmacy (Community),EASTVALE, RIVERSIDE, 92880
CVS/PHARMACY #8816 ,License Type: Pharmacy (Community),CORONA, RIVERSIDE, 92883
CVS/PHARMACY #9132 ,License Type: Pharmacy (Community),ELK GROVE, SACRAMENTO, 95624
CVS/PHARMACY #9134 ,License Type: Pharmacy (Community),INDIO, RIVERSIDE, 92201
CVS/PHARMACY #9150 ,License Type: Pharmacy (Community),AUBURN, PLACER, 95603
CVS/PHARMACY #9157 ,License Type: Pharmacy (Community),MURRIETA, RIVERSIDE, 92562
CVS/PHARMACY #9183 ,License Type: Pharmacy (Community),HEMET, RIVERSIDE, 92545
CVS/PHARMACY #9190 ,License Type: Pharmacy (Community),CORONA, RIVERSIDE, 92881
CVS/PHARMACY #9199 ,License Type: Pharmacy (Community),FAIR OAKS, SACRAMENTO, 95628
CVS/PHARMACY #9535 ,License Type: Pharmacy (Community),LINCOLN, PLACER, 95648
DATE PHARMACY ,License Type: Pharmacy (Community),MURRIETA, RIVERSIDE, 92563
DAY STREET PHARMACY ,License Type: Pharmacy (Community),MORENO VALLEY, RIVERSIDE, 92557
DELTA DRUGS ,License Type: Pharmacy (Community),LAKE ELSINORE, RIVERSIDE, 92530
DESERT HOSPITAL OUTPATIENT PHARMACY ,License Type: Pharmacy (Community),PALM SPRINGS, RIVERSIDE, 92262
DESERT REGIONAL MED CTR COMP CANCER CTR ,License Type: Pharmacy (Community),PALM SPRINGS, RIVERSIDE, 92262
DESERT REGIONAL MEDICAL CENTER - COMPREHENSIVE CANCER CENTER ,License Type: Pharmacy (Community),LA QUINTA, RIVERSIDE, 92253
DESERTRX PHARMACY ,License Type: Pharmacy (Community),PALM DESERT, RIVERSIDE, 92260
DIAMOND RESPIRATORY CARE ,License Type: Pharmacy (Community),RIVERSIDE, RIVERSIDE, 92507
DOKIMAKIS DRUG STORES INC. DBA KNOTT'S PHARMACY ,License Type: Pharmacy (Community),SACRAMENTO, SACRAMENTO, 95819
"DOMINGUEZ, A WALGREENS PHARMACY ",License Type: Pharmacy (Community),PERRIS, RIVERSIDE, 92571
EISENHOWER MEDICAL CENTER - LUCY CURCI CANCER CENTER ,License Type: Pharmacy (Community),RANCHO MIRAGE, RIVERSIDE, 92270
ELEVATION FAMILY PHARMACY INC DBA COMPLETE CARE PHARMACY ,License Type: Pharmacy (Community),FOLSOM, SACRAMENTO, 95630
ELK GROVE PHARMACY ,License Type: Pharmacy (Community),ELK GROVE, SACRAMENTO, 95758
EMPIRE PHARMACY INC ,License Type: Pharmacy (Community),RIVERSIDE, RIVERSIDE, 92507
EVERGREEN RX PHARMACY ,License Type: Pharmacy (Community),TEMECULA, RIVERSIDE, 92590
FAMILY DISCOUNT PHARMACY ,License Type: Pharmacy (Community),CARMICHAEL, SACRAMENTO, 95608
FIRESIDE PHARMACY ,License Type: Pharmacy (Community),PALM DESERT, RIVERSIDE, 92260
FOLSOM MEDICAL PHARMACY ,License Type: Pharmacy (Community),FOLSOM, SACRAMENTO, 95630
FOLSOM PHARMACY ,License Type: Pharmacy (Community),SACRAMENTO, SACRAMENTO, 95827
FOLSOM STATE PRISON ,License Type: Correctional Pharmacy,Probation Terminated/Completed, SACRAMENTO, 95671
FOLSOM WOMEN'S FACILITY ,License Type: Correctional Pharmacy,FOLSOM, SACRAMENTO, 95630
FOODMAXX PHARMACY #488 ,License Type: Pharmacy (Community),SACRAMENTO, SACRAMENTO, 95833
GALT PHARMACY ,License Type: Pharmacy (Community),GALT, SACRAMENTO, 95632
GARFIELD BEACH CVS LLC D/B/A CVS/PHARMACY #10434 ,License Type: Pharmacy (Community),MENIFEE, RIVERSIDE, 92584
GARFIELD BEACH CVS LLC D/B/A CVS/PHARMACY #10998 ,License Type: Pharmacy (Community),NORCO, RIVERSIDE, 92860
GARFIELD BEACH CVS LLC D/B/A CVS/PHARMACY #7136 ,License Type: Pharmacy (Community),SACRAMENTO, SACRAMENTO, 95820
GARFIELD BEACH CVS LLC D/B/A CVS/PHARMACY #9746 ,License Type: Pharmacy (Community),RIVERSIDE, RIVERSIDE, 92506
GE HEALTHCARE ,License Type: Pharmacy (Community),SACRAMENTO, SACRAMENTO, 95815
GELSONS PHARMACY ,License Type: Pharmacy (Community),RANCHO MIRAGE, RIVERSIDE, 92270
GEN RX PHARMACY ,License Type: Pharmacy (Community),LAKE ELSINORE, RIVERSIDE, 92530
GOLDEN HEALTH PHARMACY ,License Type: Pharmacy (Community),RIVERSIDE, RIVERSIDE, 92507
GREAT RX PHARMACY ,License Type: Pharmacy (Community),MENIFEE, RIVERSIDE, 92586
GREATER PLACER PHARMACY ,License Type: Pharmacy (Community),AUBURN, PLACER, 95603
HEART PHARMACY ,License Type: Pharmacy (Community),SACRAMENTO, SACRAMENTO, 95825
HERITAGE PHARMACY ,License Type: Pharmacy (Community),PALM SPRINGS, RIVERSIDE, 92262
HIGHLAND FAIRE PHARMACY ,License Type: Pharmacy (Community),NORTH HIGHLANDS, SACRAMENTO, 95660
HOPE PHARMACY ,License Type: Pharmacy (Community),TEMECULA, RIVERSIDE, 92592
HOSPICARE PHARMACY INLAND EMPIRE ,License Type: Pharmacy (Community),PERRIS, RIVERSIDE, 92571
HOT SPRINGS PHARMACY ,License Type: Pharmacy (Community),DESERT HOT SPRINGS, RIVERSIDE, 92240
ICARE PHARMACY 2 ,License Type: Pharmacy (Community),HOLLISTER, SAN BENITO, 95023
ICAREMORE PHARMACY INC ,License Type: Pharmacy (Community),RIVERSIDE, RIVERSIDE, 92503
IDYLLWILD PHARMACY ,License Type: Pharmacy (Community),IDYLLWILD, RIVERSIDE, 92549
INDIO MEDICAL PHARMACY ,License Type: Pharmacy (Community),Probation, RIVERSIDE, 92201
INLAND BEHAVIORAL & HEALTH SERVICES INC ,License Type: Pharmacy (Community),BANNING, RIVERSIDE, 92220
INLAND PHARMACY ,License Type: Pharmacy (Community),HEMET, RIVERSIDE, 92543
INLAND VALLEY PHARMACY ,License Type: Pharmacy (Community),HEMET, RIVERSIDE, 92545
INNOVATIVE COMPOUNDING PHARMACY ,License Type: Pharmacy (Community),Probation, SACRAMENTO, 95630
INNOVATIVE COMPOUNDING PHARMACY ,License Type: Pharmacy (Community),MURRIETA, RIVERSIDE, 92562
IRONWOOD STATE PRISON PHARMACY ,License Type: Correctional Pharmacy,BLYTHE, RIVERSIDE, 92225
JC NEIGHBORHOOD PHARMACY ,License Type: Pharmacy (Community),CORONA, RIVERSIDE, 92879
JURUPA VALLEY PHARMACY ,License Type: Pharmacy (Community),Accusation filed, RIVERSIDE, 92509
KAISER FOUNDATION HOSPITAL PHARMACY 501 ,License Type: Pharmacy (Community),RIVERSIDE, RIVERSIDE, 92505
KAISER HEALTH PLAN 1 NEW PHY 601 ,License Type: Pharmacy (Community),SACRAMENTO, SACRAMENTO, 95823
KAISER HEALTH PLAN 2 PHARMACY 592 ,License Type: Pharmacy (Community),ROSEVILLE, PLACER, 95678
KAISER HEALTH PLAN A & B PHY 711 ,License Type: Pharmacy (Community),RANCHO CORDOVA, SACRAMENTO, 95670
KAISER HEALTH PLAN MAIN PHY 591 ,License Type: Pharmacy (Community),ROSEVILLE, PLACER, 95678
KAISER HEALTH PLAN MAIN PHY 615 ,License Type: Pharmacy (Community),SACRAMENTO, SACRAMENTO, 95825
KAISER HOME INFUSION PHY 619 ,License Type: Pharmacy (Community),SACRAMENTO, SACRAMENTO, 95825
KAISER HSP MORSE 1ST FLOOR PHY 616 ,License Type: Pharmacy (Community),SACRAMENTO, SACRAMENTO, 95825
KAISER ONCOLOGY PHARMACY #520 ,License Type: Pharmacy (Community),RIVERSIDE, RIVERSIDE, 92505
KAISER ONCOLOGY PHARMACY #597 ,License Type: Pharmacy (Community),ROSEVILLE, PLACER, 95661
KAISER ONCOLOGY PHARMACY #868 ,License Type: Pharmacy (Community),PALM DESERT, RIVERSIDE, 92211
KAISER PERMANENTE PHARMACY #261 ,License Type: Pharmacy (Community),LINCOLN, PLACER, 95648
KAISER PERMANENTE PHARMACY #281 ,License Type: Pharmacy (Community),FOLSOM, SACRAMENTO, 95630
KAISER PERMANENTE PHARMACY #301 ,License Type: Pharmacy (Community),ELK GROVE, SACRAMENTO, 95758
KAISER PERMANENTE PHARMACY #303 ,License Type: Pharmacy (Community),ELK GROVE, SACRAMENTO, 95757
KAISER PERMANENTE PHARMACY #508 ,License Type: Pharmacy (Community),MORENO VALLEY, RIVERSIDE, 92553
KAISER PERMANENTE PHARMACY #524 ,License Type: Pharmacy (Community),MURRIETA, RIVERSIDE, 92563
KAISER PERMANENTE PHARMACY #531 ,License Type: Pharmacy (Community),MORENO VALLEY, RIVERSIDE, 92555
KAISER PERMANENTE PHARMACY #531C ,License Type: Pharmacy (Community),MORENO VALLEY, RIVERSIDE, 92555
KAISER PERMANENTE PHARMACY #532 ,License Type: Pharmacy (Community),INDIO, RIVERSIDE, 92201
KAISER PERMANENTE PHARMACY #533 ,License Type: Pharmacy (Community),RIVERSIDE, RIVERSIDE, 92518
KAISER PERMANENTE PHARMACY #596 ,License Type: Pharmacy (Community),ROSEVILLE, PLACER, 95661
KAISER PERMANENTE PHARMACY #607 ,License Type: Pharmacy (Community),SACRAMENTO, SACRAMENTO, 95823
KAISER PERMANENTE PHARMACY #608 ,License Type: Pharmacy (Community),SACRAMENTO, SACRAMENTO, 95823
KAISER PERMANENTE PHARMACY #609 ,License Type: Pharmacy (Community),SACRAMENTO, SACRAMENTO, 95823
KAISER PERMANENTE PHARMACY #610 ,License Type: Pharmacy (Community),SACRAMENTO, SACRAMENTO, 95825
KAISER PERMANENTE PHARMACY #868 ,License Type: Pharmacy (Community),PALM DESERT, RIVERSIDE, 92211
KAISER PERMANENTE PHARMACY #869 ,License Type: Pharmacy (Community),PALM SPRINGS, RIVERSIDE, 92262
KAISER PERMANENTE PHARMACY #971 ,License Type: Pharmacy (Community),SACRAMENTO, SACRAMENTO, 95814
KAISER PERMANENTE PHARMACY #979 ,License Type: Pharmacy (Community),SACRAMENTO, SACRAMENTO, 95814
KAISER PERMANENTE PHARMACY 502 ,License Type: Pharmacy (Community),RIVERSIDE, RIVERSIDE, 92505
KAISER PERMANENTE PHARMACY 506 ,License Type: Pharmacy (Community),RIVERSIDE, RIVERSIDE, 92505
KAISER PERMANENTE PHARMACY 513 ,License Type: Pharmacy (Community),MORENO VALLEY, RIVERSIDE, 92553
KAISER PERMANENTE PHARMACY NO 514 ,License Type: Pharmacy (Community),WILDOMAR, RIVERSIDE, 92595
KAISER PERMANENTE PHARMACY NO 515 ,License Type: Pharmacy (Community),RIVERSIDE, RIVERSIDE, 92505
KAISER PERMANENTE PHARMACY NO 516 ,License Type: Pharmacy (Community),CORONA, RIVERSIDE, 92879
KAISER PERMANENTE PHARMACY NO 613 ,License Type: Pharmacy (Community),SACRAMENTO, SACRAMENTO, 95825
KAISER PERMANENTE PHRMCY #266 ,License Type: Pharmacy (Community),ROSEVILLE, PLACER, 95661
KAISER PERMANENTE PHRMCY #525 ,License Type: Pharmacy (Community),TEMECULA, RIVERSIDE, 92590
KAISER POINT WEST MAIN PHY 626 ,License Type: Pharmacy (Community),SACRAMENTO, SACRAMENTO, 95815
KAISER SIERRA GARDENS PHY 593 ,License Type: Pharmacy (Community),ROSEVILLE, PLACER, 95661
KIM PHARMACY ,License Type: Pharmacy (Community),SACRAMENTO, SACRAMENTO, 95823
KIM PHARMACY #3 ,License Type: Pharmacy (Community),SACRAMENTO, SACRAMENTO, 95820
LA BOTICA PHARMACY ,License Type: Pharmacy (Community),COACHELLA, RIVERSIDE, 92236
LA BUENA VIDA PHARMACY ,License Type: Pharmacy (Community),COACHELLA, RIVERSIDE, 92236
LA QUINTA PHARMACY ,License Type: Pharmacy (Community),PALM DESERT, RIVERSIDE, 92211
LAGUNA PHARMACY INC ,License Type: Pharmacy (Community),ELK GROVE, SACRAMENTO, 95758
LAKE VIEW PHARMACY ,License Type: Pharmacy (Community),LAKE ELSINORE, RIVERSIDE, 92530
LAS PALMAS PHARMACY ,License Type: Pharmacy (Community),PALM SPRINGS, RIVERSIDE, 92262
LASSEN DRUG ,License Type: Pharmacy (Community),CHESTER, PLUMAS, 96020
LIFETIME VALUE PHARMACY INC ,License Type: Pharmacy (Community),MORENO VALLEY, RIVERSIDE, 92553
LINCOLN PHARMACY ,License Type: Pharmacy (Community),LINCOLN, PLACER, 95648
LOMA LINDA UNIVERSITY - HIGHLAND SPRINGS PHARMACY ,License Type: Pharmacy (Community),BEAUMONT, RIVERSIDE, 92223
LOMA LINDA UNIVERSITY MEDICAL CENTER-MURRIETA POB PHARMACY ,License Type: Pharmacy (Community),MURRIETA, RIVERSIDE, 92563
LONGS DRUG STORES CALIFORNIA LLC D/B/A CVS/PHARMACY #9153 ,License Type: Pharmacy (Community),RANCHO MIRAGE, RIVERSIDE, 92270
LONGS DRUG STORES CALIFORNIA LLC D/B/A CVS/PHARMACY #9322 ,License Type: Pharmacy (Community),SACRAMENTO, SACRAMENTO, 95825
LONGS DRUGS STORES CALIFORNIA LLC D/B/A CVS/PHARMACY #9976 ,License Type: Pharmacy (Community),TAHOE CITY, PLACER, 96145
LOTUS PHARMACY ,License Type: Pharmacy (Community),MENIFEE, RIVERSIDE, 92586
LUCKY PHARMACY #719 ,License Type: Pharmacy (Community),HOLLISTER, SAN BENITO, 95023
MAIN STREET PHARMACY INC ,License Type: Pharmacy (Community),CORONA, RIVERSIDE, 92882
MASON PHARMACY ,License Type: Pharmacy (Community),SACRAMENTO, SACRAMENTO, 95824
MECCA PHARMACY ,License Type: Pharmacy (Community),MECCA, RIVERSIDE, 92254
MED-AID PHARMACY ,License Type: Pharmacy (Community),SACRAMENTO, SACRAMENTO, 95820
MEDCARE PHARMACY ,License Type: Pharmacy (Community),SACRAMENTO, SACRAMENTO, 95823
MEDICAL PLAZA PHARMACY ,License Type: Pharmacy (Community),MORENO VALLEY, RIVERSIDE, 92553
MEDPERX PHARMACY ,License Type: Pharmacy (Community),PERRIS, RIVERSIDE, 92570
MEDPRO PHARMACY ,License Type: Pharmacy (Community),HEMET, RIVERSIDE, 92545
MEDVILLE PHARMACY ,License Type: Pharmacy (Community),PALM DESERT, RIVERSIDE, 92260
MERCY PHARMACY ,License Type: Pharmacy (Community),SACRAMENTO, SACRAMENTO, 95819
MIDTOWN PHARMACY ,License Type: Pharmacy (Community),SACRAMENTO, SACRAMENTO, 95816
MORENO VALLEY PHARMACY ,License Type: Pharmacy (Community),MORENO VALLEY, RIVERSIDE, 92553
MORONGO INDIAN CLINIC PHARMACY ,License Type: Pharmacy (Community),BANNING, RIVERSIDE, 92220
MY TOWN PHARMACY ,License Type: Pharmacy (Community),PERRIS, RIVERSIDE, 92570
NEW HOPE PHARMACY ,License Type: Pharmacy (Community),MENIFEE, RIVERSIDE, 92586
NOB HILL PHARMACY #605 ,License Type: Pharmacy (Community),HOLLISTER, SAN BENITO, 95023
NUEVO PHARMACY ,License Type: Pharmacy (Community),Accusation filed, RIVERSIDE, 92571
NUFACTOR INC ,License Type: Pharmacy (Community),TEMECULA, RIVERSIDE, 92590
NUTRISHARE INC ,License Type: Pharmacy (Community),ELK GROVE, SACRAMENTO, 95624
OMNICARE OF SACRAMENTO ,License Type: Pharmacy (Community),SACRAMENTO, SACRAMENTO, 95820
ONE COMMUNITY HEALTH PHARMACY ,License Type: Pharmacy (Community),SACRAMENTO, SACRAMENTO, 95811
OPTIMAL PHARMACEUTICAL MANAGEMENT ,License Type: Pharmacy (Community),CARMICHAEL, SACRAMENTO, 95608
OPTION CARE ,License Type: Pharmacy (Community),SACRAMENTO, SACRAMENTO, 95816
ORANGE EXPRESS PHARMACY ,License Type: Pharmacy (Community),MORENO VALLEY, RIVERSIDE, 92553
"PACIFIC WEST PHARMACY, INC. ",License Type: Pharmacy (Community),Probation, PLACER, 95677
PALM DESERT DRUGS ,License Type: Pharmacy (Community),PALM DESERT, RIVERSIDE, 92260
PALMIERI PHARMACY ,License Type: Pharmacy (Community),CORONA, RIVERSIDE, 92879
PARK VIEW MEDICAL PLAZA PHARMACY ,License Type: Pharmacy (Community),RIVERSIDE, RIVERSIDE, 92503
PARKE VISTA PHARMACY ,License Type: Pharmacy (Community),RIVERSIDE, RIVERSIDE, 92503
PARKSIDE PHARMACY ,License Type: Pharmacy (Community),SACRAMENTO, SACRAMENTO, 95822
PARKVIEW MEDICAL PLAZA PHARMACY LTC ,License Type: Pharmacy (Community),RIVERSIDE, RIVERSIDE, 92503
PAVILION PHARMACY AT UC DAVIS MEDICAL CENTER ,License Type: Pharmacy (Government Owned Community),SACRAMENTO, SACRAMENTO, 95817
PAYLESS PHARMACY ,License Type: Pharmacy (Community),SACRAMENTO, SACRAMENTO, 95833
PECHANGA INDIAN HEALTH CLINIC PHARMACY ,License Type: Pharmacy (Community),TEMECULA, RIVERSIDE, 92390
PERRIS HILLS PHARMACY ,License Type: Pharmacy (Community),PERRIS, RIVERSIDE, 92570
PETNET PHARMACEUTICAL ,License Type: Pharmacy (Community),SACRAMENTO, SACRAMENTO, 95820
PHARMACY EXPRESS ,License Type: Pharmacy (Community),RIVERSIDE, RIVERSIDE, 92509
PHARMACY OF THE DESERT ,License Type: Pharmacy (Community),LA QUINTA, RIVERSIDE, 92253
PHARMCO DRUGS ,License Type: Pharmacy (Community),NORCO, RIVERSIDE, 92860
PHARMERICA ,License Type: Pharmacy (Community),RIVERSIDE, RIVERSIDE, 92507
PHARMERICA ,License Type: Pharmacy (Community),SACRAMENTO, SACRAMENTO, 95834
PORTOLA VILLAGE PHARMACY ,License Type: Pharmacy (Community),PORTOLA, PLUMAS, 96122
PROCARE PHARMACY ,License Type: Pharmacy (Community),Accusation filed, RIVERSIDE, 92562
PROFESSIONAL VILLAGE PHARMACY INC ,License Type: Pharmacy (Community),SACRAMENTO, SACRAMENTO, 95825
PUCCI'S PHARMACY ,License Type: Pharmacy (Community),SACRAMENTO, SACRAMENTO, 95816
QUINCY PHARMACY ,License Type: Pharmacy (Community),QUINCY, PLUMAS, 95971
RAINCROSS PHARMACY ,License Type: Pharmacy (Community),RIVERSIDE, RIVERSIDE, 92506
RALEY'S PHARMACY #438 ,License Type: Pharmacy (Community),SACRAMENTO, SACRAMENTO, 95823
RALEYS PHARMACY #227 ,License Type: Pharmacy (Community),ROSEVILLE, PLACER, 95661
RALEYS PHARMACY #228 ,License Type: Pharmacy (Community),ROSEVILLE, PLACER, 95747
RALEYS PHARMACY #229 ,License Type: Pharmacy (Community),AUBURN, PLACER, 95603
RALEYS PHARMACY #230 ,License Type: Pharmacy (Community),LINCOLN, PLACER, 95648
RALEYS PHARMACY #231 ,License Type: Pharmacy (Community),LOOMIS, PLACER, 95650
RALEYS PHARMACY #239 ,License Type: Pharmacy (Community),CITRUS HEIGHTS, SACRAMENTO, 95621
RALEYS PHARMACY #302 ,License Type: Pharmacy (Community),GALT, SACRAMENTO, 95632
RALEYS PHARMACY #405 ,License Type: Pharmacy (Community),SACRAMENTO, SACRAMENTO, 95822
RALEYS PHARMACY #409 ,License Type: Pharmacy (Community),FOLSOM, SACRAMENTO, 95630
RALEYS PHARMACY #410 ,License Type: Pharmacy (Community),FOLSOM, SACRAMENTO, 95630
RALEYS PHARMACY #412 ,License Type: Pharmacy (Community),GRANITE BAY, PLACER, 95746
RALEYS PHARMACY #416 ,License Type: Pharmacy (Community),SACRAMENTO, SACRAMENTO, 95821
RALEYS PHARMACY #417 ,License Type: Pharmacy (Community),FAIR OAKS, SACRAMENTO, 95628
RALEYS PHARMACY #420 ,License Type: Pharmacy (Community),SACRAMENTO, SACRAMENTO, 95826
RALEYS PHARMACY #421 ,License Type: Pharmacy (Community),FAIR OAKS, SACRAMENTO, 95628
RALEYS PHARMACY #431 ,License Type: Pharmacy (Community),CARMICHAEL, SACRAMENTO, 95608
RALEYS PHARMACY #443 ,License Type: Pharmacy (Community),ELK GROVE, SACRAMENTO, 95758
RALEYS PHARMACY #447 ,License Type: Pharmacy (Community),SACRAMENTO, SACRAMENTO, 95835
RALPHS PHARMACY 70300045 ,License Type: Pharmacy (Community),CORONA, RIVERSIDE, 92880
RALPHS PHARMACY 70300098 ,License Type: Pharmacy (Community),RIVERSIDE, RIVERSIDE, 92503
RALPHS PHARMACY 70300118 ,License Type: Pharmacy (Community),MURRIETA, RIVERSIDE, 92562
RALPHS PHARMACY 70300136 ,License Type: Pharmacy (Community),CORONA, RIVERSIDE, 92882
RALPHS PHARMACY 70300160 ,License Type: Pharmacy (Community),INDIO, RIVERSIDE, 92201
RALPHS PHARMACY 70300611 ,License Type: Pharmacy (Community),PALM SPRINGS, RIVERSIDE, 92262
RALPHS PHARMACY 70300681 ,License Type: Pharmacy (Community),BERMUDA DUNES, RIVERSIDE, 92201
RALPHS PHARMACY 70300686 ,License Type: Pharmacy (Community),TEMECULA, RIVERSIDE, 92592
RANCHO PUEBLO PHARMACY ,License Type: Pharmacy (Community),TEMECULA, RIVERSIDE, 92592
RANCHO SPRINGS OUTPATIENT PHARMACY ,License Type: Pharmacy (Community),Accusation filed, RIVERSIDE, 92562
REMEDY RX ,License Type: Pharmacy (Community),ROSEVILLE, PLACER, 95661
RIO COSUMNES CORRECTIONAL CENTER ,License Type: Correctional Pharmacy,ELK GROVE, SACRAMENTO, 95757
RITE AID #4062 ,License Type: Pharmacy (Community),ROSEVILLE, PLACER, 95661
RITE AID #5671 ,License Type: Pharmacy (Community),BANNING, RIVERSIDE, 92220
RITE AID #5673 ,License Type: Pharmacy (Community),BLYTHE, RIVERSIDE, 92225
RITE AID #6246 ,License Type: Pharmacy (Community),BERMUDA DUNES, RIVERSIDE, 92203
RITE AID #6438 ,License Type: Pharmacy (Community),TEMECULA, RIVERSIDE, 92591
RITE AID #6458 ,License Type: Pharmacy (Community),ROSEVILLE, PLACER, 95678
RITE AID #6461 ,License Type: Pharmacy (Community),PALM DESERT, RIVERSIDE, 92211
RITE AID #6481 ,License Type: Pharmacy (Community),WILDOMAR, RIVERSIDE, 92595
RITE AID #6486 ,License Type: Pharmacy (Community),SAN JACINTO, RIVERSIDE, 92583
RITE AID #6494 ,License Type: Pharmacy (Community),ELK GROVE, SACRAMENTO, 95624
RITE AID #6505 ,License Type: Pharmacy (Community),SACRAMENTO, SACRAMENTO, 95816
RITE AID #6509 ,License Type: Pharmacy (Community),LAKE ELSINORE, RIVERSIDE, 92530
RITE AID #6520 ,License Type: Pharmacy (Community),SACRAMENTO, SACRAMENTO, 95819
RITE AID #6529 ,License Type: Pharmacy (Community),BEAUMONT, RIVERSIDE, 92223
RITE AID #6532 ,License Type: Pharmacy (Community),INDIO, RIVERSIDE, 92201
RITE AID #6547 ,License Type: Pharmacy (Community),GALT, SACRAMENTO, 95632
RITE AID #6560 ,License Type: Pharmacy (Community),ROSEVILLE, PLACER, 95678
RITE AID 5469 ,License Type: Pharmacy (Community),TEMECULA, RIVERSIDE, 92592
RITE AID 5670 ,License Type: Pharmacy (Community),INDIO, RIVERSIDE, 92201
RITE AID 5672 ,License Type: Pharmacy (Community),BANNING, RIVERSIDE, 92220
RITE AID 5676 ,License Type: Pharmacy (Community),CATHEDRAL CITY, RIVERSIDE, 92234
RITE AID 5678 ,License Type: Pharmacy (Community),COACHELLA, RIVERSIDE, 92236
RITE AID 5681 ,License Type: Pharmacy (Community),PALM DESERT, RIVERSIDE, 92260
RITE AID 5682 ,License Type: Pharmacy (Community),PALM DESERT, RIVERSIDE, 92260
RITE AID 5683 ,License Type: Pharmacy (Community),PALM SPRINGS, RIVERSIDE, 92262
RITE AID 5684 ,License Type: Pharmacy (Community),PALM SPRINGS, RIVERSIDE, 92262
RITE AID 5704 ,License Type: Pharmacy (Community),MENIFEE, RIVERSIDE, 92586
RITE AID 5712 ,License Type: Pharmacy (Community),RIVERSIDE, RIVERSIDE, 92503
RITE AID 5715 ,License Type: Pharmacy (Community),RIVERSIDE, RIVERSIDE, 92506
RITE AID 5716 ,License Type: Pharmacy (Community),RIVERSIDE, RIVERSIDE, 92507
RITE AID 5717 ,License Type: Pharmacy (Community),RIVERSIDE, RIVERSIDE, 92507
RITE AID 5722 ,License Type: Pharmacy (Community),HEMET, RIVERSIDE, 92544
RITE AID 5724 ,License Type: Pharmacy (Community),HEMET, RIVERSIDE, 92545
RITE AID 5728 ,License Type: Pharmacy (Community),MURRIETA, RIVERSIDE, 92563
RITE AID 5730 ,License Type: Pharmacy (Community),MENIFEE, RIVERSIDE, 92584
RITE AID 5971 ,License Type: Pharmacy (Community),HOLLISTER, SAN BENITO, 95023
RITE AID 6042 ,License Type: Pharmacy (Community),AUBURN, PLACER, 95603
RITE AID 6043 ,License Type: Pharmacy (Community),AUBURN, PLACER, 95603
RITE AID 6045 ,License Type: Pharmacy (Community),CITRUS HEIGHTS, SACRAMENTO, 95610
RITE AID 6054 ,License Type: Pharmacy (Community),NORTH HIGHLANDS, SACRAMENTO, 95660
RITE AID 6059 ,License Type: Pharmacy (Community),RANCHO CORDOVA, SACRAMENTO, 95670
RITE AID 6062 ,License Type: Pharmacy (Community),ROSEVILLE, PLACER, 95747
RITE AID 6073 ,License Type: Pharmacy (Community),SACRAMENTO, SACRAMENTO, 95819
RITE AID 6076 ,License Type: Pharmacy (Community),SACRAMENTO, SACRAMENTO, 95822
RITE AID 6079 ,License Type: Pharmacy (Community),SACRAMENTO, SACRAMENTO, 95825
RITE AID 6080 ,License Type: Pharmacy (Community),SACRAMENTO, SACRAMENTO, 95825
RITE AID 6081 ,License Type: Pharmacy (Community),SACRAMENTO, SACRAMENTO, 95826
RITE AID 6082 ,License Type: Pharmacy (Community),SACRAMENTO, SACRAMENTO, 95828
RITE AID 6083 ,License Type: Pharmacy (Community),SACRAMENTO, SACRAMENTO, 95828
RITE AID 6084 ,License Type: Pharmacy (Community),SACRAMENTO, SACRAMENTO, 95831
RITE AID 6093 ,License Type: Pharmacy (Community),QUINCY, PLUMAS, 95971
RITE AID 6106 ,License Type: Pharmacy (Community),KINGS BEACH, PLACER, 96143
RITE AID NO 5679 ,License Type: Pharmacy (Community),DESERT HOT SPRINGS, RIVERSIDE, 92240
RITE AID NO 5718 ,License Type: Pharmacy (Community),RIVERSIDE, RIVERSIDE, 92509
RITE AID NO 5725 ,License Type: Pharmacy (Community),MORENO VALLEY, RIVERSIDE, 92557
RITE AID NO 5727 ,License Type: Pharmacy (Community),MURRIETA, RIVERSIDE, 92562
RITE AID NO 5729 ,License Type: Pharmacy (Community),PERRIS, RIVERSIDE, 92571
RITE AID NO 6044 ,License Type: Pharmacy (Community),CARMICHAEL, SACRAMENTO, 95608
RITE AID NO 6049 ,License Type: Pharmacy (Community),CITRUS HEIGHTS, SACRAMENTO, 95621
RITE AID NO 6069 ,License Type: Pharmacy (Community),SACRAMENTO, SACRAMENTO, 95814
RITE AID NO 6071 ,License Type: Pharmacy (Community),SACRAMENTO, SACRAMENTO, 95816
RITE AID NO 6072 ,License Type: Pharmacy (Community),SACRAMENTO, SACRAMENTO, 95816
RITE AID NO 6074 ,License Type: Pharmacy (Community),SACRAMENTO, SACRAMENTO, 95824
RITE AID NO 6086 ,License Type: Pharmacy (Community),ANTELOPE, SACRAMENTO, 95843
RITE AID NO 6228 ,License Type: Pharmacy (Community),SACRAMENTO, SACRAMENTO, 95838
RITE AID NO 6231 ,License Type: Pharmacy (Community),MORENO VALLEY, RIVERSIDE, 92553
RITE AID NO 6264 ,License Type: Pharmacy (Community),SACRAMENTO, SACRAMENTO, 95829
RITE AID NO 6266 ,License Type: Pharmacy (Community),FOLSOM, SACRAMENTO, 95630
RITE AID NO 6293 ,License Type: Pharmacy (Community),SAN JACINTO, RIVERSIDE, 92583
RITE AID NO 6403 ,License Type: Pharmacy (Community),SACRAMENTO, SACRAMENTO, 95821
RITE AID NO 6432 ,License Type: Pharmacy (Community),ELK GROVE, SACRAMENTO, 95758
RITE AID NO 6448 ,License Type: Pharmacy (Community),SACRAMENTO, SACRAMENTO, 95835
RITE AID NO 6457 ,License Type: Pharmacy (Community),SACRAMENTO, SACRAMENTO, 95816
RITE AID NO 6469 ,License Type: Pharmacy (Community),NORCO, RIVERSIDE, 92860
RIVER'S EDGE PHARMACY ,License Type: Pharmacy (Community),PALM DESERT, RIVERSIDE, 92211
RIVERSIDE COUNTY RUBIDOUX PHARMACY ,License Type: Pharmacy (Government Owned Community),JURUPA VALLEY, RIVERSIDE, 92509
RIVERSIDE PHARMACY & COMPOUNDING ,License Type: Pharmacy (Community),RIVERSIDE, RIVERSIDE, 92503
RIVERWALK PHARMACY ,License Type: Pharmacy (Community),Accusation filed, RIVERSIDE, 92505
ROSE PHARMACY ,License Type: Pharmacy (Community),RANCHO MIRAGE, RIVERSIDE, 92270
RUHS- BEHAVIORAL HEALTH RETAIL PHARMACY ,License Type: Pharmacy (Government Owned Community),RIVERSIDE, RIVERSIDE, 92503
RUHS- MC - RETAIL PHARMACY ,License Type: Pharmacy (Government Owned Community),MORENO VALLEY, RIVERSIDE, 92555
RUHS- NEIGHBORHOOD PHARMACY ,License Type: Pharmacy (Government Owned Community),RIVERSIDE, RIVERSIDE, 92504
RUHS-CORONA PHARMACY ,License Type: Pharmacy (Government Owned Community),CORONA, RIVERSIDE, 92882
RX EXPRESS PHARMACY ,License Type: Pharmacy (Community),RIVERSIDE, RIVERSIDE, 92504
SACRAMENTO COUNTY MAIN JAIL ,License Type: Correctional Pharmacy,SACRAMENTO, SACRAMENTO, 95814
SACRAMENTO COUNTY YOUTH DETENTION FACILITY ,License Type: Correctional Pharmacy,SACRAMENTO, SACRAMENTO, 95827
SACRAMENTO MNTL HLTH TREATMENT CTR PHY ,License Type: Pharmacy (Government Owned Community),SACRAMENTO, SACRAMENTO, 95817
"SACRAMENTO STATE, STUDENT HEALTH SERVICES PHARMACY ",License Type: Pharmacy (Government Owned Community),SACRAMENTO, SACRAMENTO, 95819
SAFEWAY PHARMACY #1530 ,License Type: Pharmacy (Community),SACRAMENTO, SACRAMENTO, 95825
SAFEWAY PHARMACY #1531 ,License Type: Pharmacy (Community),CITRUS HEIGHTS, SACRAMENTO, 95621
SAFEWAY PHARMACY #1592 ,License Type: Pharmacy (Community),KINGS BEACH, PLACER, 96143
SAFEWAY PHARMACY #1617 ,License Type: Pharmacy (Community),ROSEVILLE, PLACER, 95661
SAFEWAY PHARMACY #1647 ,License Type: Pharmacy (Community),ELK GROVE, SACRAMENTO, 95758
SAFEWAY PHARMACY #1746 ,License Type: Pharmacy (Community),RANCHO CORDOVA, SACRAMENTO, 95670
SAFEWAY PHARMACY #1757 ,License Type: Pharmacy (Community),HOLLISTER, SAN BENITO, 95023
SAFEWAY PHARMACY #1761 ,License Type: Pharmacy (Community),LINCOLN, PLACER, 95648
SAFEWAY PHARMACY #1794 ,License Type: Pharmacy (Community),FOLSOM, SACRAMENTO, 95630
SAFEWAY PHARMACY #1846 ,License Type: Pharmacy (Community),FAIR OAKS, SACRAMENTO, 95628
SAFEWAY PHARMACY #1866 ,License Type: Pharmacy (Community),ROCKLIN, PLACER, 95765
SAFEWAY PHARMACY #1890 ,License Type: Pharmacy (Community),ROSEVILLE, PLACER, 95678
SAFEWAY PHARMACY #1895 ,License Type: Pharmacy (Community),FAIR OAKS, SACRAMENTO, 95628
SAFEWAY PHARMACY #1899 ,License Type: Pharmacy (Community),ROSEVILLE, PLACER, 95661
SAFEWAY PHARMACY #2242 ,License Type: Pharmacy (Community),SACRAMENTO, SACRAMENTO, 95816
SAFEWAY PHARMACY #2620 ,License Type: Pharmacy (Community),ROSEVILLE, PLACER, 95747
SAFEWAY PHARMACY #2684 ,License Type: Pharmacy (Community),SACRAMENTO, SACRAMENTO, 95811
SAFEWAY PHARMACY #2697 ,License Type: Pharmacy (Community),SACRAMENTO, SACRAMENTO, 95835
SAFEWAY PHARMACY #3122 ,License Type: Pharmacy (Community),AUBURN, PLACER, 95630
SAIL DRUG ,License Type: Pharmacy (Community),HEMET, RIVERSIDE, 92543
SALINAS PHARMACY ,License Type: Pharmacy (Community),BLYTHE, RIVERSIDE, 92225
SAM'S CLUB PHARMACY 6620 ,License Type: Pharmacy (Community),FOLSOM, SACRAMENTO, 95630
SAM'S CLUB PHARMACY NO 10-6378 ,License Type: Pharmacy (Community),RIVERSIDE, RIVERSIDE, 92507
SAM'S PHARMACY #10-4822 ,License Type: Pharmacy (Community),MURRIETA, RIVERSIDE, 92563
SAM'S PHARMACY #10-6609 ,License Type: Pharmacy (Community),PALM DESERT, RIVERSIDE, 92211
SAM'S PHARMACY #10-6621 ,License Type: Pharmacy (Community),ROSEVILLE, PLACER, 95678
SAM'S PHARMACY 10-6622 ,License Type: Pharmacy (Community),SACRAMENTO, SACRAMENTO, 95828
SAM'S PHARMACY NO 10-4709 ,License Type: Pharmacy (Community),CORONA, RIVERSIDE, 92881
SAM'S PHARMACY NO 10-4799 ,License Type: Pharmacy (Community),CITRUS HEIGHTS, SACRAMENTO, 95621
SAN JACINTO PHARMACY ,License Type: Pharmacy (Community),SAN JACINTO, RIVERSIDE, 92583
SAV-ON PHARMACY #1569 ,License Type: Pharmacy (Community),PALM SPRINGS, RIVERSIDE, 92262
SAV-ON PHARMACY #1641 ,License Type: Pharmacy (Community),EASTVALE, RIVERSIDE, 92880
SAV-ON PHARMACY #2514 ,License Type: Pharmacy (Community),RIVERSIDE, RIVERSIDE, 92508
SAV-ON PHARMACY #2572 ,License Type: Pharmacy (Community),RIVERSIDE, RIVERSIDE, 92503
SAV-ON PHARMACY #2586 ,License Type: Pharmacy (Community),RANCHO MIRAGE, RIVERSIDE, 92270
SAV-ON PHARMACY #2743 ,License Type: Pharmacy (Community),MURRIETA, RIVERSIDE, 92562
SAV-ON PHARMACY #2796 ,License Type: Pharmacy (Community),CORONA, RIVERSIDE, 92881
SAV-ON PHARMACY #3559 ,License Type: Pharmacy (Community),PALM DESERT, RIVERSIDE, 92260
SAV-ON PHARMACY #4706 ,License Type: Pharmacy (Community),TEMECULA, RIVERSIDE, 92591
SAV-ON PHARMACY #609 ,License Type: Pharmacy (Community),MURRIETA, RIVERSIDE, 92563
SAV-ON PHARMACY #728 ,License Type: Pharmacy (Community),CORONA, RIVERSIDE, 92882
SAV-ON PHARMACY #734 ,License Type: Pharmacy (Community),MURRIETA, RIVERSIDE, 92563
SAV-ON PHARMACY #735 ,License Type: Pharmacy (Community),WILDOMAR, RIVERSIDE, 92595
SAV-ON PHARMACY #753 ,License Type: Pharmacy (Community),TEMECULA, RIVERSIDE, 92592
SAV-ON PHARMACY #798 ,License Type: Pharmacy (Community),LAKE ELSINORE, RIVERSIDE, 92530
SAVE MART SUPERMARKETS #601 ,License Type: Pharmacy (Community),CARMICHAEL, SACRAMENTO, 95608
SAVE MART SUPERMARKETS #616 ,License Type: Pharmacy (Community),ROCKLIN, PLACER, 95765
SAVE MART SUPERMARKETS #617 ,License Type: Pharmacy (Community),ROSEVILLE, PLACER, 95747
SAVE MART SUPERMARKETS #619 ,License Type: Pharmacy (Community),SACRAMENTO, SACRAMENTO, 95828
SAVE MART SUPERMARKETS #625 ,License Type: Pharmacy (Community),SACRAMENTO, SACRAMENTO, 95825
SIERRA COMPOUNDING PHARMACY ,License Type: Pharmacy (Community),Public Reprimand, PLACER, 95603
SOBOBA INDIAN HEALTH CLINIC PHARMACY ,License Type: Pharmacy (Community),SAN JACINTO, RIVERSIDE, 92583
SPENCERS PRESCRIPTION PHARMACY ,License Type: Pharmacy (Community),RIVERSIDE, RIVERSIDE, 92506
STETSON FAMILY PHARMACY ,License Type: Pharmacy (Community),HEMET, RIVERSIDE, 92543
STUDENT HEALTH SERVICES PHARMACY ,License Type: Pharmacy (Government Owned Community),RIVERSIDE, RIVERSIDE, 92521
SUPER CARE PHARMACY ,License Type: Pharmacy (Community),MORENO VALLEY, RIVERSIDE, 92553
SUPERIOR CARE PHARMACY ,License Type: Pharmacy (Community),CORONA, RIVERSIDE, 92883
SUTTER INFUSION AND PHARMACY SERVICES ,License Type: Pharmacy (Community),SACRAMENTO, SACRAMENTO, 95828
SUTTER MEDICAL CENTER SACRAMENTO INFUSION PHARMACY ,License Type: Pharmacy (Community),SACRAMENTO, SACRAMENTO, 95816
SUTTER ROSEVILLE MEDICAL CENTER INFUSION PHARMACY ,License Type: Pharmacy (Community),ROSEVILLE, PLACER, 95661
TAM PHARMACY ,License Type: Pharmacy (Community),SACRAMENTO, SACRAMENTO, 95822
TAP PHARMACY ,License Type: Pharmacy (Community),RIVERSIDE, RIVERSIDE, 92505
THANH THUY PHARMACY ,License Type: Pharmacy (Community),SACRAMENTO, SACRAMENTO, 95823
THE CORNER DRUG STORE ,License Type: Pharmacy (Community),HEMET, RIVERSIDE, 92544
THE MEDICINE SHOPPE ,License Type: Pharmacy (Community),HEMET, RIVERSIDE, 92543
THE MEDICINE SHOPPE ,License Type: Pharmacy (Community),SAN JACINTO, RIVERSIDE, 92583
THE MEDICINE SHOPPE ,License Type: Pharmacy (Community),RIVERSIDE, RIVERSIDE, 92503
THE MEDICINE SHOPPE ,License Type: Pharmacy (Community),PALM SPRINGS, RIVERSIDE, 92262
THE MEDICINE SHOPPE ,License Type: Pharmacy (Community),Accusation filed, RIVERSIDE, 92503
THRIFTY PAYLESS INC DBA RITE AID #5583 ,License Type: Pharmacy (Community),CORONA, RIVERSIDE, 92882
THRIFTY PAYLESS INC DBA RITE AID #5714 ,License Type: Pharmacy (Community),RIVERSIDE, RIVERSIDE, 92505
THRIFTY PAYLESS INC DBA RITE AID #6753 ,License Type: Pharmacy (Community),MENIFEE, RIVERSIDE, 92584
THRIFTY PAYLESS INC RITE AID #5713 ,License Type: Pharmacy (Community),RIVERSIDE, RIVERSIDE, 92504
THU PHARMACY ,License Type: Pharmacy (Community),SACRAMENTO, SACRAMENTO, 95823
TIMBERLAKE PHARMACY ,License Type: Pharmacy (Community),SACRAMENTO, SACRAMENTO, 95823
TOTAL CARE PHARMACY ,License Type: Pharmacy (Community),BEAUMONT, RIVERSIDE, 92223
TOWN CENTER COMPOUNDING PHARMACY ,License Type: Pharmacy (Community),PALM DESERT, RIVERSIDE, 92260
TOWN SQUARE PHARMACY INC ,License Type: Pharmacy (Community),INDIO, RIVERSIDE, 92201
TRI STAR PHARMACY 2 ,License Type: Pharmacy (Community),SACRAMENTO, SACRAMENTO, 95823
TRUCARE PHARMACY ,License Type: Pharmacy (Community),CORONA, RIVERSIDE, 92881
U.C. DAVIS MEDICAL CENTER ,License Type: Pharmacy (Government Owned Community),SACRAMENTO, SACRAMENTO, 95817
U.C. DAVIS MEDICAL CENTER ,License Type: Pharmacy (Government Owned Community),SACRAMENTO, SACRAMENTO, 95817
UC DAVIS MEDICAL CENTER INFUSION PHARMACY ,License Type: Pharmacy (Government Owned Community),SACRAMENTO, SACRAMENTO, 95817
UC DAVIS MEDICAL CENTER PLACER CENTER FOR HEALTH PHARMACY ,License Type: Pharmacy (Government Owned Community),ROCKLIN, PLACER, 95765
UNITED FAMILY PHARMACY ,License Type: Pharmacy (Community),SAN JACINTO, RIVERSIDE, 92583
VAIL RANCH PHARMACY ,License Type: Pharmacy (Community),TEMECULA, RIVERSIDE, 92592
VALLEY PHARMACY EXPRESS LLC ,License Type: Pharmacy (Community),GALT, SACRAMENTO, 95632
VAN BUREN PHARMACY ,License Type: Pharmacy (Community),RIVERSIDE, RIVERSIDE, 92503
VANGS PHARMACY ,License Type: Pharmacy (Community),SACRAMENTO, SACRAMENTO, 95823
VILLAGE DRUG CO. ,License Type: Pharmacy (Community),GREENVILLE, PLUMAS, 95947
VIP PHARMACY ,License Type: Pharmacy (Community),PERRIS, RIVERSIDE, 92571
VITALITY PHARMACY ,License Type: Pharmacy (Community),FOLSOM, SACRAMENTO, 95630
VIVARX ,License Type: Pharmacy (Community),RANCHO MIRAGE, RIVERSIDE, 92270
VONS PHARMACY #1962 ,License Type: Pharmacy (Community),TEMECULA, RIVERSIDE, 92591
VONS PHARMACY #2175 ,License Type: Pharmacy (Community),LA QUINTA, RIVERSIDE, 92253
VONS PHARMACY #2177 ,License Type: Pharmacy (Community),DESERT HOT SPRINGS, RIVERSIDE, 92240
VONS PHARMACY #2381 ,License Type: Pharmacy (Community),CORONA, RIVERSIDE, 92879
VONS PHARMACY #2384 ,License Type: Pharmacy (Community),PALM SPRINGS, RIVERSIDE, 92264
VONS PHARMACY #2386 ,License Type: Pharmacy (Community),SUN CITY, RIVERSIDE, 92586
VONS PHARMACY #2596 ,License Type: Pharmacy (Community),CORONA, RIVERSIDE, 92879
VONS PHARMACY #2659 ,License Type: Pharmacy (Community),RIVERSIDE, RIVERSIDE, 92506
VONS PHARMACY #2660 ,License Type: Pharmacy (Community),MURRIETA, RIVERSIDE, 92563
VONS PHARMACY #2688 ,License Type: Pharmacy (Community),MIRA LOMA, RIVERSIDE, 91752
VONS PHARMACY #2818 ,License Type: Pharmacy (Community),CORONA, RIVERSIDE, 92883
WAL MART PHARMACY 10 1805 ,License Type: Pharmacy (Community),LA QUINTA, RIVERSIDE, 92253
WAL MART PHARMACY 10 1853 ,License Type: Pharmacy (Community),HEMET, RIVERSIDE, 92545
WAL MART PHARMACY 10-4309 ,License Type: Pharmacy (Community),ORANGEVALE, SACRAMENTO, 95662
WAL-MART PHARMACY #10-5193 ,License Type: Pharmacy (Community),MORENO VALLEY, RIVERSIDE, 92555
WAL-MART PHARMACY 10-1697 ,License Type: Pharmacy (Community),ELK GROVE, SACRAMENTO, 95758
WAL-MART PHARMACY 10-1760 ,License Type: Pharmacy (Community),FOLSOM, SACRAMENTO, 95630
WAL-MART PHARMACY 10-1832 ,License Type: Pharmacy (Community),PALM SPRINGS, RIVERSIDE, 92264
WAL-MART PHARMACY 10-1881 ,License Type: Pharmacy (Community),ANTELOPE, SACRAMENTO, 95843
WAL-MART PHARMACY 10-1899 ,License Type: Pharmacy (Community),RIVERSIDE, RIVERSIDE, 92507
WAL-MART PHARMACY 10-1912 ,License Type: Pharmacy (Community),CORONA, RIVERSIDE, 92879
WAL-MART PHARMACY 10-1988 ,License Type: Pharmacy (Community),ROSEVILLE, PLACER, 95678
WAL-MART PHARMACY 10-2028 ,License Type: Pharmacy (Community),RIVERSIDE, RIVERSIDE, 92503
WAL-MART PHARMACY 10-2077 ,License Type: Pharmacy (Community),LAKE ELSINORE, RIVERSIDE, 92532
WAL-MART PHARMACY 10-3026 ,License Type: Pharmacy (Community),PALM DESERT, RIVERSIDE, 92260
WAL-MART PHARMACY 10-3090 ,License Type: Pharmacy (Community),ROCKLIN, PLACER, 95677
WAL-MART PHARMACY 10-5683 ,License Type: Pharmacy (Community),ELK GROVE, SACRAMENTO, 95758
WAL-MART PHARMACY 10-5848 ,License Type: Pharmacy (Community),ELK GROVE, SACRAMENTO, 95757
WAL-MART PHARMACY 10-5979 ,License Type: Pharmacy (Community),LINCOLN, PLACER, 95648
WAL-MART PHARMACY 10-5980 ,License Type: Pharmacy (Community),GRANITE BAY, PLACER, 95746
WAL-MART PHARMACY 10-5981 ,License Type: Pharmacy (Community),CARMICHAEL, SACRAMENTO, 95608
WAL-MART PHARMACY 10-5982 ,License Type: Pharmacy (Community),SACRAMENTO, SACRAMENTO, 95821
WALGREENS #01079 ,License Type: Pharmacy (Community),PALM SPRINGS, RIVERSIDE, 92262
WALGREENS #01080 ,License Type: Pharmacy (Community),HEMET, RIVERSIDE, 92544
WALGREENS #01081 ,License Type: Pharmacy (Community),HEMET, RIVERSIDE, 92545
WALGREENS #01254 ,License Type: Pharmacy (Community),INDIO, RIVERSIDE, 92201
WALGREENS #01995 ,License Type: Pharmacy (Community),MURRIETA, RIVERSIDE, 92563
WALGREENS #02170 ,License Type: Pharmacy (Community),AUBURN, PLACER, 95603
WALGREENS #02712 ,License Type: Pharmacy (Community),RIVERSIDE, RIVERSIDE, 92509
WALGREENS #04136 ,License Type: Pharmacy (Community),SACRAMENTO, SACRAMENTO, 95822
WALGREENS #04170 ,License Type: Pharmacy (Community),Probation, SACRAMENTO, 95864
WALGREENS #04756 ,License Type: Pharmacy (Community),PALM DESERT, RIVERSIDE, 92260
WALGREENS #04757 ,License Type: Pharmacy (Community),BERMUDA DUNES, RIVERSIDE, 92203
WALGREENS #05036 ,License Type: Pharmacy (Community),SACRAMENTO, SACRAMENTO, 95823
WALGREENS #05037 ,License Type: Pharmacy (Community),DESERT HOT SPRINGS, RIVERSIDE, 92240
WALGREENS #05038 ,License Type: Pharmacy (Community),HEMET, RIVERSIDE, 92543
WALGREENS #05152 ,License Type: Pharmacy (Community),CITRUS HEIGHTS, SACRAMENTO, 95621
WALGREENS #05182 ,License Type: Pharmacy (Community),BANNING, RIVERSIDE, 92220
WALGREENS #05220 ,License Type: Pharmacy (Community),MORENO VALLEY, RIVERSIDE, 92557
WALGREENS #05301 ,License Type: Pharmacy (Community),CATHEDRAL CITY, RIVERSIDE, 92234
WALGREENS #05349 ,License Type: Pharmacy (Community),HEMET, RIVERSIDE, 92544
WALGREENS #05374 ,License Type: Pharmacy (Community),SACRAMENTO, SACRAMENTO, 95817
WALGREENS #05499 ,License Type: Pharmacy (Community),ELK GROVE, SACRAMENTO, 95758
WALGREENS #05500 ,License Type: Pharmacy (Community),SACRAMENTO, SACRAMENTO, 95843
WALGREENS #05501 ,License Type: Pharmacy (Community),ROSEVILLE, PLACER, 95747
WALGREENS #05527 ,License Type: Pharmacy (Community),MORENO VALLEY, RIVERSIDE, 92553
WALGREENS #05774 ,License Type: Pharmacy (Community),CITRUS HEIGHTS, SACRAMENTO, 95610
WALGREENS #06036 ,License Type: Pharmacy (Community),Probation, PLACER, 95746
WALGREENS #06126 ,License Type: Pharmacy (Community),MENIFEE, RIVERSIDE, 92586
WALGREENS #06127 ,License Type: Pharmacy (Community),MENIFEE, RIVERSIDE, 92584
WALGREENS #06142 ,License Type: Pharmacy (Community),ELK GROVE, SACRAMENTO, 95624
WALGREENS #06193 ,License Type: Pharmacy (Community),SACRAMENTO, SACRAMENTO, 95825
WALGREENS #06417 ,License Type: Pharmacy (Community),FOLSOM, SACRAMENTO, 95630
WALGREENS #06419 ,License Type: Pharmacy (Community),ELK GROVE, SACRAMENTO, 95758
WALGREENS #06612 ,License Type: Pharmacy (Community),ELK GROVE, SACRAMENTO, 95624
WALGREENS #06613 ,License Type: Pharmacy (Community),SACRAMENTO, SACRAMENTO, 95818
WALGREENS #06658 ,License Type: Pharmacy (Community),CARMICHAEL, SACRAMENTO, 95608
WALGREENS #06706 ,License Type: Pharmacy (Community),SACRAMENTO, SACRAMENTO, 95822
WALGREENS #06807 ,License Type: Pharmacy (Community),SACRAMENTO, SACRAMENTO, 95841
WALGREENS #06915 ,License Type: Pharmacy (Community),ROCKLIN, PLACER, 95765
WALGREENS #07191 ,License Type: Pharmacy (Community),CITRUS HEIGHTS, SACRAMENTO, 95610
WALGREENS #07262 ,License Type: Pharmacy (Community),RIVERSIDE, RIVERSIDE, 92506
WALGREENS #07303 ,License Type: Pharmacy (Community),CORONA, RIVERSIDE, 92882
WALGREENS #07410 ,License Type: Pharmacy (Community),MURRIETA, RIVERSIDE, 92563
WALGREENS #07577 ,License Type: Pharmacy (Community),PALM SPRINGS, RIVERSIDE, 92262
WALGREENS #07591 ,License Type: Pharmacy (Community),CORONA, RIVERSIDE, 92880
WALGREENS #07714 ,License Type: Pharmacy (Community),BEAUMONT, RIVERSIDE, 92223
WALGREENS #07765 ,License Type: Pharmacy (Community),LA QUINTA, RIVERSIDE, 92253
WALGREENS #07786 ,License Type: Pharmacy (Community),RIVERSIDE, RIVERSIDE, 92508
WALGREENS #07990 ,License Type: Pharmacy (Community),RIVERSIDE, RIVERSIDE, 92507
WALGREENS #07991 ,License Type: Pharmacy (Community),RIVERSIDE, RIVERSIDE, 92503
WALGREENS #09021 ,License Type: Pharmacy (Community),SAN JACINTO, RIVERSIDE, 92583
WALGREENS #09048 ,License Type: Pharmacy (Community),FOLSOM, SACRAMENTO, 95630
WALGREENS #09080 ,License Type: Pharmacy (Community),INDIO, RIVERSIDE, 92201
WALGREENS #09229 ,License Type: Pharmacy (Community),CATHEDRAL CITY, RIVERSIDE, 92234
WALGREENS #09486 ,License Type: Pharmacy (Community),LAKE ELSINORE, RIVERSIDE, 92530
WALGREENS #09532 ,License Type: Pharmacy (Community),RANCHO CORDOVA, SACRAMENTO, 95742
WALGREENS #09616 ,License Type: Pharmacy (Community),MORENO VALLEY, RIVERSIDE, 92551
WALGREENS #09641 ,License Type: Pharmacy (Community),RANCHO MIRAGE, RIVERSIDE, 92270
WALGREENS #09781 ,License Type: Pharmacy (Community),INDIO, RIVERSIDE, 92201
WALGREENS #09884 ,License Type: Pharmacy (Community),MURRIETA, RIVERSIDE, 92562
WALGREENS #09885 ,License Type: Pharmacy (Community),PALM SPRINGS, RIVERSIDE, 92264
WALGREENS #10114 ,License Type: Pharmacy (Community),SACRAMENTO, SACRAMENTO, 95835
WALGREENS #10242 ,License Type: Pharmacy (Community),PALM DESERT, RIVERSIDE, 92211
WALGREENS #10366 ,License Type: Pharmacy (Community),CALIMESA, RIVERSIDE, 92320
WALGREENS #10368 ,License Type: Pharmacy (Community),SAN JACINTO, RIVERSIDE, 92582
WALGREENS #10693 ,License Type: Pharmacy (Community),NORTH HIGHLANDS, SACRAMENTO, 95660
WALGREENS #10703 ,License Type: Pharmacy (Community),INDIO, RIVERSIDE, 92203
WALGREENS #10716 ,License Type: Pharmacy (Community),SACRAMENTO, SACRAMENTO, 95831
WALGREENS #10948 ,License Type: Pharmacy (Community),MURRIETA, RIVERSIDE, 92563
WALGREENS #11262 ,License Type: Pharmacy (Community),SACRAMENTO, SACRAMENTO, 95815
WALGREENS #11611 ,License Type: Pharmacy (Community),COACHELLA, RIVERSIDE, 92236
WALGREENS #12525 ,License Type: Pharmacy (Community),LINCOLN, PLACER, 95648
WALGREENS #13597 ,License Type: Pharmacy (Community),SACRAMENTO, SACRAMENTO, 95832
WALGREENS #13657 ,License Type: Pharmacy (Community),EASTVALE, RIVERSIDE, 91752
WALGREENS #13813 ,License Type: Pharmacy (Community),LAKE ELSINORE, RIVERSIDE, 92530
WALGREENS #13833 ,License Type: Pharmacy (Community),RIVERSIDE, RIVERSIDE, 92505
WALGREENS #15195 ,License Type: Pharmacy (Community),RANCHO CORDOVA, SACRAMENTO, 95670
WALGREENS #15433 ,License Type: Pharmacy (Community),HOLLISTER, SAN BENITO, 95023
WALGREENS #15602 ,License Type: Pharmacy (Community),SACRAMENTO, SACRAMENTO, 95838
WALGREENS #16058 ,License Type: Pharmacy (Community),ROSEVILLE, PLACER, 95747
WALGREENS PHARMACY #15987 ,License Type: Pharmacy (Community),SACRAMENTO, SACRAMENTO, 95816
WALMART PHARMACY #10-2464 ,License Type: Pharmacy (Community),SACRAMENTO, SACRAMENTO, 95832
WALMART PHARMACY #10-2487 ,License Type: Pharmacy (Community),CORONA, RIVERSIDE, 92882
WALMART PHARMACY #10-2708 ,License Type: Pharmacy (Community),TEMECULA, RIVERSIDE, 92592
WALMART PHARMACY #10-2735 ,License Type: Pharmacy (Community),SACRAMENTO, SACRAMENTO, 95827
WALMART PHARMACY #10-3712 ,License Type: Pharmacy (Community),CITRUS HEIGHTS, SACRAMENTO, 95621
WALMART PHARMACY #10-4202 ,License Type: Pharmacy (Community),ROSEVILLE, PLACER, 95661
WALMART PHARMACY #10-4759 ,License Type: Pharmacy (Community),CITRUS HEIGHTS, SACRAMENTO, 95610
WALMART PHARMACY #10-5096 ,License Type: Pharmacy (Community),PALM DESERT, RIVERSIDE, 92260
WALMART PHARMACY #10-5156 ,License Type: Pharmacy (Community),BEAUMONT, RIVERSIDE, 92223
WALMART PHARMACY #10-5192 ,License Type: Pharmacy (Community),SACRAMENTO, SACRAMENTO, 95842
WALMART PHARMACY #10-5425 ,License Type: Pharmacy (Community),SAN JACINTO, RIVERSIDE, 92583
WALMART PHARMACY #10-6530 ,License Type: Pharmacy (Community),SACRAMENTO, SACRAMENTO, 95823
WALMART PHARMACY #10-8958 ,License Type: Pharmacy (Community),INDIO, RIVERSIDE, 92201
WALMART PHARMACY 10-1747 ,License Type: Pharmacy (Community),PERRIS, RIVERSIDE, 92571
WALMART PHARMACY 10-2181 ,License Type: Pharmacy (Community),INDIO, RIVERSIDE, 92203
WALMART PHARMACY 10-2826 ,License Type: Pharmacy (Community),COACHELLA, RIVERSIDE, 92236
WALMART PHARMACY 10-3081 ,License Type: Pharmacy (Community),SACRAMENTO, SACRAMENTO, 95829
WALMART PHARMACY 10-4393 ,License Type: Pharmacy (Community),NORTH HIGHLANDS, SACRAMENTO, 95660
WALMART PHARMACY 10-5008 ,License Type: Pharmacy (Community),HEMET, RIVERSIDE, 92543
WALMART PHARMACY 10-5231 ,License Type: Pharmacy (Community),GALT, SACRAMENTO, 95632
WALMART PHARMACY 10-5663 ,License Type: Pharmacy (Community),JURUPA VALLEY, RIVERSIDE, 92509
WALMART PHARMACY NO 10 2598 ,License Type: Pharmacy (Community),SACRAMENTO, SACRAMENTO, 95833
WALMART PHARMACY NO 10-2457 ,License Type: Pharmacy (Community),RANCHO CORDOVA, SACRAMENTO, 95670
WALMART PHARMACY NO 10-2842 ,License Type: Pharmacy (Community),CORONA, RIVERSIDE, 92881
WALMART PHARMACY NO 10-2952 ,License Type: Pharmacy (Community),MURRIETA, RIVERSIDE, 92562
WALMART PHARMACY NO 10-3587 ,License Type: Pharmacy (Community),ROCKLIN, PLACER, 95677
WELL-CARE PHARMACY INC ,License Type: Pharmacy (Community),SACRAMENTO, SACRAMENTO, 95834
WHITE CROSS PHARMACY #1 ,License Type: Pharmacy (Community),PALM SPRINGS, RIVERSIDE, 92262
WHITE CROSS PHARMACY #2 ,License Type: Pharmacy (Community),RIVERSIDE, RIVERSIDE, 92506
YOUR PHARMACY ,License Type: Pharmacy (Community),BEAUMONT, RIVERSIDE, 92223
