,name,license_type,county,city,zip
0,ALTAIR PHARMACY & HEALTH SERVICES ,License Type: Pharmacy (Community),FAIRFIELD, SOLANO, 94534
1,AMC COMMUNITY PHARMACY ,License Type: Pharmacy (Community),HEALDSBURG, SONOMA, 95448
2,ANIMAL SOLUTIONS PHARMACY INC ,License Type: Pharmacy (Community),Probation, SONOMA, 95407
3,BEL AIR PHARMACY #521 ,License Type: Pharmacy (Community),YUBA CITY, SUTTER, 95993
4,BOIES MEDICAL CENTER PHARMACY ,License Type: Pharmacy (Community),TURLOCK, STANISLAUS, 95382
5,BOULDER CREEK PHARMACY ,License Type: Pharmacy (Community),BOULDER CREEK, SANTA CRUZ, 95006
6,"BRIOVARX INFUSION SERVICES 403, LLC ",License Type: Pharmacy (Community),ROHNERT PARK, SONOMA, 94928
7,CALIFORNIA STATE PRISON PHARMACY ,License Type: Correctional Pharmacy,VACAVILLE, SOLANO, 95696
8,CAPITAL CITY PHARMACY ,License Type: Pharmacy (Community),VALLEJO, SOLANO, 94590
9,"CARDINAL HEALTH 414,LLC ",License Type: Pharmacy (Community),REDDING, SHASTA, 96001
10,CARRANZA PHARMACY HUGHSON ,License Type: Pharmacy (Community),HUGHSON, STANISLAUS, 95326
11,CERES DRUG STORE INC ,License Type: Pharmacy (Community),CERES, STANISLAUS, 95307
12,CLINIC PHARMACY ,License Type: Pharmacy (Community),HAPPY CAMP, SISKIYOU, 96039
13,CLOVERDALE PHARMACY ,License Type: Pharmacy (Community),CLOVERDALE, SONOMA, 95425
14,COFFEE PLAZA PHARMACY ,License Type: Pharmacy (Community),MODESTO, STANISLAUS, 95355
15,CONSONUS PHARMACY SERVICES CA NORTH LLC ,License Type: Pharmacy (Community),VACAVILLE, SOLANO, 95688
16,COSTCO PHARMACY #132 ,License Type: Pharmacy (Community),VALLEJO, SOLANO, 94591
17,COSTCO PHARMACY #149 ,License Type: Pharmacy (Community),SANTA CRUZ, SANTA CRUZ, 95060
18,COSTCO PHARMACY 133 ,License Type: Pharmacy (Community),REDDING, SHASTA, 96003
19,COSTCO PHARMACY 41 ,License Type: Pharmacy (Community),SANTA ROSA, SONOMA, 95407
20,COSTCO PHARMACY NO 453 ,License Type: Pharmacy (Community),FAIRFIELD, SOLANO, 94534
21,COSTCO PHARMACY NO 659 ,License Type: Pharmacy (Community),ROHNERT PARK, SONOMA, 94928
22,COSTCO PHARMACY NO 661 ,License Type: Pharmacy (Community),MODESTO, STANISLAUS, 95356
23,COSTCO PHARMACY NO 694 ,License Type: Pharmacy (Community),VACAVILLE, SOLANO, 95687
24,COSTCO WHOLESALE #782 ,License Type: Pharmacy (Community),TURLOCK, STANISLAUS, 95380
25,COTTONWOOD DRUGS ,License Type: Pharmacy (Community),COTTONWOOD, SHASTA, 96022
26,CREEKSIDE PHARMACY ,License Type: Pharmacy (Community),SANTA ROSA, SONOMA, 95404
27,CSU STANISLAUS PHARMACY ,License Type: Pharmacy (Government Owned Community),TURLOCK, STANISLAUS, 95382
28,CVS PHARMACY #1467 ,License Type: Pharmacy (Community),MODESTO, STANISLAUS, 95350
29,CVS/PHARMACY # 16082 ,License Type: Pharmacy (Community),MODESTO, STANISLAUS, 95350
30,CVS/PHARMACY # 16109 ,License Type: Pharmacy (Community),YUBA CITY, SUTTER, 95991
31,CVS/PHARMACY # 16161 ,License Type: Pharmacy (Community),REDDING, SHASTA, 96003
32,CVS/PHARMACY # 16199 ,License Type: Pharmacy (Community),FAIRFIELD, SOLANO, 94533
33,CVS/PHARMACY # 16274 ,License Type: Pharmacy (Community),VACAVILLE, SOLANO, 95687
34,CVS/PHARMACY # 16293 ,License Type: Pharmacy (Community),ROHNERT PARK, SONOMA, 94928
35,CVS/PHARMACY # 16356 ,License Type: Pharmacy (Community),SANTA ROSA, SONOMA, 95407
36,CVS/PHARMACY # 16357 ,License Type: Pharmacy (Community),MODESTO, STANISLAUS, 95356
37,CVS/PHARMACY # 16507 ,License Type: Pharmacy (Community),WATSONVILLE, SANTA CRUZ, 95076
38,CVS/PHARMACY # 16647 ,License Type: Pharmacy (Community),TURLOCK, STANISLAUS, 95380
39,CVS/PHARMACY # 17183 ,License Type: Pharmacy (Community),RIVERBANK, STANISLAUS, 95367
40,CVS/PHARMACY # 17586 ,License Type: Pharmacy (Community),PETALUMA, SONOMA, 94952
41,CVS/PHARMACY # 17641 ,License Type: Pharmacy (Community),CAPITOLA, SANTA CRUZ, 95010
42,CVS/PHARMACY # 17646 ,License Type: Pharmacy (Community),SANTA ROSA, SONOMA, 95401
43,CVS/PHARMACY #0345 ,License Type: Pharmacy (Community),CLOVERDALE, SONOMA, 95425
44,CVS/PHARMACY #09393 ,License Type: Pharmacy (Community),SANTA ROSA, SONOMA, 95401
45,CVS/PHARMACY #09480 ,License Type: Pharmacy (Community),PETALUMA, SONOMA, 94952
46,CVS/PHARMACY #09597 ,License Type: Pharmacy (Community),CAPITOLA, SANTA CRUZ, 95010
47,CVS/PHARMACY #09656 ,License Type: Pharmacy (Community),SANTA ROSA, SONOMA, 95405
48,CVS/PHARMACY #09712 ,License Type: Pharmacy (Community),FAIRFIELD, SOLANO, 94533
49,CVS/PHARMACY #09761 ,License Type: Pharmacy (Community),BENICIA, SOLANO, 94510
50,CVS/PHARMACY #09763 ,License Type: Pharmacy (Community),PATTERSON, STANISLAUS, 95363
51,CVS/PHARMACY #09796 ,License Type: Pharmacy (Community),WATSONVILLE, SANTA CRUZ, 95076
52,CVS/PHARMACY #09832 ,License Type: Pharmacy (Community),VALLEJO, SOLANO, 94590
53,CVS/PHARMACY #09853 ,License Type: Pharmacy (Community),FELTON, SANTA CRUZ, 95018
54,CVS/PHARMACY #09862 ,License Type: Pharmacy (Community),SCOTTS VALLEY, SANTA CRUZ, 95066
55,CVS/PHARMACY #09884 ,License Type: Pharmacy (Community),MODESTO, STANISLAUS, 95355
56,CVS/PHARMACY #09919 ,License Type: Pharmacy (Community),TURLOCK, STANISLAUS, 95380
57,CVS/PHARMACY #09928 ,License Type: Pharmacy (Community),ROHNERT PARK, SONOMA, 94928
58,CVS/PHARMACY #09931 ,License Type: Pharmacy (Community),WINDSOR, SONOMA, 95492
59,CVS/PHARMACY #09932 ,License Type: Pharmacy (Community),YUBA CITY, SUTTER, 95993
60,CVS/PHARMACY #09946 ,License Type: Pharmacy (Community),SANTA ROSA, SONOMA, 95401
61,CVS/PHARMACY #09948 ,License Type: Pharmacy (Community),SANTA ROSA, SONOMA, 95405
62,CVS/PHARMACY #09950 ,License Type: Pharmacy (Community),DIXON, SOLANO, 95620
63,CVS/PHARMACY #09960 ,License Type: Pharmacy (Community),CAPITOLA, SANTA CRUZ, 95010
64,CVS/PHARMACY #09973 ,License Type: Pharmacy (Community),WEAVERVILLE, TRINITY, 96093
65,CVS/PHARMACY #09979 ,License Type: Pharmacy (Community),REDDING, SHASTA, 96001
66,CVS/PHARMACY #1173 ,License Type: Pharmacy (Community),HEALDSBURG, SONOMA, 95448
67,CVS/PHARMACY #2994 ,License Type: Pharmacy (Community),TURLOCK, STANISLAUS, 95382
68,CVS/PHARMACY #3039 ,License Type: Pharmacy (Community),WATSONVILLE, SANTA CRUZ, 95076
69,CVS/PHARMACY #3075 ,License Type: Pharmacy (Community),FAIRFIELD, SOLANO, 94534
70,CVS/PHARMACY #3077 ,License Type: Pharmacy (Community),MODESTO, STANISLAUS, 95355
71,CVS/PHARMACY #3079 ,License Type: Pharmacy (Community),Probation, STANISLAUS, 95367
72,CVS/PHARMACY #3911 ,License Type: Pharmacy (Community),REDDING, SHASTA, 96002
73,CVS/PHARMACY #3937 ,License Type: Pharmacy (Community),RED BLUFF, TEHAMA, 96080
74,CVS/PHARMACY #3944 ,License Type: Pharmacy (Community),OAKDALE, STANISLAUS, 95361
75,CVS/PHARMACY #3952 ,License Type: Pharmacy (Community),APTOS, SANTA CRUZ, 95003
76,CVS/PHARMACY #9152 ,License Type: Pharmacy (Community),SONOMA, SONOMA, 95476
77,CVS/PHARMACY #9163 ,License Type: Pharmacy (Community),PETALUMA, SONOMA, 94954
78,CVS/PHARMACY #9171 ,License Type: Pharmacy (Community),MODESTO, STANISLAUS, 95350
79,CVS/PHARMACY #9248 ,License Type: Pharmacy (Community),Probation, STANISLAUS, 95350
80,CVS/PHARMACY #9308 ,License Type: Pharmacy (Community),MODESTO, STANISLAUS, 95351
81,CVS/PHARMACY #9331 ,License Type: Pharmacy (Community),SANTA CRUZ, SANTA CRUZ, 95060
82,CVS/PHARMACY #9332 ,License Type: Pharmacy (Community),SANTA CRUZ, SANTA CRUZ, 95060
83,CVS/PHARMACY #9371 ,License Type: Pharmacy (Community),FAIRFIELD, SOLANO, 94533
84,CVS/PHARMACY #9874 ,License Type: Pharmacy (Community),MODESTO, STANISLAUS, 95351
85,CVS/PHARMACY #9917 ,License Type: Pharmacy (Community),VACAVILLE, SOLANO, 95687
86,CWD CLOSED DOOR ,License Type: Pharmacy (Community),COTTONWOOD, SHASTA, 96022
87,DELTA PHARMACY ,License Type: Pharmacy (Community),RIO VISTA, SOLANO, 94571
88,DIGNITY HEALTH MERCY ONCOLOGY CENTER PHARMACY ,License Type: Pharmacy (Community),REDDING, SHASTA, 96002
89,DOLLAR DRUG ,License Type: Pharmacy (Community),SANTA ROSA, SONOMA, 95401
90,DOMINICAN HOSPITAL (DOMINICAN INFUSION CENTER) ,License Type: Pharmacy (Community),SANTA CRUZ, SANTA CRUZ, 95065
91,DOMINICAN PLAZA PHARMACY ,License Type: Pharmacy (Community),SANTA CRUZ, SANTA CRUZ, 95065
92,DUTTON COMMUNITY PHARMACY ,License Type: Pharmacy (Community),SANTA ROSA, SONOMA, 95401
93,ELMORE PHARMACY ,License Type: Pharmacy (Community),RED BLUFF, TEHAMA, 96080
94,EMANUEL SPECIALTY CLINIC MEDICAL ONCOLOGY PHARMACY ,License Type: Pharmacy (Community),TURLOCK, STANISLAUS, 95382
95,EVERGREEN PHARMACEUTICAL OF CALIFORNIA INC D/B/A OMNICARE OF SANT ,License Type: Pharmacy (Community),SANTA ROSA, SONOMA, 95404
96,FERRYS PHARMACY ,License Type: Pharmacy (Community),Accusation filed, SHASTA, 96007
97,FLORIDA AVENUE PRESCRIPTIONS ,License Type: Pharmacy (Community),Probation, STANISLAUS, 95350
98,FOODMAXX PHARMACY #486 ,License Type: Pharmacy (Community),WATSONVILLE, SANTA CRUZ, 95076
99,FORESTVILLE PHARMACY ,License Type: Pharmacy (Community),FORESTVILLE, SONOMA, 95436
100,FRANKLIN PHARMACY ,License Type: Pharmacy (Community),YUBA CITY, SUTTER, 95993
101,FRANKS PHARMACY ,License Type: Pharmacy (Community),APTOS, SANTA CRUZ, 95003
102,GATEWAY PHARMACY ,License Type: Pharmacy (Community),FAIRFIELD, SOLANO, 94533
103,GILL PHARMACY ,License Type: Pharmacy (Community),CERES, STANISLAUS, 95307
104,GVHC PMQ WEST MODESTO PHARMACY ,License Type: Pharmacy (Community),MODESTO, STANISLAUS, 95354
105,HEALTH FIRST PHARMACY ,License Type: Pharmacy (Community),WINDSOR, SONOMA, 95492
106,HORSNYDER PHARMACY ,License Type: Pharmacy (Community),SANTA CRUZ, SANTA CRUZ, 95062
107,KAISER FDN HP PHARMACY #521 ,License Type: Pharmacy (Community),ROHNERT PARK, SONOMA, 94928
108,KAISER HEALTH PLAN 1 EAST PHY 583 ,License Type: Pharmacy (Community),Public Reprimand, SONOMA, 95403
109,KAISER HEALTH PLAN MOB 1 PHY #671 ,License Type: Pharmacy (Community),VACAVILLE, SOLANO, 95688
110,KAISER HEALTH PLAN MOB 1 PHY 211 ,License Type: Pharmacy (Community),VALLEJO, SOLANO, 94590
111,KAISER HEALTH PLAN MOB 2 PHY 212 ,License Type: Pharmacy (Community),VALLEJO, SOLANO, 94590
112,KAISER HEALTH PLAN MOB PHY 401 ,License Type: Pharmacy (Community),FAIRFIELD, SOLANO, 94533
113,KAISER HEALTH PLAN PHY 201 ,License Type: Pharmacy (Community),PETALUMA, SONOMA, 94954
114,KAISER ONCOLOGY PHARMACY #854 ,License Type: Pharmacy (Community),MODESTO, STANISLAUS, 95356
115,KAISER ONCOLOGY PHRMCY #216 ,License Type: Pharmacy (Community),VALLEJO, SOLANO, 94589
116,KAISER ONCOLOGY PHRMCY #674 ,License Type: Pharmacy (Community),VACAVILLE, SOLANO, 95688
117,KAISER ONCOLOGY PHY #586 ,License Type: Pharmacy (Community),SANTA ROSA, SONOMA, 95403
118,KAISER PERMANENTE PHARMACY #215 ,License Type: Pharmacy (Community),VALLEJO, SOLANO, 94589
119,KAISER PERMANENTE PHARMACY #587 ,License Type: Pharmacy (Community),SANTA ROSA, SONOMA, 95403
120,KAISER PERMANENTE PHARMACY #588 ,License Type: Pharmacy (Community),SANTA ROSA, SONOMA, 95403
121,KAISER PERMANENTE PHARMACY #641 ,License Type: Pharmacy (Community),WATSONVILLE, SANTA CRUZ, 95076
122,KAISER PERMANENTE PHARMACY #701 ,License Type: Pharmacy (Community),SANTA ROSA, SONOMA, 95407
123,KAISER PERMANENTE PHARMACY #771 ,License Type: Pharmacy (Community),SCOTTS VALLEY, SANTA CRUZ, 95066
124,KAISER PERMANENTE PHARMACY #833 ,License Type: Pharmacy (Community),Probation, STANISLAUS, 95357
125,KAISER PERMANENTE PHARMACY NO 851 ,License Type: Pharmacy (Community),MODESTO, STANISLAUS, 95356
126,KAISER PERMANENTE PHRMCY #673 ,License Type: Pharmacy (Community),VACAVILLE, SOLANO, 95688
127,KAISER PHARMACY 1 WEST PHARMACY 581 ,License Type: Pharmacy (Community),Public Reprimand, SONOMA, 95403
128,KMART PHARMACY 3725 ,License Type: Pharmacy (Community),FREEDOM, SANTA CRUZ, 95019
129,LARK DRUGS PHARMACY ,License Type: Pharmacy (Community),GUERNEVILLE, SONOMA, 95446
130,LATIMER'S PHARMACY TIN RX #802 ,License Type: Pharmacy (Community),LOS MOLINOS, TEHAMA, 96055
131,LAUDEN INTEGRATIVE PHARMACY INC ,License Type: Pharmacy (Community),Probation, SANTA CRUZ, 95010
132,LIVE OAK PHARMACY ,License Type: Pharmacy (Community),LIVE OAK, SUTTER, 95953
133,LOMBARDI ROSA PHARMACY ,License Type: Pharmacy (Community),SANTA ROSA, SONOMA, 95407
134,LONGS DRUG STORES CALIFORNIA LLC D/B/A CVS/PHARMACY #9819 ,License Type: Pharmacy (Community),VACAVILLE, SOLANO, 95688
135,LONGS DRUG STORES CALIFORNIA LLC D/B/A CVS/PHARMACY #9872 ,License Type: Pharmacy (Community),SEBASTOPOL, SONOMA, 95472
136,LONGS DRUG STORES CALIFORNIA LLC DBA CVS/PHARMACY #09927 ,License Type: Pharmacy (Community),VALLEJO, SOLANO, 94591
137,LOYALTON PHARMACY ,License Type: Pharmacy (Community),Accusation filed, SIERRA, 96118
138,LUCKY PHARMACY #740 ,License Type: Pharmacy (Community),PETALUMA, SONOMA, 94952
139,LUCKY PHARMACY #776 ,License Type: Pharmacy (Community),SANTA ROSA, SONOMA, 95405
140,LUCKY PHARMACY #783 ,License Type: Pharmacy (Community),VACAVILLE, SOLANO, 95688
141,LUCKY PHARMACY #784 ,License Type: Pharmacy (Community),VACAVILLE, SOLANO, 95687
142,LUKE'S YREKA DRUG ,License Type: Pharmacy (Community),YREKA, SISKIYOU, 96097
143,MARIO'S PHARMACY INC ,License Type: Pharmacy (Community),YUBA CITY, SUTTER, 95991
144,MEDICAL CLINIC PHARMACY ,License Type: Pharmacy (Community),Accusation filed, SANTA CRUZ, 95062
145,MEMORIAL MEDICAL CENTER OUTPATIENT PHARMACY ,License Type: Pharmacy (Community),MODESTO, STANISLAUS, 95355
146,MENTAL HEALTH CRISIS BED FACILITY @ CMF ,License Type: Correctional Pharmacy,VACAVILLE, SOLANO, 95696
147,MERCURY PHARMACY ,License Type: Pharmacy (Community),VALLEJO, SOLANO, 94590
148,MERCURY PHARMACY ,License Type: Pharmacy (Community),FAIRFIELD, SOLANO, 94534
149,MID VALLEY HEALTH SERVICES ,License Type: Pharmacy (Community),Public Reprimand, STANISLAUS, 95307
150,MID VALLEY HEALTH SERVICES LONG TERM CARE INC ,License Type: Pharmacy (Community),MODESTO, STANISLAUS, 95350
151,NEWMAN PIONEER DRUG INC #1 ,License Type: Pharmacy (Community),NEWMAN, STANISLAUS, 95360
152,NORTHBAY CANCER CENTER PHARMACY ,License Type: Pharmacy (Community),VACAVILLE, SOLANO, 95687
153,OLIVE CITY PHARMACY ,License Type: Pharmacy (Community),CORNING, TEHAMA, 96021
154,OMNICARE OF REDDING ,License Type: Pharmacy (Community),REDDING, SHASTA, 96002
155,ONESOURCE COMPOUNDING PHARMACY ,License Type: Pharmacy (Community),SCOTTS VALLEY, SANTA CRUZ, 95066
156,OWENS PHARMACY #1 ,License Type: Pharmacy (Community),REDDING, SHASTA, 96001
157,OWENS PHARMACY #14 ,License Type: Pharmacy (Community),RED BLUFF, TEHAMA, 96080
158,OWENS PHARMACY #17 ,License Type: Pharmacy (Community),REDDING, SHASTA, 96003
159,OWENS PHARMACY #18 ,License Type: Pharmacy (Community),WEAVERVILLE, TRINITY, 96093
160,OWENS PHARMACY #2 ,License Type: Pharmacy (Community),REDDING, SHASTA, 96002
161,OWENS PHARMACY #21 ,License Type: Pharmacy (Community),PALO CEDRO, SHASTA, 96073
162,OWENS PHARMACY #22 ,License Type: Pharmacy (Community),MT SHASTA, SISKIYOU, 96067
163,OWENS PHARMACY #25 ,License Type: Pharmacy (Community),WEED, SISKIYOU, 96094
164,OWENS PHARMACY #26 ,License Type: Pharmacy (Community),REDDING, SHASTA, 96001
165,OWENS PHARMACY #3 ,License Type: Pharmacy (Community),ANDERSON, SHASTA, 96007
166,OWENS PHARMACY #5 ,License Type: Pharmacy (Community),RED BLUFF, TEHAMA, 96080
167,OWENS PHARMACY #6 ,License Type: Pharmacy (Community),REDDING, SHASTA, 96001
168,OWENS PHARMACY #8 ,License Type: Pharmacy (Community),REDDING, SHASTA, 96001
169,OWENS PHARMACY #9 ,License Type: Pharmacy (Community),REDDING, SHASTA, 96001
170,PACIFIC PHARMACY SOLUTIONS ,License Type: Pharmacy (Community),ROHNERT PARK, SONOMA, 94928
171,PATTERSON FAMILY PHARMACY ,License Type: Pharmacy (Community),PATTERSON, STANISLAUS, 95363
172,PHARMACA INTEGRATIVE PHARMACY INC ,License Type: Pharmacy (Community),SONOMA, SONOMA, 95476
173,PHC PHARMACY ,License Type: Pharmacy (Community),PETALUMA, SONOMA, 94954
174,PROGRESSIVE PHARMACY ,License Type: Pharmacy (Community),MODESTO, STANISLAUS, 95354
175,RALEYS PHARMACY #233 ,License Type: Pharmacy (Community),RED BLUFF, TEHAMA, 96080
176,RALEYS PHARMACY #242 ,License Type: Pharmacy (Community),YUBA CITY, SUTTER, 95991
177,RALEYS PHARMACY #247 ,License Type: Pharmacy (Community),YREKA, SISKIYOU, 96097
178,RALEYS PHARMACY #248 ,License Type: Pharmacy (Community),REDDING, SHASTA, 96003
179,RALEYS PHARMACY #308 ,License Type: Pharmacy (Community),MODESTO, STANISLAUS, 95350
180,RALEYS PHARMACY #310 ,License Type: Pharmacy (Community),TURLOCK, STANISLAUS, 95382
181,RALEYS PHARMACY #313 ,License Type: Pharmacy (Community),SANTA ROSA, SONOMA, 95403
182,RALEYS PHARMACY #329 ,License Type: Pharmacy (Community),PETALUMA, SONOMA, 94954
183,RALEYS PHARMACY #330 ,License Type: Pharmacy (Community),SUISUN CITY, SOLANO, 94585
184,RALEYS PHARMACY #331 ,License Type: Pharmacy (Community),FAIRFIELD, SOLANO, 94533
185,RALEYS PHARMACY #332 ,License Type: Pharmacy (Community),FAIRFIELD, SOLANO, 94534
186,RALEYS PHARMACY #337 ,License Type: Pharmacy (Community),ROHNERT PARK, SONOMA, 94928
187,RALEYS PHARMACY #339 ,License Type: Pharmacy (Community),MODESTO, STANISLAUS, 95355
188,RALEYS PHARMACY #341 ,License Type: Pharmacy (Community),WINDSOR, SONOMA, 95492
189,RALEYS PHARMACY #343 ,License Type: Pharmacy (Community),BENICIA, SOLANO, 94510
190,RALEYS PHARMACY #344 ,License Type: Pharmacy (Community),VACAVILLE, SOLANO, 95687
191,REDDING RANCHERIA INDIAN HEALTH SVCS ,License Type: Pharmacy (Government Owned Community),REDDING, SHASTA, 96001
192,RITE AID #4212 ,License Type: Pharmacy (Community),SANTA ROSA, SONOMA, 95407
193,RITE AID #6013 ,License Type: Pharmacy (Community),NEWMAN, STANISLAUS, 95360
194,RITE AID #6512 ,License Type: Pharmacy (Community),TURLOCK, STANISLAUS, 95380
195,RITE AID 5910 ,License Type: Pharmacy (Community),BENICIA, SOLANO, 94510
196,RITE AID 5941 ,License Type: Pharmacy (Community),SUISUN CITY, SOLANO, 94585
197,RITE AID 5945 ,License Type: Pharmacy (Community),Probation Terminated/Completed, SOLANO, 94590
198,RITE AID 5965 ,License Type: Pharmacy (Community),APTOS, SANTA CRUZ, 95003
199,RITE AID 5966 ,License Type: Pharmacy (Community),CAPITOLA, SANTA CRUZ, 95010
200,RITE AID 5968 ,License Type: Pharmacy (Community),FELTON, SANTA CRUZ, 95018
201,RITE AID 5969 ,License Type: Pharmacy (Community),FREEDOM, SANTA CRUZ, 95019
202,RITE AID 5979 ,License Type: Pharmacy (Community),SANTA CRUZ, SANTA CRUZ, 95062
203,RITE AID 6003 ,License Type: Pharmacy (Community),CERES, STANISLAUS, 95307
204,RITE AID 6008 ,License Type: Pharmacy (Community),MODESTO, STANISLAUS, 95350
205,RITE AID 6012 ,License Type: Pharmacy (Community),MODESTO, STANISLAUS, 95356
206,RITE AID 6015 ,License Type: Pharmacy (Community),OAKDALE, STANISLAUS, 95361
207,RITE AID 6019 ,License Type: Pharmacy (Community),TURLOCK, STANISLAUS, 95380
208,RITE AID 6021 ,License Type: Pharmacy (Community),SANTA ROSA, SONOMA, 95401
209,RITE AID 6023 ,License Type: Pharmacy (Community),SANTA ROSA, SONOMA, 95405
210,RITE AID 6029 ,License Type: Pharmacy (Community),HEALDSBURG, SONOMA, 95448
211,RITE AID 6031 ,License Type: Pharmacy (Community),SEBASTOPOL, SONOMA, 95472
212,RITE AID 6032 ,License Type: Pharmacy (Community),SONOMA, SONOMA, 95476
213,RITE AID 6095 ,License Type: Pharmacy (Community),REDDING, SHASTA, 96001
214,RITE AID 6100 ,License Type: Pharmacy (Community),ANDERSON, SHASTA, 96007
215,RITE AID 6101 ,License Type: Pharmacy (Community),BURNEY, SHASTA, 96013
216,RITE AID 6103 ,License Type: Pharmacy (Community),MOUNT SHASTA, SISKIYOU, 96067
217,RITE AID 6104 ,License Type: Pharmacy (Community),YREKA, SISKIYOU, 96097
218,RITE AID 6188 ,License Type: Pharmacy (Community),CORNING, TEHAMA, 96021
219,RITE AID NO 6010 ,License Type: Pharmacy (Community),MODESTO, STANISLAUS, 95355
220,RITE AID NO 6014 ,License Type: Pharmacy (Community),OAKDALE, STANISLAUS, 95361
221,RITE AID NO 6097 ,License Type: Pharmacy (Community),REDDING, SHASTA, 96001
222,RITE AID NO 6099 ,License Type: Pharmacy (Community),REDDING, SHASTA, 96002
223,RITE AID NO 6342 ,License Type: Pharmacy (Community),YUBA CITY, SUTTER, 95993
224,RITE AID NO 6480 ,License Type: Pharmacy (Community),SHASTA LAKE, SHASTA, 96019
225,RIVER OAK PHARMACY ,License Type: Pharmacy (Community),OAKDALE, STANISLAUS, 95361
226,RIVERBANK PHARMACY ,License Type: Pharmacy (Community),RIVERBANK, STANISLAUS, 95367
227,RIVERSIDE PHARMACY ,License Type: Pharmacy (Community),YUBA CITY, SUTTER, 95991
228,ROGERS DRUG STORE ,License Type: Pharmacy (Community),MODESTO, STANISLAUS, 95351
229,RP HEALTHCARE INC ,License Type: Pharmacy (Community),SANTA ROSA, SONOMA, 95401
230,SAFESAVE PHARMACY ,License Type: Pharmacy (Community),YUBA CITY, SUTTER, 95991
231,SAFEWAY PHARMACY #0273 ,License Type: Pharmacy (Community),ANDERSON, SHASTA, 96007
232,SAFEWAY PHARMACY #0640 ,License Type: Pharmacy (Community),APTOS, SANTA CRUZ, 95003
233,SAFEWAY PHARMACY #0713 ,License Type: Pharmacy (Community),SANTA ROSA, SONOMA, 95409
234,SAFEWAY PHARMACY #0799 ,License Type: Pharmacy (Community),SANTA CRUZ, SANTA CRUZ, 95062
235,SAFEWAY PHARMACY #0911 ,License Type: Pharmacy (Community),SONOMA, SONOMA, 95476
236,SAFEWAY PHARMACY #0918 ,License Type: Pharmacy (Community),ROHNERT PARK, SONOMA, 94928
237,SAFEWAY PHARMACY #0933 ,License Type: Pharmacy (Community),SEBASTOPOL, SONOMA, 95472
238,SAFEWAY PHARMACY #0950 ,License Type: Pharmacy (Community),GUERNEVILLE, SONOMA, 94556
239,SAFEWAY PHARMACY #0956 ,License Type: Pharmacy (Community),SANTA ROSA, SONOMA, 95401
240,SAFEWAY PHARMACY #0989 ,License Type: Pharmacy (Community),VALLEJO, SOLANO, 94591
241,SAFEWAY PHARMACY #0998 ,License Type: Pharmacy (Community),HEALDSBURG, SONOMA, 95448
242,SAFEWAY PHARMACY #1109 ,License Type: Pharmacy (Community),VACAVILLE, SOLANO, 95687
243,SAFEWAY PHARMACY #1127 ,License Type: Pharmacy (Community),FAIRFIELD, SOLANO, 94533
244,SAFEWAY PHARMACY #1258 ,License Type: Pharmacy (Community),DIXON, SOLANO, 95620
245,SAFEWAY PHARMACY #1265 ,License Type: Pharmacy (Community),SANTA ROSA, SONOMA, 95405
246,SAFEWAY PHARMACY #1434 ,License Type: Pharmacy (Community),WINDSOR, SONOMA, 95492
247,SAFEWAY PHARMACY #1576 ,License Type: Pharmacy (Community),SANTA ROSA, SONOMA, 95403
248,SAFEWAY PHARMACY #1631 ,License Type: Pharmacy (Community),VALLEJO, SOLANO, 94591
249,SAFEWAY PHARMACY #1661 ,License Type: Pharmacy (Community),MODESTO, STANISLAUS, 95350
250,SAFEWAY PHARMACY #1826 ,License Type: Pharmacy (Community),REDDING, SHASTA, 96002
251,SAFEWAY PHARMACY #1929 ,License Type: Pharmacy (Community),SOQUEL, SANTA CRUZ, 95073
252,SAFEWAY PHARMACY #1954 ,License Type: Pharmacy (Community),REDDING, SHASTA, 96001
253,SAFEWAY PHARMACY #1968 ,License Type: Pharmacy (Community),TURLOCK, STANISLAUS, 95380
254,SAFEWAY PHARMACY #2607 ,License Type: Pharmacy (Community),SANTA CRUZ, SANTA CRUZ, 95060
255,SAFEWAY PHARMACY #3011 ,License Type: Pharmacy (Community),PETALUMA, SONOMA, 94954
256,SAFEWAY PHARMACY #4178 ,License Type: Pharmacy (Community),BURNEY, SHASTA, 96013
257,SAM'S CLUB PHARMACY NO 10-6405 ,License Type: Pharmacy (Community),YUBA CITY, SUTTER, 95993
258,SAM'S CLUB PHARMACY NO 10-6433 ,License Type: Pharmacy (Community),VACAVILLE, SOLANO, 95687
259,SAVE MART PHARMACY #635 ,License Type: Pharmacy (Community),CERES, STANISLAUS, 95307
260,SAVE MART SUPERMARKETS #105 ,License Type: Pharmacy (Community),RIVERBANK, STANISLAUS, 95367
261,SAVE MART SUPERMARKETS #49 ,License Type: Pharmacy (Community),MODESTO, STANISLAUS, 95350
262,SAVE MART SUPERMARKETS #82 ,License Type: Pharmacy (Community),PATTERSON, STANISLAUS, 95363
263,SAVE MART SUPERMARKETS #86 ,License Type: Pharmacy (Community),MODESTO, STANISLAUS, 95355
264,SAVE MART SUPERMARKETS #95 ,License Type: Pharmacy (Community),MODESTO, STANISLAUS, 95356
265,SEBASTOPOL FAMILY PHARMACY INC ,License Type: Pharmacy (Community),SEBASTOPOL, SONOMA, 95472
266,SENIOR CARE PHARMACY SERVICES FAIRFIELD INC ,License Type: Pharmacy (Community),FAIRFIELD, SOLANO, 94534
267,SHOPKO PHARMACY #2096 ,License Type: Pharmacy (Community),REDDING, SHASTA, 96003
268,SONOMA COUNTY INDIAN HEALTH PROJECT INC ,License Type: Pharmacy (Community),SANTA ROSA, SONOMA, 95401
269,SONOMA VALLEY COMMUNITY PHARMACY ,License Type: Pharmacy (Community),SONOMA, SONOMA, 95476
270,ST JOSEPH OUTPATIENT CANCER CENTER - FOUNTAINGROVE ,License Type: Pharmacy (Community),SANTA ROSA, SONOMA, 95403
271,ST JOSEPH OUTPATIENT CANCER CENTER - LYNCH CREEK ,License Type: Pharmacy (Community),PETALUMA, SONOMA, 94954
272,STUDENT HEALTH CTR PHCY ,License Type: Pharmacy (Government Owned Community),ROHNERT PARK, SONOMA, 94928
273,SUTTER PHARMACY ,License Type: Pharmacy (Community),Accusation filed, SUTTER, 95991
274,SUTTER PHARMACY SOLUTIONS ,License Type: Pharmacy (Community),YUBA CITY, SUTTER, 95991
275,THRIFTY PAYLESS INC DBA RITE AID #6714 ,License Type: Pharmacy (Community),PALO CEDRO, SHASTA, 96073
276,TIN RX ,License Type: Pharmacy (Community),CORNING, TEHAMA, 96021
277,TOWER PHARMACY ,License Type: Pharmacy (Community),TURLOCK, STANISLAUS, 95380
278,TURLOCK'S NEW VISION PHARMACY ,License Type: Pharmacy (Community),TURLOCK, STANISLAUS, 95382
279,TUTTLE'S HOEN PHARMACY ,License Type: Pharmacy (Community),SANTA ROSA, SONOMA, 95405
280,TUTTLES DOYLE PARK PHARMACY ,License Type: Pharmacy (Community),SANTA ROSA, SONOMA, 95405
281,UCSC COWELL STUDENT HEALTH CENTER ,License Type: Pharmacy (Government Owned Community),SANTA CRUZ, SANTA CRUZ, 95064
282,VALLE VERDE PHARMACY ,License Type: Pharmacy (Community),FREEDOM, SANTA CRUZ, 95019
283,WAL MART PHARMACY 10 1704 ,License Type: Pharmacy (Community),VACAVILLE, SOLANO, 95687
284,WAL MART PHARMACY 10-2048 ,License Type: Pharmacy (Community),FAIRFIELD, SOLANO, 94533
285,WAL-MART PHARMACY #10-1983 ,License Type: Pharmacy (Community),CERES, STANISLAUS, 95307
286,WAL-MART PHARMACY 10-1587 ,License Type: Pharmacy (Community),MODESTO, STANISLAUS, 95350
287,WAL-MART PHARMACY 10-1630 ,License Type: Pharmacy (Community),YREKA, SISKIYOU, 96097
288,WAL-MART PHARMACY 10-1755 ,License Type: Pharmacy (Community),ROHNERT PARK, SONOMA, 94928
289,WAL-MART PHARMACY 10-1903 ,License Type: Pharmacy (Community),YUBA CITY, SUTTER, 95993
290,WAL-MART PHARMACY 10-1963 ,License Type: Pharmacy (Community),TURLOCK, STANISLAUS, 95380
291,WAL-MART PHARMACY 10-2537 ,License Type: Pharmacy (Community),REDDING, SHASTA, 96003
292,WAL-MART PHARMACY 10-3046 ,License Type: Pharmacy (Community),MODESTO, STANISLAUS, 95355
293,WAL-MART PHARMACY 10-3047 ,License Type: Pharmacy (Community),TURLOCK, STANISLAUS, 95380
294,WAL-MART PHARMACY 10-5007 ,License Type: Pharmacy (Community),VACAVILLE, SOLANO, 95687
295,WAL-MART PHARMACY 10-5608 ,License Type: Pharmacy (Community),VACAVILLE, SOLANO, 95687
296,WAL-MART PHARMACY 10-5609 ,License Type: Pharmacy (Community),VALLEJO, SOLANO, 94589
297,WAL-MART PHARMACY 10-5710 ,License Type: Pharmacy (Community),MODESTO, STANISLAUS, 95356
298,WAL-MART PHARMACY 10-5843 ,License Type: Pharmacy (Community),PATTERSON, STANISLAUS, 95363
299,WALGREENS #00993 ,License Type: Pharmacy (Community),YUBA CITY, SUTTER, 95991
300,WALGREENS #01940 ,License Type: Pharmacy (Community),FAIRFIELD, SOLANO, 94533
301,WALGREENS #02575 ,License Type: Pharmacy (Community),VALLEJO, SOLANO, 94591
302,WALGREENS #02644 ,License Type: Pharmacy (Community),VACAVILLE, SOLANO, 95687
303,WALGREENS #02810 ,License Type: Pharmacy (Community),FREEDOM, SANTA CRUZ, 95019
304,WALGREENS #02842 ,License Type: Pharmacy (Community),MODESTO, STANISLAUS, 95355
305,WALGREENS #02865 ,License Type: Pharmacy (Community),MODESTO, STANISLAUS, 95350
306,WALGREENS #02902 ,License Type: Pharmacy (Community),CERES, STANISLAUS, 95351
307,WALGREENS #03030 ,License Type: Pharmacy (Community),TURLOCK, STANISLAUS, 95380
308,WALGREENS #03084 ,License Type: Pharmacy (Community),COTATI, SONOMA, 94931
309,WALGREENS #03158 ,License Type: Pharmacy (Community),SANTA CRUZ, SANTA CRUZ, 95062
310,WALGREENS #03171 ,License Type: Pharmacy (Community),VALLEJO, SOLANO, 94590
311,WALGREENS #03297 ,License Type: Pharmacy (Community),SANTA ROSA, SONOMA, 95403
312,WALGREENS #04243 ,License Type: Pharmacy (Community),REDDING, SHASTA, 96002
313,WALGREENS #04331 ,License Type: Pharmacy (Community),MODESTO, STANISLAUS, 95351
314,WALGREENS #05498 ,License Type: Pharmacy (Community),MODESTO, STANISLAUS, 95355
315,WALGREENS #05699 ,License Type: Pharmacy (Community),REDDING, SHASTA, 96003
316,WALGREENS #05781 ,License Type: Pharmacy (Community),REDDING, SHASTA, 96001
317,WALGREENS #06214 ,License Type: Pharmacy (Community),SCOTTS VALLEY, SANTA CRUZ, 95066
318,WALGREENS #06355 ,License Type: Pharmacy (Community),MODESTO, STANISLAUS, 95356
319,WALGREENS #06722 ,License Type: Pharmacy (Community),SANTA ROSA, SONOMA, 95409
320,WALGREENS #07313 ,License Type: Pharmacy (Community),MODESTO, STANISLAUS, 95350
321,WALGREENS #07433 ,License Type: Pharmacy (Community),YUBA CITY, SUTTER, 95993
322,WALGREENS #07653 ,License Type: Pharmacy (Community),RED BLUFF, TEHAMA, 96080
323,WALGREENS #09955 ,License Type: Pharmacy (Community),PATTERSON, STANISLAUS, 95363
324,WALGREENS #11705 ,License Type: Pharmacy (Community),MODESTO, STANISLAUS, 95355
325,WALGREENS #11934 ,License Type: Pharmacy (Community),OAKDALE, STANISLAUS, 95361
326,WALGREENS #12259 ,License Type: Pharmacy (Community),YUBA CITY, SUTTER, 95993
327,WALGREENS #15108 ,License Type: Pharmacy (Community),SANTA CRUZ, SANTA CRUZ, 95060
328,WALGREENS #15432 ,License Type: Pharmacy (Community),FAIRFIELD, SOLANO, 94533
329,WALMART PHARMACY #10-3708 ,License Type: Pharmacy (Community),SUISUN CITY, SOLANO, 94585
330,WALMART PHARMACY #10-5133 ,License Type: Pharmacy (Community),ANDERSON, SHASTA, 96007
331,WALMART PHARMACY #10-5139 ,License Type: Pharmacy (Community),DIXON, SOLANO, 95620
332,WALMART PHARMACY 10-1608 ,License Type: Pharmacy (Community),RED BLUFF, TEHAMA, 96080
333,WALMART PHARMACY 10-2468 ,License Type: Pharmacy (Community),ROHNERT PARK, SONOMA, 94928
334,WALMART PHARMACY NO 10 2553 ,License Type: Pharmacy (Community),WINDSOR, SONOMA, 95492
335,WATSONVILLE HOSPITAL CORPORATION D/B/A WATSONVILLE COMMUNITY HOSP ,License Type: Pharmacy (Community),WATSONVILLE, SANTA CRUZ, 95076
336,WATSONVILLE PHARMACY ,License Type: Pharmacy (Community),WATSONVILLE, SANTA CRUZ, 95076
337,WEST-END PHARMACY ,License Type: Pharmacy (Community),CORNING, TEHAMA, 96021
338,WESTSIDE PHARMACY ,License Type: Pharmacy (Community),SANTA CRUZ, SANTA CRUZ, 95060
339,YOUNAN TOWER PHARMACY ,License Type: Pharmacy (Community),TURLOCK, STANISLAUS, 95382
