,name,license_type,city,county,zip
0,4TH STREET LASER AND SURGERY CENTER ,License Type: Clinic,SANTA ROSA, SONOMA, 95404
1,ADVANCED MEDICAL CARE CENTER LLC ,License Type: Clinic,VISALIA, TULARE, 93277
2,ALLIANCE MEDICAL CENTER ,License Type: Clinic,WINDSOR, SONOMA, 95492
3,ALLIANCE MEDICAL CENTER ,License Type: Clinic,HEALDSBURG, SONOMA, 95448
4,ALTA FAMILY HEALTH CLINIC INC ,License Type: Clinic,DINUBA, TULARE, 93618
5,AMPLA HEALTH LINDHURST MEDICAL & DENTAL ,License Type: Clinic,OLIVEHURST, YUBA, 95961
6,AMPLA HEALTH LOS MOLINOS MEDICAL ,License Type: Clinic,LOS MOLINOS, TEHAMA, 96055
7,AMPLA HEALTH RICHLAND MEDICAL ,License Type: Clinic,YUBA CITY, SUTTER, 95991
8,AMPLA HEALTH YUBA CITY MEDICAL ,License Type: Clinic,YUBA CITY, SUTTER, 95991
9,AMPLA HEALTH YUBA CITY PEDIATRICS ,License Type: Clinic,YUBA CITY, SUTTER, 95991
10,BROOKWOOD HEALTH CENTER ,License Type: Clinic,SANTA ROSA, SONOMA, 95404
11,CA MINIMALLY INVASIVE SURG CTR INC ,License Type: Clinic,THOUSAND OAKS, VENTURA, 91320
12,CALIFORNIA STATE UNIVERSITY ,License Type: Clinic (Government Owned),TURLOCK, STANISLAUS, 95382
13,CERES MEDICAL OFFICE ,License Type: Clinic (Government Owned),CERES, STANISLAUS, 95307
14,CHANNEL ISLANDS SURGICENTER ,License Type: Clinic,OXNARD, VENTURA, 93031
15,CITY OF HOPE SIMI VALLEY ,License Type: Clinic,SIMI VALLEY, VENTURA, 93065
16,"COMMUNICARE HEALTH CENTERS, HANSEN FAMILY HEALTH CENTER ",License Type: Clinic,WOODLAND, YOLO, 95695
17,COMMUNITY CORRECTIONS ANNEX FOR MEDICATIONS ,License Type: Clinic (Government Owned),MODESTO, STANISLAUS, 95358
18,"COMMUNITY MEDICAL CENTERS, ESPARTO ",License Type: Clinic,ESPARTO, YOLO, 95627
19,COURTYARD SURGERY PAVILION ,License Type: Clinic,VISALIA, TULARE, 93291
20,DAVIS COMMUNITY CLINIC ,License Type: Clinic,DAVIS, YOLO, 95616
21,ELSIE ALLEN HEALTH CENTER ,License Type: Clinic,SANTA ROSA, SONOMA, 95407
22,FAMILY HEALTHCARE NETWORK ,License Type: Clinic,DINUBA, TULARE, 93618
23,FAMILY HEALTHCARE NETWORK ,License Type: Clinic,WOODLAKE, TULARE, 93286
24,FAMILY HEALTHCARE NETWORK ,License Type: Clinic,FARMERSVILLE, TULARE, 93223
25,FAMILY HEALTHCARE NETWORK ,License Type: Clinic,IVANHOE, TULARE, 93235
26,FAMILY HEALTHCARE NETWORK ,License Type: Clinic,VISALIA, TULARE, 93291
27,FAMILY HEALTHCARE NETWORK ,License Type: Clinic,VISALIA, TULARE, 93291
28,FAMILY HEALTHCARE NETWORK ,License Type: Clinic,VISALIA, TULARE, 93291
29,FAMILY HEALTHCARE NETWORK ,License Type: Clinic,TULARE, TULARE, 93274
30,FAMILY HEALTHCARE NETWORK ,License Type: Clinic,TULARE, TULARE, 93274
31,FAMILY HEALTHCARE NETWORK ,License Type: Clinic,TRAVER, TULARE, 93673
32,FAMILY HEALTHCARE NETWORK ,License Type: Clinic,THREE RIVERS, TULARE, 93271
33,FAMILY HEALTHCARE NETWORK ,License Type: Clinic,TERRA BELLA, TULARE, 93270
34,FAMILY HEALTHCARE NETWORK ,License Type: Clinic,STRATHMORE, TULARE, 93267
35,FAMILY HEALTHCARE NETWORK ,License Type: Clinic,SPRINGVILLE, TULARE, 93265
36,FAMILY HEALTHCARE NETWORK ,License Type: Clinic,PIXLEY, TULARE, 93256
37,FARMERSVILLE HEALTH CENTER TULARE COUNTY HEALTH ,License Type: Clinic (Government Owned),FARMERSVILLE, TULARE, 93223
38,FREE CLINIC OF SIMI VALLEY ,License Type: Clinic,SIMI VALLEY, VENTURA, 93063
39,FSP CO-OCCURING DISORDERS PROJECT ,License Type: Clinic (Government Owned),CERES, STANISLAUS, 95307
40,GOLDEN VALLEY HEALTH CENTER ,License Type: Clinic,MODESTO, STANISLAUS, 95358
41,GOLDEN VALLEY HEALTH CENTER ,License Type: Clinic,MODESTO, STANISLAUS, 95354
42,GOLDEN VALLEY HEALTH CENTER ,License Type: Clinic,MODESTO, STANISLAUS, 95351
43,GOLDEN VALLEY HEALTH CENTER ,License Type: Clinic,PATTERSON, STANISLAUS, 95363
44,GOLDEN VALLEY HEALTH CENTERS ,License Type: Clinic,CERES, STANISLAUS, 95307
45,GOLDEN VALLEY HEALTH CENTERS ,License Type: Clinic,NEWMAN, STANISLAUS, 95360
46,GOLDEN VALLEY HEALTH CENTERS ,License Type: Clinic,WESTLEY, STANISLAUS, 95387
47,GOLDEN VALLEY HEALTH CENTERS ,License Type: Clinic,MODESTO, STANISLAUS, 95354
48,GOLDEN VALLEY HEALTH CENTERS ,License Type: Clinic,MODESTO, STANISLAUS, 95350
49,GOLDEN VALLEY HEALTH CENTERS ,License Type: Clinic,MODESTO, STANISLAUS, 95354
50,GOLDEN VALLEY HEALTH CENTERS ,License Type: Clinic,RIVERBANK, STANISLAUS, 95367
51,GOLDEN VALLEY HEALTH CENTERS ,License Type: Clinic,TURLOCK, STANISLAUS, 95380
52,GOLDEN VALLEY HEALTH CENTERS ,License Type: Clinic,TURLOCK, STANISLAUS, 95380
53,HAPY BEAR SURGERY CENTER LLC ,License Type: Clinic,TULARE, TULARE, 93274
54,HIGH RISK HEALTH AND SENIOR ACCESS (HRHSA) ,License Type: Clinic (Government Owned),MODESTO, STANISLAUS, 95354
55,HUGHSON MEDICAL OFFICE ,License Type: Clinic (Government Owned),HUGHSON, STANISLAUS, 95326
56,INTEGRATED FORENSICS TEAM ,License Type: Clinic (Government Owned),MODESTO, STANISLAUS, 95354
57,JOSIE'S PLACE SERVICE TEAM ,License Type: Clinic (Government Owned),MODESTO, STANISLAUS, 95354
58,"JOURNEY LITE OF THE CENTRAL COAST, LLC ",License Type: Clinic,THOUSAND OAKS, VENTURA, 91361
59,JUVENILE JUSTICE ,License Type: Clinic (Government Owned),MODESTO, STANISLAUS, 95351
60,KAWEAH DELTA HEALTH CARE INC TULARE CARDIOLOGY CENTER ,License Type: Clinic,TULARE, TULARE, 93274
61,LEAPS & BOUNDS ,License Type: Clinic (Government Owned),MODESTO, STANISLAUS, 95356
62,LIVINGSTON COMMUNITY HEALTH - BENTLEY HEALTH CENTER ,License Type: Clinic,WATERFORD, STANISLAUS, 95386
63,LIVINGSTON COMMUNITY HEALTH - LAS PALMAS HEALTH CENTER ,License Type: Clinic,PATTERSON, STANISLAUS, 95363
64,MACT MEDICAL SONORA ,License Type: Clinic,SONORA, TUOLUMNE, 95370
65,MCHENRY MEDICAL OFFICE ,License Type: Clinic (Government Owned),MODESTO, STANISLAUS, 95350
66,MILL CREEK AMBULATORY SURGERY CENTER ,License Type: Clinic,VISALIA, TULARE, 93291
67,MODESTO RECOVERY SERVICES ,License Type: Clinic (Government Owned),MODESTO, STANISLAUS, 95354
68,MODESTO SURGERY CENTER INC ,License Type: Clinic,MODESTO, STANISLAUS, 95350
69,NATRAJ SURGERY CLINIC INC ,License Type: Clinic,PORTERVILLE, TULARE, 93257
70,NOBLE SURGERY CENTER ,License Type: Clinic,VISALIA, TULARE, 93277
71,"NORTH BAY EYE ASSOCIATES, ASC ",License Type: Clinic,SANTA ROSA, SONOMA, 95401
72,NORTH OXNARD PUBLIC HEALTH ,License Type: Clinic (Government Owned),OXNARD, VENTURA, 93036
73,NORTHERN CALIFORNIA SURGERY CENTER ,License Type: Clinic,TURLOCK, STANISLAUS, 95382
74,PACIFIC SURGERY CENTER OF VENTURA ,License Type: Clinic,VENTURA, VENTURA, 93003
75,PARADISE MEDICAL OFFICE ,License Type: Clinic (Government Owned),MODESTO, STANISLAUS, 95351
76,PDI SURGERY CENTER ,License Type: Clinic,WINDSOR, SONOMA, 95492
77,PEDIATRIC CLINIC ,License Type: Clinic (Government Owned),MODESTO, STANISLAUS, 95350
78,PLANNED PARENTHOOD ,License Type: Clinic,WOODLAND, YOLO, 95695
79,PLANNED PARENTHOOD ,License Type: Clinic,YUBA CITY, SUTTER, 95991
80,PLANNED PARENTHOOD ,License Type: Clinic,MODESTO, STANISLAUS, 95350
81,"PLANNED PARENTHOOD MAR MONTE, INC ""VISALIA STEVENSON CENTER"" ",License Type: Clinic,VISALIA, TULARE, 93291
82,PLANNED PARENTHOOD OF THOUSAND OAKS ,License Type: Clinic,THOUSAND OAKS, VENTURA, 91320
83,PLANNED PARENTHOOD VENTURA CENTER ,License Type: Clinic,VENTURA, VENTURA, 93003
84,PLANNED PARENTHOOD: SHASTA-DIABLO ,License Type: Clinic,SANTA ROSA, SONOMA, 95405
85,PUEBLO NUEVO ,License Type: Clinic,MODESTO, STANISLAUS, 95350
86,RIDEOUT CARDIOTHORACIC CLINIC ,License Type: Clinic,MARYSVILLE, YUBA, 95901
87,RIDEOUT EAR NOSE & THROAT CLINIC ,License Type: Clinic,YUBA CITY, SUTTER, 95991
88,RIDEOUT FAMILY PHYSICIANS CLINIC ,License Type: Clinic,YUBA CITY, SUTTER, 95991
89,RIDEOUT GENERAL SURGERY CLINIC ,License Type: Clinic,YUBA CITY, SUTTER, 95991
90,RIDEOUT MULTI-SURGICAL CLINIC ,License Type: Clinic,YUBA CITY, SUTTER, 95991
91,RIDEOUT OCCUPATION HEALTH AND DRUG TESTING SERVICES CLINIC ,License Type: Clinic,YUBA CITY, SUTTER, 95991
92,RIDEOUT PRIMARY CARE CLINIC AT PLUMAS STREET ,License Type: Clinic,YUBA CITY, SUTTER, 95991
93,RIDEOUT PRIMARY CARE CLINIC AT TOWN CENTER ,License Type: Clinic,YUBA CITY, SUTTER, 95991
94,RIDEOUT VASCULAR CLINIC ,License Type: Clinic,MARYSVILLE, YUBA, 95901
95,RIDEOUT WOMENS HEALTH CLINIC ,License Type: Clinic,YUBA CITY, SUTTER, 95991
96,RIVER SURGICAL INSTITUTE ,License Type: Clinic,MODESTO, STANISLAUS, 95350
97,ROLLING OAKS SURGERY CENTER LLC ,License Type: Clinic,THOUSAND OAKS, VENTURA, 91361
98,ROSELAND PEDIATRICS ,License Type: Clinic,SANTA ROSA, SONOMA, 95407
99,SALIDA SURGERY CENTER ,License Type: Clinic,SALIDA, STANISLAUS, 95368
100,SALUD CLINIC ,License Type: Clinic,WEST SACRAMENTO, YOLO, 95605
101,SANTA ROSA COMMUNITY DENTAL CENTER- DUTTON CAMPUS A ,License Type: Clinic,SANTA ROSA, SONOMA, 95401
102,SANTA ROSA COMMUNITY HEALTH CENTERS-DUTTON CAMPUS ,License Type: Clinic,SANTA ROSA, SONOMA, 95401
103,SANTA ROSA SURGERY AND ENDOSCOPY CENTER ,License Type: Clinic,SANTA ROSA, SONOMA, 95403
104,SAXON SURGICAL CENTER INC ,License Type: Clinic,THOUSAND OAKS, VENTURA, 91360
105,SEBASTOPOL AMBULATORY SURGERY CENTER ,License Type: Clinic,SEBASTOPOL, SONOMA, 95472
106,SED/SCHOOL BASED CLINIC ,License Type: Clinic (Government Owned),MODESTO, STANISLAUS, 95354
107,SEQUOIA PROMPT CARE ,License Type: Clinic,VISALIA, TULARE, 93292
108,SEQUOIA PROMPT CARE ,License Type: Clinic (Government Owned),VISALIA, TULARE, 93277
109,SEQUOIA SURGERY CENTER ,License Type: Clinic,VISALIA, TULARE, 93277
110,SIERRA AMBULATORY SURGERY CENTER ,License Type: Clinic,VISALIA, TULARE, 93291
111,SIMI SURGERY CENTER INC ,License Type: Clinic,SIMI VALLEY, VENTURA, 93065
112,SONOMA STATE UNIV STUDENT HEALTH CTR ,License Type: Clinic (Government Owned),ROHNERT PARK, SONOMA, 94928
113,SONOMA VALLEY COMMUNITY HEALTH CENTER ,License Type: Clinic,SONOMA, SONOMA, 95476
114,SONORA EYE SURGERY CENTER MEDICAL CLINIC ,License Type: Clinic,SONORA, TUOLUMNE, 95370
115,SOUTH OXNARD PUBLIC HEALTH ,License Type: Clinic (Government Owned),OXNARD, VENTURA, 93030
116,SOUTHERN TRINITY HEALTH SERVICES ,License Type: Clinic,MAD RIVER, TRINITY, 95552
117,SOUTHWEST COMMUNITY HEALTH CENTER ,License Type: Clinic,SANTA ROSA, SONOMA, 95407
118,SPANISH HILLS SURGERY CENTER LLC ,License Type: Clinic,CAMARILLO, VENTURA, 93010
119,SPECIALTY SURGICAL CENTER OF WESTLAKE VILLAGE ,License Type: Clinic,WESTLAKE VILLAGE, VENTURA, 91361
120,STANISLAUS SURGICAL HOSPITAL LLC (COFFEE ROAD SURGERY CENTER) ,License Type: Clinic,MODESTO, STANISLAUS, 95355
121,STANISLAUS SURGICAL HOSPITAL LLC (PRECISION IMAGING) ,License Type: Clinic,MODESTO, STANISLAUS, 95355
122,SUTTER NORTH SURGERY CENTER ,License Type: Clinic,YUBA CITY, SUTTER, 95991
123,SUTTER VALLEY MEDICAL FOUNDATION - BRIGGSMORE ASC ,License Type: Clinic,MODESTO, STANISLAUS, 95355
124,SYLVAN SURGERY CENTER INC ,License Type: Clinic,MODESTO, STANISLAUS, 95355
125,T SURGERY CENTER ,License Type: Clinic,VENTURA, VENTURA, 93003
126,TEHAMA COUNTY HEALTH SERVICES AGENCY ,License Type: Clinic (Government Owned),RED BLUFF, TEHAMA, 96080
127,THE REGENTS OF THE UNIVERSITY OF CA CONSTITUTIONAL CORP ,License Type: Clinic (Government Owned),DAVIS, YOLO, 95616
128,TOWER HEALTH AND WELLNESS SURGERY CENTER ,License Type: Clinic,TURLOCK, STANISLAUS, 95382
129,TURLOCK MEDICAL OFFICE ,License Type: Clinic (Government Owned),TURLOCK, STANISLAUS, 95382
130,TURLOCK RECOVERY SERVICES ,License Type: Clinic (Government Owned),TURLOCK, STANISLAUS, 95382
131,UC DAVIS MEDICAL GROUP DAVIS SPECIALTY CLINIC ,License Type: Clinic (Government Owned),DAVIS, YOLO, 95616
132,VENTURA ENDOSCOPY CENTER LLC ,License Type: Clinic,VENTURA, VENTURA, 93003
133,VENTURA SURGERY CENTER INC ,License Type: Clinic,VENTURA, VENTURA, 93003
134,VIDA SANA FAMILY PRACTICE ,License Type: Clinic,LINDSAY, TULARE, 93247
135,VIDA SANA FAMILY PRACTICE 2 ,License Type: Clinic,LINDSAY, TULARE, 93247
136,VIDA SANA PEDIATRICS ,License Type: Clinic,LINDSAY, TULARE, 93247
137,"VISALIA HEALTH CENTER, TULARE COUNTY HEALTH ",License Type: Clinic (Government Owned),VISALIA, TULARE, 93291
138,VISALIA MEDICAL CLINIC AESTHETIC CENTER- AN AFFILIATE OF KAWEAH D ,License Type: Clinic,VISALIA, TULARE, 93291
139,VISALIA MEDICAL CLINIC PHYSICAL THERAPY CENTER- AN AFFILIATE OF K ,License Type: Clinic,VISALIA, TULARE, 93291
140,VISALIA MEDICAL CLINIC- AN AFFILIATE OF KAWEAH DELTA MEDICAL FOUN ,License Type: Clinic,VISALIA, TULARE, 93291
141,VISTA FAMILY HEALTH CENTER ,License Type: Clinic,SANTA ROSA, SONOMA, 95403
142,WELLNESS RECOVERY CENTER ,License Type: Clinic (Government Owned),MODESTO, STANISLAUS, 95354
143,WESTLAKE EYE SURGERY CENTER ,License Type: Clinic,WESTLAKE VILLAGE, VENTURA, 91361
144,WESTLAKE SURGICAL CENTER ,License Type: Clinic,WESTLAKE VILLAGE, VENTURA, 91361
145,YOLO COUNTY HEALTH AND HUMAN SERVICES AGENCY ,License Type: Clinic (Government Owned),WOODLAND, YOLO, 95695
