,name,license_type,city,county,zip
0,34TH ST COMMUNITY HEALTH CENTER ,License Type: Clinic,BAKERSFIELD, KERN, 93301
1,77TH STREET JAIL CLINIC ,License Type: Clinic (Government Owned),LOS ANGELES, LOS ANGELES, 90003
2,AAA COMPREHENSIVE HEALTHCARE INC ,License Type: Clinic,NORTH HOLLYWOOD, LOS ANGELES, 91605
3,ABBEY APARTMENTS ,License Type: Clinic,LOS ANGELES, LOS ANGELES, 90014
4,ADVANCED DIAGNOSTIC & SURGICAL CTR ,License Type: Clinic,ALHAMBRA, LOS ANGELES, 91754
5,ADVANCED ENDOSCOPY AND PAIN CENTER LLC ,License Type: Clinic,LANCASTER, LOS ANGELES, 93534
6,ADVENTIST HEALTH CLEAR LAKE KONOCTI WELLNESS CENTER ,License Type: Clinic,LOWER LAKE, LAKE, 95457
7,ADVENTIST HEALTH CLEAR LAKE MADICAL OFFICE ,License Type: Clinic,CLEARLAKE, LAKE, 95422
8,ADVENTIST HEALTH CLEAR LAKE MEDICAL OFFICE ,License Type: Clinic,MIDDLETOWN, LAKE, 95461
9,ADVENTIST HEALTH CLEAR LAKE MEDICAL OFFICE ,License Type: Clinic,KELSEYVILLE, LAKE, 95422
10,ADVENTIST HEALTH HANFORD ,License Type: Clinic,HANFORD, KINGS, 93230
11,AIRPORT ENDOSCOPY CENTER ,License Type: Clinic,LOS ANGELES, LOS ANGELES, 90045
12,ALAMEDA SURGERY CENTER LP ,License Type: Clinic,BURBANK, LOS ANGELES, 91505
13,"ALL FOR HEALTH, HEALTH FOR ALL ",License Type: Clinic,GLENDALE, LOS ANGELES, 91205
14,ALL KIDS DENTAL SURGERY CENTER ,License Type: Clinic,BAKERSFIELD, KERN, 93301
15,ALL-INCLUSIVE COMMUNITY HEALTH CNTR ,License Type: Clinic,BURBANK, LOS ANGELES, 91504
16,ALTA MEDICAL GROUP - GRAND PLAZA ,License Type: Clinic,LOS ANGELES, LOS ANGELES, 90012
17,ALVARADO EYE SURGERY CENTER LLC ,License Type: Clinic,LOS ANGELES, LOS ANGELES, 90057
18,AMPLA HEALTH HAMILTON CITY MEDICAL ,License Type: Clinic,HAMILTON CITY, GLENN, 95951
19,AMPLA HEALTH ORLAND MEDICAL & DENTAL ,License Type: Clinic,ORLAND, GLENN, 95963
20,ANTELOPE VALLEY COMMUNITY CLINIC - PALMDALE ,License Type: Clinic,PALMDALE, LOS ANGELES, 93550
21,ANTELOPE VALLEY COMMUNITY CLINIC HEALTH AND WELLNESS CENTER ,License Type: Clinic,LANCASTER, LOS ANGELES, 93534
22,"ANTELOPE VALLEY HEALTH CENTER, FAMILY  PLANNING & PRENATAL CLINIC ",License Type: Clinic (Government Owned),LANCASTER, LOS ANGELES, 93535
23,ANTELOPE VALLEY SURGERY CENTER ,License Type: Clinic,LANCASTER, LOS ANGELES, 93534
24,APLA HEALTH & WELLNESS - LONG BEACH CENTER ,License Type: Clinic,LONG BEACH, LOS ANGELES, 90813
25,APLA HEALTH & WELLNESS CENTER ,License Type: Clinic,LOS ANGELES, LOS ANGELES, 90016
26,ARCADIA OUTPATIENT SURGERY CENTER ,License Type: Clinic,ARCADIA, LOS ANGELES, 91007
27,ARIA COMMUNITY HEALTH CENTER ,License Type: Clinic,LEMOORE, KINGS, 93245
28,ARIA COMMUNITY HEALTH CENTER AMC ,License Type: Clinic,AVENAL, KINGS, 93204
29,ARIA COMMUNITY HEALTH CENTER KETTLEMAN CITY ,License Type: Clinic,KETTLEMAN CITY, KINGS, 93239
30,ARIA COMMUNITY HEALTH CENTER LEMOORE 209 ,License Type: Clinic,LEMOORE, KINGS, 93245
31,ARIA COMMUNITY HEALTH CENTER STRATFORD ,License Type: Clinic,STRATFORD, KINGS, 93266
32,ARVIN COMMUNITY HEALTH CENTER ,License Type: Clinic,ARVIN, KERN, 93203
33,ASIAN PACIFIC HEALTH CARE VENTURE ,License Type: Clinic,EL MONTE, LOS ANGELES, 91731
34,ASIAN PACIFIC HEALTH CARE VENTURE INC ,License Type: Clinic,LOS ANGELES, LOS ANGELES, 90027
35,ASIAN PACIFIC HEALTH CARE VENTURE INC ,License Type: Clinic,LOS ANGELES, LOS ANGELES, 90027
36,"ASIAN PACIFIC HEALTH CARE VENTURE, INC. ",License Type: Clinic,LOS ANGELES, LOS ANGELES, 90026
37,AVENAL COMMUNITY HEALTH CENTER ,License Type: Clinic,AVENAL, KINGS, 93204
38,"BAHAMAS SURGERY CENTER, LLC ",License Type: Clinic,BAKERSFIELD, KERN, 93309
39,BAKER STREET VILLAGE COMMUNITY HEALTH CENTER ,License Type: Clinic,BAKERSFIELD, KERN, 93305
40,BARRY J NIDORF JUVENILE HALL CLINIC ,License Type: Clinic (Government Owned),SYLMAR, LOS ANGELES, 91342
41,BARTZ-ALTADONNA COMMUNITY HEALTH CENTER ,License Type: Clinic,LANCASTER, LOS ANGELES, 93535
42,BEACH DISTRICT SURGERY CENTER LP ,License Type: Clinic,REDONDO BEACH, LOS ANGELES, 90277
43,BEDFORD AMBULATORY SURGERY CENTER ,License Type: Clinic,BEVERLY HILLS, LOS ANGELES, 90210
44,BELL GARDENS COMMUNITY HEALTH CENTER ,License Type: Clinic,BELL GARDENS, LOS ANGELES, 90201
45,BELLFLOWER HEALTH CENTER ,License Type: Clinic (Government Owned),BELLFLOWER, LOS ANGELES, 90706
46,BEVERLY HILLS INTEGRATED SURGICAL INC ,License Type: Clinic,BEVERLY HILLS, LOS ANGELES, 90212
47,"BEVERLY HILLS SUNSET SURGERY CTR, INC ",License Type: Clinic,LOS ANGELES, LOS ANGELES, 90069
48,BIG VALLEY MEDICAL CENTER ,License Type: Clinic,BIEBER, LASSEN, 96009
49,BRIGHTON SURGICAL CENTER INC ,License Type: Clinic,BEVERLY HILLS, LOS ANGELES, 90210
50,BUDDHIST COMPASSION RELIEF TZU CHI FREE ,License Type: Clinic,ALHAMBRA, LOS ANGELES, 91801
51,BUENA VISTA SURGERY CENTER MEDICAL GROUP INC ,License Type: Clinic,BURBANK, LOS ANGELES, 91505
52,CA STATE POLYTECHNIC UNIV HLT CTR ,License Type: Clinic (Government Owned),POMONA, LOS ANGELES, 91768
53,CALIFORNIA FAMILY CARE ,License Type: Clinic,LOS ANGELES, LOS ANGELES, 90015
54,CAMARENA HEALTH ,License Type: Clinic,CHOWCHILLA, MADERA, 93610
55,CAMARENA HEALTH ,License Type: Clinic,OAKHURST, MADERA, 93644
56,CAMARENA HEALTH ,License Type: Clinic,MADERA, MADERA, 93638
57,CAMARENA HEALTH ,License Type: Clinic,MADERA, MADERA, 93638
58,CAMARENA HEALTH ,License Type: Clinic,MADERA, MADERA, 93637
59,CAMARENA HEALTH - ALMOND URGENT CARE ,License Type: Clinic,MADERA, MADERA, 93637
60,CAMARENA HEALTH - ALMOND WOMENS SERVICES ,License Type: Clinic,MADERA, MADERA, 93637
61,CAMARENA HEALTH - COUNTRY CLUB ,License Type: Clinic,MADERA, MADERA, 93638
62,CAMDEN SURG CTR OF BEVERLY HILLS INC ,License Type: Clinic,BEVERLY HILLS, LOS ANGELES, 90210
63,CAMP AFFLERBAUGH CLINIC ,License Type: Clinic (Government Owned),LA VERNE, LOS ANGELES, 91750
64,CAMP GLENN ROCKEY CLINIC ,License Type: Clinic (Government Owned),SAN DIMAS, LOS ANGELES, 91773
65,CAMP JOSEPH PAIGE CLINIC ,License Type: Clinic (Government Owned),LA VERNE, LOS ANGELES, 91750
66,CAMP JOSEPH SCOTT CLINIC ,License Type: Clinic (Government Owned),SANTA CLARITA, LOS ANGELES, 91390
67,CAMPUS KILPATRICK CLINIC ,License Type: Clinic (Government Owned),MALIBU, LOS ANGELES, 90265
68,CASA COLINA SURGERY CENTER LLC ,License Type: Clinic,POMONA, LOS ANGELES, 91767
69,CBCC PAIN MANAGEMENT AND SURGERY CENTER ,License Type: Clinic,BAKERSFIELD, KERN, 93309
70,CEDARS-SINAI ENDOSCOPY ,License Type: Clinic,BEVERLY HILLS, LOS ANGELES, 90291
71,CENTER FOR ORTHOPEDIC SURGERY INC ,License Type: Clinic,VAN NUYS, LOS ANGELES, 91405
72,CENTER FOR OUTPATIENT SURGERY ,License Type: Clinic,WHITTIER, LOS ANGELES, 90603
73,CENTINELA VALLEY ENDOSCOPY CENTER ,License Type: Clinic,INGLEWOOD, LOS ANGELES, 90301
74,CENTRAL BAKERSFIELD COMMUNITY HEALTH CENTER ,License Type: Clinic,BAKERSFIELD, KERN, 93304
75,CENTRAL CITY COMMUNITY HEALTH CENTER ,License Type: Clinic,LOS ANGELES, LOS ANGELES, 90001
76,CENTRAL CITY COMMUNITY HEALTH CENTER INC ,License Type: Clinic,BALDWIN PARK, LOS ANGELES, 91706
77,CENTRAL CITY COMMUNITY HEALTH CENTER INC ,License Type: Clinic,LA PUENTE, LOS ANGELES, 91746
78,CENTRAL CITY COMMUNITY HEALTH CENTER INC ,License Type: Clinic,EL MONTE, LOS ANGELES, 91733
79,CENTRAL JUVENILE HALL CLINIC ,License Type: Clinic (Government Owned),LOS ANGELES, LOS ANGELES, 90032
80,CENTRAL NEIGHBORHOOD HEALTH FOUNDATION ,License Type: Clinic,LOS ANGELES, LOS ANGELES, 90011
81,CENTURY REGIONAL DETENTION FACILITY DENTAL CLINIC ,License Type: Clinic (Government Owned),LYNWOOD, LOS ANGELES, 90262
82,CENTURY REGIONAL DETENTION FACILITY MAIN CLINIC ,License Type: Clinic (Government Owned),LYNWOOD, LOS ANGELES, 90262
83,CHALLENGER MEMORIAL YOUTH CENTER CLINIC ,License Type: Clinic (Government Owned),LANCASTER, LOS ANGELES, 93536
84,CHAP - DEL MAR ,License Type: Clinic,PASADENA, LOS ANGELES, 91107
85,CHAPCARE VACCO ,License Type: Clinic,EL MONTE, LOS ANGELES, 91733
86,CHEVY CHASE AMBULATORY CENTER LP ,License Type: Clinic,GLENDALE, LOS ANGELES, 91205
87,CHINATOWN SERVICE CTR FAMILY HLT CTR ,License Type: Clinic,LOS ANGELES, LOS ANGELES, 90012
88,CITY HELP INC ,License Type: Clinic,LOS ANGELES, LOS ANGELES, 90026
89,CITY OF HOPE ANTELOPE VALLEY ,License Type: Clinic,LANCASTER, LOS ANGELES, 93534
90,CITY OF HOPE ARCADIA ,License Type: Clinic,ARCADIA, LOS ANGELES, 91007
91,CITY OF HOPE MISSION HILLS ,License Type: Clinic,MISSION HILLS, LOS ANGELES, 91345
92,CITY OF HOPE SANTA CLARITA ,License Type: Clinic,VALENCIA, LOS ANGELES, 91355
93,CITY OF HOPE SOUTH PASADENA ,License Type: Clinic,S PASADENA, LOS ANGELES, 91030
94,CITY OF HOPE WEST COVINA ,License Type: Clinic,WEST COVINA, LOS ANGELES, 91790
95,CITY OF LOS ANGELES DEPT OF WATER ,License Type: Clinic (Government Owned),LOS ANGELES, LOS ANGELES, 90012
96,CLEAVER FAMILY WELLNESS CLINIC ,License Type: Clinic,EL MONTE, LOS ANGELES, 91731
97,CLINICA MEDICA SAN MIGUEL ,License Type: Clinic,PANORAMA CITY, LOS ANGELES, 91402
98,CLINICA MSR OSCAR A ROMERO ,License Type: Clinic,LOS ANGELES, LOS ANGELES, 90033
99,CLINICA SIERRA VISTA ,License Type: Clinic,LAMONT, KERN, 93241
100,COAST SURGERY CENTER OF SOUTH BAY ,License Type: Clinic,TORRANCE, LOS ANGELES, 90505
101,COLIMA ENDOSCOPY CENTER ,License Type: Clinic,ROWLAND HEIGHTS, LOS ANGELES, 91748
102,COMPLETE CARE COMMUNITY HEALTH CENTER INC ,License Type: Clinic,LOS ANGELES, LOS ANGELES, 90033
103,COMPLETE CARE HEALTH CENTER- SOUTH GATE ,License Type: Clinic,SOUTH GATE, LOS ANGELES, 90280
104,COMPREHENSIVE OUTPATIENT SURGERY CTR ,License Type: Clinic,BEVERLY HILLS, LOS ANGELES, 90211
105,COMPTON CENTRAL HEALTH CLINIC INC ,License Type: Clinic,COMPTON, LOS ANGELES, 90220
106,CONGRESS MEDICAL SURGERY CENTER LLC ,License Type: Clinic,PASADENA, LOS ANGELES, 91105
107,"COUNTY OF LOS ANGELES, ANTELOPE VALLEY PUBLIC HEALTH CENTER ",License Type: Clinic (Government Owned),LANCASTER, LOS ANGELES, 93535
108,"COUNTY OF LOS ANGELES, CENTRAL PUBLIC HEALTH CENTER ",License Type: Clinic (Government Owned),LOS ANGELES, LOS ANGELES, 90012
109,"COUNTY OF LOS ANGELES, CENTRAL SATELLITE PUBLIC HEALTH CENTER ",License Type: Clinic (Government Owned),LOS ANGELES, LOS ANGELES, 90013
110,"COUNTY OF LOS ANGELES, CURTIS TUCKER PUBLIC HEALTH CENTER ",License Type: Clinic (Government Owned),INGLEWOOD, LOS ANGELES, 90301
111,"COUNTY OF LOS ANGELES, DEPT OF PUBLIC HEALTH N HOLLYWOOD HEALTH C ",License Type: Clinic (Government Owned),NORTH HOLLYWOOD, LOS ANGELES, 91601
112,"COUNTY OF LOS ANGELES, DEPT OF PUBLIC HEALTH, RUTH TEMPLE HEALTH ",License Type: Clinic (Government Owned),LOS ANGELES, LOS ANGELES, 90062
113,"COUNTY OF LOS ANGELES, GLENDALE PUBLIC HEALTH CENTER ",License Type: Clinic (Government Owned),GLENDALE, LOS ANGELES, 91206
114,"COUNTY OF LOS ANGELES, HOLLYWOOD/WILSHIRE PUBLIC HEALTH CENTER ",License Type: Clinic (Government Owned),LOS ANGELES, LOS ANGELES, 90038
115,"COUNTY OF LOS ANGELES, MONROVIA PUBLIC HEALTH CENTER ",License Type: Clinic (Government Owned),MONROVIA, LOS ANGELES, 91016
116,"COUNTY OF LOS ANGELES, PACOIMA PUBLIC HEALTH CENTER ",License Type: Clinic (Government Owned),PACOIMA, LOS ANGELES, 91331
117,"COUNTY OF LOS ANGELES, POMONA PUBLIC HEALTH CENTER ",License Type: Clinic (Government Owned),POMONA, LOS ANGELES, 91766
118,"COUNTY OF LOS ANGELES, SIMMS/MANN PUBLIC HEALTH CENTER ",License Type: Clinic (Government Owned),SANTA MONICA, LOS ANGELES, 90405
119,"COUNTY OF LOS ANGELES, STD PROGRAM ",License Type: Clinic (Government Owned),LOS ANGELES, LOS ANGELES, 90007
120,"COUNTY OF LOS ANGELES, TORRANCE PUBLIC HEALTH CENTER ",License Type: Clinic (Government Owned),TORRANCE, LOS ANGELES, 90502
121,"COUNTY OF LOS ANGELES, WHITTIER PUBLIC HEALTH CENTER ",License Type: Clinic (Government Owned),WHITTIER, LOS ANGELES, 90602
122,"COVE SURGERY CENTER, LLC ",License Type: Clinic,TORRANCE, LOS ANGELES, 90505
123,CSU DOMINGUEZ HILLS STUDENT HEALTH SERVICES ,License Type: Clinic (Government Owned),CARSON, LOS ANGELES, 90747
124,CSU LA STUDENT HEALTH CTR CLINIC ,License Type: Clinic (Government Owned),LOS ANGELES, LOS ANGELES, 90032
125,CULVER CITY YOUTH HEALTH CENTER ,License Type: Clinic,CULVER CITY, LOS ANGELES, 90230
126,CURTIS R TICKER HEALTH CENTER PATIENT CENTERED MEDICAL HOME RM 10 ,License Type: Clinic (Government Owned),INGLEWOOD, LOS ANGELES, 90301
127,DEATH VALLEY HEALTH CENTER ,License Type: Clinic,SHOSHONE, INYO, 92384
128,DELANO COMMUNITY HEALTH CENTER ,License Type: Clinic,DELANO, KERN, 93215
129,DOROTHY KIRBY CENTER CLINIC ,License Type: Clinic (Government Owned),CITY OF COMMERCE, LOS ANGELES, 90040
130,EAST BAKERSFIELD COMMUNITY HEALTH CENTER ,License Type: Clinic,BAKERSFIELD, KERN, 93307
131,EAST BAKERSFIELD DENTAL CENTER ,License Type: Clinic,BAKERSFIELD, KERN, 93307
132,EAST LOS ANGELES HEALTH CENTER ,License Type: Clinic (Government Owned),LOS ANGELES, LOS ANGELES, 90063
133,EAST NILES COMMUNITY HEALTH CENTER ,License Type: Clinic,BAKERSFIELD, KERN, 93306
134,EAST VALLEY COMMUNITY HEALTH CENTER INC / COVINA HEALTH CENTER ,License Type: Clinic,COVINA, LOS ANGELES, 91723
135,EAST VALLEY COMMUNITY HEALTH CENTER INC / PALOMARES SBC ,License Type: Clinic,POMONA, LOS ANGELES, 91767
136,EAST VALLEY COMMUNITY HEALTH CENTER INC / VILLACORTA SCHOOL CLINI ,License Type: Clinic,LA PUENTE, LOS ANGELES, 91744
137,EDWARD R. ROYBAL COMPREHENSIVE HEALTH CENTER ,License Type: Clinic (Government Owned),LOS ANGELES, LOS ANGELES, 90022
138,EISNER PEDIATRIC & FAMILY MEDICAL CENTER ,License Type: Clinic,LOS ANGELES, LOS ANGELES, 90015
139,EISNER PEDIATRIC & FAMILY MEDICAL CENTER - WOMENS HEALTH CENTER ,License Type: Clinic,LOS ANGELES, LOS ANGELES, 90015
140,EISNER PEDIATRIC & FAMILY MEDICAL CENTER AT LOS ANGELES HIGH SCHO ,License Type: Clinic,LOS ANGELES, LOS ANGELES, 90019
141,EISNER PEDIATRIC & FAMILY MEDICAL CENTER AT LYNWOOD ,License Type: Clinic,LYNWOOD, LOS ANGELES, 90262
142,EISNER PEDIATRIC & FAMILY MEDICAL CENTER AT METROPOLITAN HIGH SCH ,License Type: Clinic,LOS ANGELES, LOS ANGELES, 90021
143,EISNER PEDIATRIC & FAMILY MEDICAL CENTER AT PANORAMA CITY- OB/GYN ,License Type: Clinic,PANORAMA CITY, LOS ANGELES, 91402
144,EISNER PEDIATRIC & FAMILY MEDICAL CENTER AT PANORAMA CITY- PEDIAT ,License Type: Clinic,PANORAMA CITY, LOS ANGELES, 91402
145,EISNER PEDIATRIC & FAMILY MEDICAL CENTER AT SANTEE EDUCATION COMP ,License Type: Clinic,LOS ANGELES, LOS ANGELES, 90011
146,EISNER PEDIATRIC & FAMILY MEDICAL CENTER AT SHERMAN OAKS ,License Type: Clinic,SHERMAN OAKS, LOS ANGELES, 91403
147,EISNER PEDIATRIC & FAMILY MEDICAL CENTER AT VAN NUYS ,License Type: Clinic,VAN NUYS, LOS ANGELES, 91405
148,EL MONTE COMPREHENSIVE HEALTH CENTER CLINIC ,License Type: Clinic (Government Owned),EL MONTE, LOS ANGELES, 91731
149,EL PROYECTO DEL BARRIO ,License Type: Clinic,AZUSA, LOS ANGELES, 91702
150,EL PROYECTO DEL BARRIO INC ,License Type: Clinic,CANOGA PARK, LOS ANGELES, 91306
151,EMPIRE SURGERY CENTER ,License Type: Clinic,BAKERSFIELD, KERN, 93309
152,ENCINO PLAZA SURGICAL CENTER ,License Type: Clinic,ENCINO, LOS ANGELES, 91316
153,ENDOSCOPY CENTER AT SKY PARK ,License Type: Clinic,TORRANCE, LOS ANGELES, 90505
154,ENDOSCOPY CENTER OF SANTA MONICA LLC ,License Type: Clinic,LOS ANGELES, LOS ANGELES, 90025
155,ENDOSCOPY CENTER OF SOUTHERN CALIFORNIA ,License Type: Clinic,SANTA MONICA, LOS ANGELES, 90404
156,ENGEMANN STUDENT HEALTH CENTER ,License Type: Clinic,LOS ANGELES, LOS ANGELES, 90089
157,ERIC COHEN STUDENT HEALTH CENTER OF USC ,License Type: Clinic,LOS ANGELES, LOS ANGELES, 90033
158,FAMILY HEALTH CENTER ,License Type: Clinic,CLAREMONT, LOS ANGELES, 91711
159,FAMILY HEALTH CENTER ,License Type: Clinic,BAKERSFIELD, KERN, 93304
160,FRAZIER MOUNTAIN COMMUNITY HLTH CTR ,License Type: Clinic,LEBEC, KERN, 93243
161,FREEDOM VISION SURGERY CENTER ,License Type: Clinic,ENCINO, LOS ANGELES, 91436
162,GARFIELD HEALTH CENTER ,License Type: Clinic,MONTEREY PARK, LOS ANGELES, 91754
163,GARFIELD HEALTH CENTER-ATLANTIC ,License Type: Clinic,MONTEREY PARK, LOS ANGELES, 91754
164,GASTROENTEROLOGY DIAGNOSTIC CTR MED GRP ,License Type: Clinic,MONTEREY PARK, LOS ANGELES, 91754
165,GLENDALE ENDOSCOPY CENTER LLC ,License Type: Clinic,GLENDALE, LOS ANGELES, 91206
166,GLENDORA DIGESTIVE DISEASE INSTITUTE ,License Type: Clinic,GLENDORA, LOS ANGELES, 91740
167,GOLDEN STATE EYE CENTER ,License Type: Clinic,BAKERSFIELD, KERN, 93301
168,GREENFIELD COMMUNITY HEALTH CENTER ,License Type: Clinic,BAKERSFIELD, KERN, 93307
169,H CLAUDE HUDSON CHC/OUTPT SURGERY DEPT ,License Type: Clinic (Government Owned),LOS ANGELES, LOS ANGELES, 90007
170,H CLAUDE HUDSON CHC/URGENT CARE CLINIC ,License Type: Clinic (Government Owned),LOS ANGELES, LOS ANGELES, 90007
171,H CLAUDE HUDSON COMPREHENSIVE HEALTH CENTER CLINICS ,License Type: Clinic (Government Owned),LOS ANGELES, LOS ANGELES, 90007
172,HACIENDA DIALYSIS CENTER ,License Type: Clinic,HACIENDA HEIGHTS, LOS ANGELES, 91745
173,HANFORD SURGERY CENTER ,License Type: Clinic,HANFORD, KINGS, 93230
174,HARBOR COMMUNITY CLINIC ,License Type: Clinic,SAN PEDRO, LOS ANGELES, 90731
175,HARBOR FREE CLINIC PEDIATRIC CENTER ,License Type: Clinic,SAN PEDRO, LOS ANGELES, 90731
176,HEALING ARTS SURGERY CENTER INC ,License Type: Clinic,BAKERSFIELD, KERN, 93301
177,HIGH DESERT STATE PRISON - CENTRAL HEALTH DENTAL CLINIC ,License Type: Clinic (Government Owned),SUSANVILLE, LASSEN, 96127
178,HIGH DESERT STATE PRISON - FACILITY A DENTAL CLINIC ,License Type: Clinic (Government Owned),SUSANVILLE, LASSEN, 96127
179,HIGH DESERT STATE PRISON - FACILITY A MEDICAL CLINIC ,License Type: Clinic (Government Owned),SUSANVILLE, LASSEN, 96127
180,HIGH DESERT STATE PRISON - FACILITY B DENTAL CLINIC ,License Type: Clinic (Government Owned),SUSANVILLE, LASSEN, 96127
181,HIGH DESERT STATE PRISON - FACILITY B MEDICAL CLINIC ,License Type: Clinic (Government Owned),SUSANVILLE, LASSEN, 96127
182,HIGH DESERT STATE PRISON - FACILITY C DENTAL CLINIC ,License Type: Clinic (Government Owned),SUSANVILLE, LASSEN, 96127
183,HIGH DESERT STATE PRISON - FACILITY C MEDICAL CLINIC ,License Type: Clinic (Government Owned),SUSANVILLE, LASSEN, 96127
184,HIGH DESERT STATE PRISON - FACILITY D DENTAL CLINIC ,License Type: Clinic (Government Owned),SUSANVILLE, LASSEN, 96127
185,HIGH DESERT STATE PRISON - FACILITY D MEDICAL CLINIC ,License Type: Clinic (Government Owned),SUSANVILLE, LASSEN, 96127
186,HIGH DESERT STATE PRISON - FACILITY E DENTAL CLINIC ,License Type: Clinic (Government Owned),SUSANVILLE, LASSEN, 96127
187,HIGH DESERT STATE PRISON - FACILITY E MEDICAL CLINIC ,License Type: Clinic (Government Owned),SUSANVILLE, LASSEN, 96127
188,HIGH DESERT STATE PRISON - RECEIVING AND RELEASE MEDICAL CLINIC ,License Type: Clinic (Government Owned),SUSANVILLE, LASSEN, 96127
189,HIGH DESERT STATE PRISON - TTA MEDICAL CLINIC ,License Type: Clinic (Government Owned),SUSANVILLE, LASSEN, 96127
190,HIGH DESERT STATE PRISON - Z UNIT MEDICAL CLINIC ,License Type: Clinic (Government Owned),SUSANVILLE, LASSEN, 96127
191,HUBERT H HUMPHREY COMPREHENSIVE HLTH CTR ,License Type: Clinic (Government Owned),LOS ANGELES, LOS ANGELES, 90003
192,JORDAN WELLNESS CENTER ,License Type: Clinic,LOS ANGELES, LOS ANGELES, 90002
193,JWCH (ST. GEORGE HOTEL) ,License Type: Clinic,LOS ANGELES, LOS ANGELES, 90013
194,JWCH INSTITUTE INC (COVENANT HOUSE) ,License Type: Clinic,HOLLYWOOD, LOS ANGELES, 90027
195,JWCH INSTITUTE INC RECUPERATIVE CARE PROGRAM (BELL SHELTER) ,License Type: Clinic,BELL, LOS ANGELES, 90201
196,JWCH INSTITUTE INC RECUPERATIVE CARE PROGRAM (WEINGART) ,License Type: Clinic,LOS ANGELES, LOS ANGELES, 90021
197,JWCH INTITUTE INC - PROJECT 50 ,License Type: Clinic,LOS ANGELES, LOS ANGELES, 90013
198,JWCH MEDICAL CLINIC (DWC) ,License Type: Clinic,LOS ANGELES, LOS ANGELES, 90013
199,JWCH MEDICAL CLINIC (LA CADA) ,License Type: Clinic,SANTA FE SPRINGS, LOS ANGELES, 90670
200,JWCH MOBILE TESTING UNIT ,License Type: Clinic,LOS ANGELES, LOS ANGELES, 90013
201,JWCH NORWALK REGIONAL HEALTH CENTER ,License Type: Clinic,NORWALK, LOS ANGELES, 90650
202,KERLAN JOBE SURGERY CENTER ,License Type: Clinic,LOS ANGELES, LOS ANGELES, 90045
203,KERN COUNTY DEPARTMENT OF PUBLIC HEALTH ,License Type: Clinic (Government Owned),DELANO, KERN, 93215
204,KERN COUNTY DEPARTMENT OF PUBLIC HEALTH ,License Type: Clinic (Government Owned),SHAFTER, KERN, 93263
205,KERN COUNTY DEPARTMENT OF PUBLIC HEALTH ,License Type: Clinic (Government Owned),RIDGECREST, KERN, 93556
206,KERN COUNTY DEPARTMENT OF PUBLIC HEALTH ,License Type: Clinic (Government Owned),BAKERSFIELD, KERN, 93306
207,KERN RIVER HEALTH CENTER ,License Type: Clinic,WOFFORD HEIGHTS, KERN, 93285
208,KERN VALLEY MEDICAL CENTER ,License Type: Clinic,LAKE ISABELLA, KERN, 93240
209,KINGS COUNTY HEALTH DEPARTMENT ,License Type: Clinic (Government Owned),HANFORD, KINGS, 93230
210,KINGS EYE SURGICAL CENTER ,License Type: Clinic,HANFORD, KINGS, 93230
211,KLOTZ STUDENT HEALTH CENTER ,License Type: Clinic (Government Owned),NORTHRIDGE, LOS ANGELES, 91330
212,LA PEER SURGERY CENTER LLC ,License Type: Clinic,BEVERLY HILLS, LOS ANGELES, 90211
213,LA PUENTE HEALTH CENTER CLINIC ,License Type: Clinic (Government Owned),LA PUENTE, LOS ANGELES, 91744
214,LASSEN SURGERY CENTER ,License Type: Clinic,SUSANVILLE, LASSEN, 96130
215,LINDEN SURGICAL CENTER ,License Type: Clinic,BEVERLY HILLS, LOS ANGELES, 90212
216,LONG BEACH COMPREHENSIVE HEALTH CENTER CLINIC ,License Type: Clinic (Government Owned),LONG BEACH, LOS ANGELES, 90813
217,LONG BEACH QUEST DIALYSIS CENTER ,License Type: Clinic,LONG BEACH, LOS ANGELES, 90807
218,LOS ANGELES COUNTY DEPARTMENT OF HEALTH SERVICES ACTON REHABILITA ,License Type: Clinic (Government Owned),ACTON, LOS ANGELES, 93510
219,LOS ANGELES COUNTY DEPARTMENT OF HEALTH SERVICES LAKE LOS ANGELES ,License Type: Clinic (Government Owned),LAKE LOS ANGELES, LOS ANGELES, 93591
220,LOS ANGELES COUNTY DEPARTMENT OF HEALTH SERVICES LITTLEROCK COMMU ,License Type: Clinic (Government Owned),LITTLEROCK, LOS ANGELES, 93543
221,LOS ANGELES COUNTY DEPARTMENT OF HEALTH SERVICES SOUTH VALLEY HEA ,License Type: Clinic (Government Owned),PALMDALE, LOS ANGELES, 93551
222,LOS ANGELES COUNTY HIGH DESERT REGIONAL HEALTH CENTER ,License Type: Clinic (Government Owned),LANCASTER, LOS ANGELES, 93535
223,LOS ANGELES COUNTY HIGH DESERT REGIONAL HEALTH CENTER AMBULATORY ,License Type: Clinic (Government Owned),LANCASTER, LOS ANGELES, 93535
224,LOS ANGELES COUNTY HIGH DESERT REGIONAL HEALTH CENTER URGENT CARE ,License Type: Clinic (Government Owned),LANCASTER, LOS ANGELES, 93535
225,LOS ANGELES COUNTY MID-VALLEY COMPREHENSIVE HEALTH CENTER ,License Type: Clinic (Government Owned),VAN NUYS, LOS ANGELES, 91405
226,LOS ANGELES COUNTY WEST VALLEY HEALTH CENTER ,License Type: Clinic (Government Owned),CHATSWORTH, LOS ANGELES, 91311
227,LOS ANGELES MISSION COMMUNITY CLINIC ,License Type: Clinic,LOS ANGELES, LOS ANGELES, 90013
228,LOS PADRINOS JUVENILE HALL CLINIC ,License Type: Clinic (Government Owned),DOWNEY, LOS ANGELES, 90242
229,M/S SURGERY CENTER ,License Type: Clinic,LYNWOOD, LOS ANGELES, 90262
230,MADERA AMBULATORY ENDOSCOPY CENTER ,License Type: Clinic,MADERA, MADERA, 93637
231,MADERA SOUTH HIGH SCHOOL: SBHC ,License Type: Clinic,MADERA, MADERA, 93637
232,MARTIN LUTHER KING JR AMBULATORY SURGICAL CENTER ,License Type: Clinic (Government Owned),LOS ANGELES, LOS ANGELES, 90059
233,MARTIN LUTHER KING JR CENTER FOR PUBLIC HEALTH ,License Type: Clinic (Government Owned),LOS ANGELES, LOS ANGELES, 90059
234,MARTIN LUTHER KING JR OUTPATIENT CENTER ,License Type: Clinic (Government Owned),LOS ANGELES, LOS ANGELES, 90059
235,MARY HENRY TELEMEDICINE CENTER ,License Type: Clinic,LOS ANGELES, LOS ANGELES, 90044
236,MCFARLAND COMMUNITY HEALTH CENTER ,License Type: Clinic,MC FARLAND, KERN, 92350
237,MED-LASER SURGICAL CENTER ,License Type: Clinic,MONTEBELLO, LOS ANGELES, 90640
238,MEDICAL MISSION ADVENTURES ,License Type: Clinic,SYLMAR, LOS ANGELES, 91342
239,MEDICAL SERVICES DIVISION OCC. HEALTH ,License Type: Clinic (Government Owned),LOS ANGELES, LOS ANGELES, 90012
240,MEMORIALCARE OUTPATIENT SURGICAL CENTER LONG BEACH ,License Type: Clinic,LONG BEACH, LOS ANGELES, 90808
241,MEN'S CENTRAL JAIL DENTAL CLINIC ,License Type: Clinic (Government Owned),LOS ANGELES, LOS ANGELES, 90012
242,MEN'S CENTRAL JAIL MAIN CLINIC ,License Type: Clinic (Government Owned),LOS ANGELES, LOS ANGELES, 90012
243,MEND ,License Type: Clinic,PACOIMA, LOS ANGELES, 91331
244,METRO DETENTION CENTER JAIL CLINIC ,License Type: Clinic (Government Owned),LOS ANGELES, LOS ANGELES, 90017
245,MILLENNIUM SURGERY CENTER ,License Type: Clinic,BAKERSFIELD, KERN, 93301
246,MIRACLE MILE OUTPATIENT SURGERY CENTER ,License Type: Clinic,LOS ANGELES, LOS ANGELES, 90036
247,MISSION CITY COMMUNITY NETWORK INC ,License Type: Clinic,NORTH HILLS, LOS ANGELES, 91343
248,MISSION CITY COMMUNITY NETWORK INC - ORANGE GROVE ,License Type: Clinic,POMONA, LOS ANGELES, 91767
249,MISSION CITY COMMUNITY NETWORK INC - PRAIRIE ,License Type: Clinic,INGLEWOOD, LOS ANGELES, 90301
250,MONTEREY PARK OUTPATIENT SURGERY CENTER INC ,License Type: Clinic,MONTEREY PARK, LOS ANGELES, 91754
251,NECC GAGE HEALTH CENTER ,License Type: Clinic,HUNTINGTON PARK, LOS ANGELES, 90255
252,NECC HARBOR CITY HEALTH CENTER ,License Type: Clinic,HARBOR CITY, LOS ANGELES, 90710
253,NORTH COUNTY CORRECTIONAL FACILITY DENTAL CLINIC ,License Type: Clinic (Government Owned),CASTAIC, LOS ANGELES, 91384
254,NORTH COUNTY CORRECTIONAL FACILITY MAIN CLINIC ,License Type: Clinic (Government Owned),CASTAIC, LOS ANGELES, 91384
255,NORTH OF THE RIVER COMMUNITY HLTH CLN ,License Type: Clinic,BAKERSFIELD, KERN, 93308
256,NORTHEAST COMMUNITY CLINIC ,License Type: Clinic,BELL, LOS ANGELES, 90201
257,NORTHEAST COMMUNITY CLINIC ,License Type: Clinic,LOS ANGELES, LOS ANGELES, 90042
258,NORTHEAST COMMUNITY CLINIC ,License Type: Clinic,WILMINGTON, LOS ANGELES, 90744
259,NORTHEAST COMMUNITY CLINIC - GRAND ,License Type: Clinic,LOS ANGELES, LOS ANGELES, 90015
260,NORTHEAST COMMUNITY CLINIC - HAWTHORNE ,License Type: Clinic,HAWTHORNE, LOS ANGELES, 90250
261,NORTHEAST COMMUNITY CLINIC WOMEN'S HEALTH CENTER ,License Type: Clinic,LOS ANGELES, LOS ANGELES, 90042
262,NORTHEAST VALLEY HEALTH CORPORATION-HOMELESS MOBILE CLINIC ,License Type: Clinic,SAN FERNANDO, LOS ANGELES, 91340
263,NORTHEAST VALLEY HEALTH CORPORATION-SAN FERNANDO HIGH SCHOOL TEEN ,License Type: Clinic,SAN FERNANDO, LOS ANGELES, 91340
264,NORTHRIDGE ADVANCED SURGERY CENTER ,License Type: Clinic,NORTHRIDGE, LOS ANGELES, 91324
265,NOVA SURGICAL INSTITUTE LLC ,License Type: Clinic,VAN NUYS, LOS ANGELES, 91405
266,OAK TREE ASC LLC ,License Type: Clinic,PASADENA, LOS ANGELES, 91001
267,OLD TOWN KERN COMMUNITY HEALTH CENTER ,License Type: Clinic,BAKERSFIELD, KERN, 93305
268,OMNI FAMILY HEALTH ,License Type: Clinic,LOST HILLS, KERN, 93249
269,OMNI FAMILY HEALTH ,License Type: Clinic,BUTTONWILLOW, KERN, 93206
270,PACIFIC COAST SURGICAL CENTER ,License Type: Clinic,DELANO, KERN, 93215
271,PACIFIC ENDO-SURGICAL CENTER ,License Type: Clinic,TORRANCE, LOS ANGELES, 90505
272,PARKTREE COMMUNITY HEALTH CENTER ,License Type: Clinic,POMONA, LOS ANGELES, 91767
273,PASADENA ENDOSCOPY CENTER ,License Type: Clinic,PASADENA, LOS ANGELES, 91105
274,PASADENA LASER & SURGERY CENTER ,License Type: Clinic,PASADENA, LOS ANGELES, 91106
275,PITCHNESS DENTENTION CENTER EAST FACILITY MAIN CLINIC ,License Type: Clinic (Government Owned),CASTAIC, LOS ANGELES, 91384
276,PITCHNESS DETENTION CENTER EAST FACILITY DENTAL CLINIC ,License Type: Clinic (Government Owned),CASTAIC, LOS ANGELES, 91384
277,PITCHNESS DETENTION CENTER NORTH FACILITY DENTAL CLINIC ,License Type: Clinic (Government Owned),CASTAIC, LOS ANGELES, 91384
278,PITCHNESS DETENTION CENTER NORTH FACILITY MAIN CLINIC ,License Type: Clinic (Government Owned),CASTAIC, LOS ANGELES, 91384
279,PITCHNESS DETENTION CENTER SOUTH FACILITY DENTAL CLINIC ,License Type: Clinic (Government Owned),CASTAIC, LOS ANGELES, 91384
280,PITCHNESS DETENTION CENTER SOUTH FACILITY MAIN CLINIC ,License Type: Clinic (Government Owned),CASTAIC, LOS ANGELES, 91384
281,PLANNED PARENTHOOD ,License Type: Clinic,BAKERSFIELD, KERN, 93301
282,PLANNED PARENTHOOD ,License Type: Clinic,MADERA, MADERA, 93637
283,PLANNED PARENTHOOD - EL CENTRO ,License Type: Clinic,EL CENTRO, IMPERIAL, 92243
284,PLANNED PARENTHOOD ALHAMBRA HEALTH CENTER ,License Type: Clinic,ALHAMBRA, LOS ANGELES, 91801
285,PLANNED PARENTHOOD BASICS-BALDWIN HILLS/CRENSHAW ,License Type: Clinic,LOS ANGELES, LOS ANGELES, 90016
286,PLANNED PARENTHOOD BASICS-LAKEWOOD ,License Type: Clinic,LAKEWOOD, LOS ANGELES, 90713
287,PLANNED PARENTHOOD BURBANK CENTER ,License Type: Clinic,BURBANK, LOS ANGELES, 91502
288,PLANNED PARENTHOOD CANOGA PARK CTR ,License Type: Clinic,CANOGA PARK, LOS ANGELES, 91303
289,PLANNED PARENTHOOD EL MONTE CENTER ,License Type: Clinic,EL MONTE, LOS ANGELES, 91732
290,PLANNED PARENTHOOD GLENDORA HEALTH CENTER ,License Type: Clinic,GLENDORA, LOS ANGELES, 91740
291,PLANNED PARENTHOOD HOLLYWOOD CENTER ,License Type: Clinic,LOS ANGELES, LOS ANGELES, 90029
292,"PLANNED PARENTHOOD LA, DOROTHY HECHT CTR ",License Type: Clinic,LOS ANGELES, LOS ANGELES, 90003
293,PLANNED PARENTHOOD LAKEWOOD CENTER ,License Type: Clinic,LAKEWOOD, LOS ANGELES, 90713
294,PLANNED PARENTHOOD LOS ANGELES ,License Type: Clinic,POMONA, LOS ANGELES, 91767
295,PLANNED PARENTHOOD LOS ANGELES - BIXBY CENTER ,License Type: Clinic,LOS ANGELES, LOS ANGELES, 90033
296,PLANNED PARENTHOOD LOS ANGELES - HOLLYWOOD HIGH SCHOOL CLINIC ,License Type: Clinic,LOS ANGELES, LOS ANGELES, 90028
297,PLANNED PARENTHOOD LOS ANGELES ANTELOPE VALLEY CENTER ,License Type: Clinic,PALMDALE, LOS ANGELES, 93550
298,PLANNED PARENTHOOD LOS ANGELES CLINIC AT ROOSEVELT COLLEGE ,License Type: Clinic,LOS ANGELES, LOS ANGELES, 90033
299,PLANNED PARENTHOOD LOS ANGELES LONG BEACH CENTER ,License Type: Clinic,LONG BEACH, LOS ANGELES, 90806
300,PLANNED PARENTHOOD LOS ANGELES S MARK TAPER FOR MEDICAL TRAINING ,License Type: Clinic,LOS ANGELES, LOS ANGELES, 90007
301,PLANNED PARENTHOOD LOS ANGELES WEST HOLLYWOOD CENTER ,License Type: Clinic,WEST HOLLYWOOD, LOS ANGELES, 90069
302,PLANNED PARENTHOOD LOS ANGELES-EAST LOS ANGELES CENTER ,License Type: Clinic,LOS ANGELES, LOS ANGELES, 90022
303,PLANNED PARENTHOOD OF PASADENA ,License Type: Clinic,LOS ANGELES, LOS ANGELES, 90041
304,PLANNED PARENTHOOD OF PASADENA INC ,License Type: Clinic,PASADENA, LOS ANGELES, 91104
305,PLANNED PARENTHOOD SANTA MONICA CTR ,License Type: Clinic,SANTA MONICA, LOS ANGELES, 90401
306,PLANNED PARENTHOOD SOUTH BAY CTR ,License Type: Clinic,LAWNDALE, LOS ANGELES, 90260
307,PLANNED PARENTHOOD VAN NUYS CTR ,License Type: Clinic,VAN NUYS, LOS ANGELES, 91405
308,PLANNED PARENTHOOD WHITTER CENTER ,License Type: Clinic,WHITTIER, LOS ANGELES, 91602
309,PLANNED PARENTHOOD: SHASTA-DIABLO INC ,License Type: Clinic,CLEARLAKE, LAKE, 95422
310,QUALITY CARE SURGERY CENTER LLC ,License Type: Clinic,NORTHRIDGE, LOS ANGELES, 91325
311,SAN FERNANDO VALLEY SURGERY CENTER ,License Type: Clinic,MISSION HILLS, LOS ANGELES, 91345
312,SAN GABRIEL AMBULATORY SURGERY CENTER LP ,License Type: Clinic,SAN GABRIEL, LOS ANGELES, 91776
313,SAN GABRIEL VALLEY SURGICAL CENTER ,License Type: Clinic,WEST COVINA, LOS ANGELES, 91790
314,SENIOR BUENACARE ,License Type: Clinic,LOS ANGELES, LOS ANGELES, 90022
315,SERRA COMMUNITY MEDICAL CLINIC ,License Type: Clinic,SUN VALLEY, LOS ANGELES, 91326
316,SO BAKERSFIELD COM HLTH CTR ,License Type: Clinic,BAKERSFIELD, KERN, 93304
317,SOUTH ANTELOPE VALLEY MEDICAL CENTER ,License Type: Clinic (Government Owned),PALMDALE, LOS ANGELES, 93550
318,SOUTH BAY FAMILY HEALTH CARE ,License Type: Clinic,CARSON, LOS ANGELES, 90745
319,SOUTH BAY FAMILY HEALTHCARE CENTER ,License Type: Clinic,GARDENA, LOS ANGELES, 90278
320,SPALDING OUTPATIENT SURGERY CENTER INC ,License Type: Clinic,BEVERLY HILLS, LOS ANGELES, 90212
321,SPECIALTY SURG CTR OF BEVERLY HILLS LP ,License Type: Clinic,BEVERLY HILLS, LOS ANGELES, 90211
322,SPECIALTY SURGICAL CENTER LLC ,License Type: Clinic,BEVERLY HILLS, LOS ANGELES, 90211
323,SPECIALTY SURGICAL CENTER OF ARCADIA LP ,License Type: Clinic,ARCADIA, LOS ANGELES, 91006
324,SPECIALTY SURGICAL CENTER OF ENCINO LP ,License Type: Clinic,ENCINO, LOS ANGELES, 91436
325,ST JOHN'S WELL CHILD & FAMILY CENTER ,License Type: Clinic,LOS ANGELES, LOS ANGELES, 90031
326,ST JOHN'S WELL CHILD AND FAMILY CENTER ,License Type: Clinic,LOS ANGELES, LOS ANGELES, 90047
327,ST JOHN'S WELL CHILD AND FAMILY CENTER INC ,License Type: Clinic,LOS ANGELES, LOS ANGELES, 90007
328,ST JOHN'S WELL CHILD AND FAMILY CENTER INC ,License Type: Clinic,COMPTON, LOS ANGELES, 90222
329,ST JOHN'S WELL CHILD AND FAMILY CENTER MANUAL ARTS WELLNESS CENTE ,License Type: Clinic,LOS ANGELES, LOS ANGELES, 90037
330,ST JOHN'S WELL CHILD CENTER ,License Type: Clinic,COMPTON, LOS ANGELES, 90222
331,ST JOHNS WELL CHILD & FAMILY CENTER ,License Type: Clinic,LOS ANGELES, LOS ANGELES, 90043
332,ST JOHNS WELL CHILD AND FAMILY CENTER ,License Type: Clinic,LOS ANGELES, LOS ANGELES, 90007
333,ST. JOHNS WELL CHILD AND FAMILY CENTER ,License Type: Clinic,RANCHO DOMINGUEZ, LOS ANGELES, 90221
334,STAR CLINIC ,License Type: Clinic (Government Owned),LOS ANGELES, LOS ANGELES, 90014
335,STARPOINT SURGERY CENTER - STUDIO CITY LP ,License Type: Clinic,STUDIO CITY, LOS ANGELES, 91607
336,"STUDENT HEALTH CLINIC, CAL STATE LONG BEACH ",License Type: Clinic (Government Owned),LONG BEACH, LOS ANGELES, 90840
337,SUMMIT SURGERY CENTER ,License Type: Clinic,SANTA CLARITA, LOS ANGELES, 91355
338,SURGERY CENTER OF LONG BEACH ,License Type: Clinic,LONG BEACH, LOS ANGELES, 90806
339,SURGERY CENTER OF SOUTH BAY ,License Type: Clinic,TORRANCE, LOS ANGELES, 90505
340,SURGERY CENTER OF THE PACIFIC ,License Type: Clinic,SANTA MONICA, LOS ANGELES, 90403
341,SURGITEK OUTPATIENTCENTER INC ,License Type: Clinic,HANFORD, KINGS, 93230
342,T.H.E. CLINIC AT RUTH TEMPLE CLINIC ,License Type: Clinic,LOS ANGELES, LOS ANGELES, 90062
343,T.H.E. CLINIC INC AT LABREA ,License Type: Clinic,LOS ANGELES, LOS ANGELES, 90016
344,T.H.E. CLINIC MOBILE CLINIC ,License Type: Clinic,LOS ANGELES, LOS ANGELES, 90062
345,"T.H.E. CLINIC, INC. AT LENNOX SCHOOL DISTRICT ",License Type: Clinic,LENNOX, LOS ANGELES, 90304
346,TARZANA TREATMENT CENTERS ,License Type: Clinic,LANCASTER, LOS ANGELES, 93534
347,TARZANA TREATMENT CENTERS ,License Type: Clinic,PALMDALE, LOS ANGELES, 93550
348,TARZANA TREATMENT CENTERS ,License Type: Clinic,NORTHRIDGE, LOS ANGELES, 91325
349,TARZANA TREATMENT CENTERS FAMILY MEDICAL RESEDA CLINIC ,License Type: Clinic,RESEDA, LOS ANGELES, 91335
350,TARZANA TREATMENT CENTERS FAMILY MEDICAL TARZANA CLINIC ,License Type: Clinic,TARZANA, LOS ANGELES, 91356
351,TEHACHAPI SURGERY CENTER ,License Type: Clinic,TEHACHAPI, KERN, 93561
352,THE CHILDREN'S CLINIC ,License Type: Clinic,LONG BEACH, LOS ANGELES, 90813
353,THE CHILDREN'S CLINIC FAMILY HEALTH CENTER ,License Type: Clinic,LONG BEACH, LOS ANGELES, 90802
354,THE CHILDREN'S CLINIC FAMILY HEALTH CENTER IN CENTRAL LONG BEACH ,License Type: Clinic,LONG BEACH, LOS ANGELES, 90806
355,THE CHILDREN'S CLINIC FAMILY HEALTH CTR ,License Type: Clinic,LONG BEACH, LOS ANGELES, 90813
356,THE CHILDREN'S CLINIC FAMILY HEALTH CTR ,License Type: Clinic,LONG BEACH, LOS ANGELES, 90805
357,THE CHILDREN'S CLN AT INTER. ELEM SCHOOL ,License Type: Clinic,LONG BEACH, LOS ANGELES, 90813
358,THE CHILDRENS CLINIC FAMILY HEALTH CENTER CABRILLO GATEWAY ,License Type: Clinic,LONG BEACH, LOS ANGELES, 90810
359,THE CHILDRENS CLINIC FAMILY HEALTH CENTER ROOSEVELT ,License Type: Clinic,LONG BEACH, LOS ANGELES, 90813
360,THE CHILDRENS CLINIC FAMILY HEALTH CENTER WESTSIDE ,License Type: Clinic,LONG BEACH, LOS ANGELES, 90810
361,THE CLINIC AT CRENSHAW ,License Type: Clinic,LOS ANGELES, LOS ANGELES, 90043
362,THE CLINIC INC AT HAWTHORNE ,License Type: Clinic,INGLEWOOD, LOS ANGELES, 90304
363,THE ENDOSCOPY CTR OF THE SO BAY LP ,License Type: Clinic,TORRANCE, LOS ANGELES, 90505
364,THE S MARK TAPER FOUNDATION CHILDREN'S CLINIC ,License Type: Clinic,LONG BEACH, LOS ANGELES, 90806
365,THE VALLEY ENDOSCOPY CENTER ,License Type: Clinic,TARZANA, LOS ANGELES, 91356
366,THIRD STREET SURGERY CENTER LP ,License Type: Clinic,LOS ANGELES, LOS ANGELES, 90013
367,TORRANCE SURGERY CENTER LP ,License Type: Clinic,TORRANCE, LOS ANGELES, 90505
368,TRUXTUN SURGERY CENTER INC ,License Type: Clinic,BAKERSFIELD, KERN, 93309
369,TWIN TOWERS CORRECTIONAL FACILITY IRC MAIN CLINIC ,License Type: Clinic (Government Owned),LOS ANGELES, LOS ANGELES, 90012
370,TWIN TOWERS CORRECTIONAL FACILITY TOWER I DENTAL CLINIC ,License Type: Clinic (Government Owned),LOS ANGELES, LOS ANGELES, 90012
371,TWIN TOWERS CORRECTIONAL FACILITY TOWER I MAIN CLINIC ,License Type: Clinic (Government Owned),LOS ANGELES, LOS ANGELES, 90012
372,TWIN TOWERS CORRECTIONAL FACILITY TOWER II DENTAL CLINIC ,License Type: Clinic (Government Owned),LOS ANGELES, LOS ANGELES, 90012
373,TWIN TOWERS CORRECTIONAL FACILITY TOWER II MAIN CLINIC ,License Type: Clinic (Government Owned),LOS ANGELES, LOS ANGELES, 90012
374,UCLA SCHOOL OF NURSING HEALTH CENTER ,License Type: Clinic (Government Owned),LOS ANGELES, LOS ANGELES, 90013
375,USC - EISNER FAMILY MEDICINE CENTER AT CALIFORNIA HOSPITAL ,License Type: Clinic,LOS ANGELES, LOS ANGELES, 90015
376,VALENCIA SURGICAL CENTER ,License Type: Clinic,SANTA CLARITA, LOS ANGELES, 91321
377,VALLEY COMMUNITY CLINIC ,License Type: Clinic,GRANADA HILLS, LOS ANGELES, 91344
378,VALLEY COMMUNITY HEALTHCARE ,License Type: Clinic,NORTH HILLS, LOS ANGELES, 91343
379,VALLEY DIGESTIVE HEALTH CENTER ,License Type: Clinic,ARCADIA, LOS ANGELES, 91006
380,VALLEY ENDOSCOPY CENTER ,License Type: Clinic,EL CENTRO, IMPERIAL, 92243
381,VALLEY PHYSICIANS SURGERY CENTER AT NORTHRIDGE LLC ,License Type: Clinic,NORTHRIDGE, LOS ANGELES, 91325
382,VAN NUYS JAIL CLINIC ,License Type: Clinic (Government Owned),VAN NUYS, LOS ANGELES, 91410
383,VENICE FAMILY CLINIC-LEVINE FAMILY HEALTH ,License Type: Clinic,VENICE, LOS ANGELES, 90291
384,"VIA CARE COMMUNITY HEALTH CENTER, INC ",License Type: Clinic,LOS ANGELES, LOS ANGELES, 90022
385,WEE DENTAL ,License Type: Clinic,HANFORD, KINGS, 93230
386,WESLEY HEALTH CENTER (BELLFLOWER) ,License Type: Clinic,BELLFLOWER, LOS ANGELES, 90706
387,WESLEY HEALTH CENTER (LYNWOOD) ,License Type: Clinic,LYNWOOD, LOS ANGELES, 90262
388,WESLEY HEALTH CENTERS (DOWNEY) ,License Type: Clinic,DOWNEY, LOS ANGELES, 90241
389,WESLEY HEALTH CENTERS (FEDDE) ,License Type: Clinic,HAWAIIAN GARDENS, LOS ANGELES, 90716
390,WESLEY HEALTH CENTERS (HACIENDA HEIGHTS) ,License Type: Clinic,HACIENDA HEIGHTS, LOS ANGELES, 91745
391,WESLEY HEALTH CENTERS (LYNWOOD MIDDLE SCHOOL) ,License Type: Clinic,LYNWOOD, LOS ANGELES, 90262
392,WESLEY HEALTH CENTERS (PATHWAYS) ,License Type: Clinic,LOS ANGELES, LOS ANGELES, 90037
393,WESLEY HEALTH CENTERS (VERMONT) ,License Type: Clinic,LOS ANGELES, LOS ANGELES, 90029
394,WESLEY HEALTH CENTERS (WHITTIER) ,License Type: Clinic,WHITTIER, LOS ANGELES, 90605
395,WESLEY HEALTH CENTERS AT ANDREW ESCAJEDA ,License Type: Clinic,PASADENA, LOS ANGELES, 91103
396,WEST DELANO DENTAL CENTER ,License Type: Clinic,DELANO, KERN, 93215
397,WESTSIDE FAMILY HEALTH CENTER ,License Type: Clinic,SANTA MONICA, LOS ANGELES, 90405
398,WESTSIDE SURGICAL CENTER LLC ,License Type: Clinic,BAKERSFIELD, KERN, 93309
399,WILMINGTON COMMUNITY CLINIC ,License Type: Clinic,WILMINGTON, LOS ANGELES, 90744
