name,license_type,county,city,zip
ACCESS PHARMACY ,License Type: Pharmacy (Community),OAKLAND, ALAMEDA, 94601
ADVANCE MEDICAL PHARMACY ,License Type: Pharmacy (Community),WALNUT CREEK, CONTRA COSTA, 94598
ADVENTIST HEALTH FEATHER RIVER PHARMACY ,License Type: Pharmacy (Community),PARADISE, BUTTE, 95969
AHF PHARMACY ,License Type: Pharmacy (Community),OAKLAND, ALAMEDA, 94609
ALIXARX ,License Type: Pharmacy (Community),FRESNO, FRESNO, 93722
ALTA BATES SUMMIT MED CTR-HERRICK CAMPUS ,License Type: Pharmacy (Community),BERKELEY, ALAMEDA, 94704
ALTA BATES SUMMIT OUTPATIENT PHARMACY ,License Type: Pharmacy (Community),BERKELEY, ALAMEDA, 94704
APOTHECARY OPTIONS ,License Type: Pharmacy (Community),CHICO, BUTTE, 95973
BACON EAST PHARMACY ,License Type: Pharmacy (Community),Public Reprimand, CONTRA COSTA, 94520
BARR PHARMACY ,License Type: Pharmacy (Community),SANGER, FRESNO, 93657
BEL AIR PHARMACY #515 ,License Type: Pharmacy (Community),CAMERON PARK, EL DORADO, 95682
BIDWELL PHARMACY AND MEDICAL SUPPLY ,License Type: Pharmacy (Community),CHICO, BUTTE, 95926
BK PHARMACY CORP ,License Type: Pharmacy (Community),FRESNO, FRESNO, 93710
BK PHARMACY CORP ,License Type: Pharmacy (Community),FRESNO, FRESNO, 93720
BK PHARMACY CORP ,License Type: Pharmacy (Community),FRESNO, FRESNO, 93720
BRADFORD PHARMACY INC. ,License Type: Pharmacy (Community),Accusation filed, ALAMEDA, 94607
BROOKS HEALTH CARE ,License Type: Pharmacy (Community),FRESNO, FRESNO, 93710
BROOKVALE MEDICAL CENTER PHARMACY ,License Type: Pharmacy (Community),SAN PABLO, CONTRA COSTA, 94806
BSB VETERINARY CORP D.B.A. PET VALUE MART ,License Type: Pharmacy (Community),CONCORD, CONTRA COSTA, 94520
BULLARD PHARMACY ,License Type: Pharmacy (Community),FRESNO, FRESNO, 93711
"CALIFORNIA STATE UNIVERSITY, EAST BAY ",License Type: Pharmacy (Government Owned Community),HAYWARD, ALAMEDA, 94542
CAPSULE PHARMACY ,License Type: Pharmacy (Community),FREMONT, ALAMEDA, 94538
"CARDINAL HEALTH 414,LLC ",License Type: Pharmacy (Community),RICHMOND, CONTRA COSTA, 94804
"CARDINAL HEALTH 414,LLC ",License Type: Pharmacy (Community),FRESNO, FRESNO, 93711
CARE CENTER PHARMACY ,License Type: Pharmacy (Community),FRESNO, FRESNO, 93720
CARE RX PHARMACY ,License Type: Pharmacy (Community),Probation, FRESNO, 93710
CARELINK PHARMACY ,License Type: Pharmacy (Community),WALNUT CREEK, CONTRA COSTA, 94595
CAREPLUS DRUGS ,License Type: Pharmacy (Community),FRESNO, FRESNO, 93722
CAREZONE PHARMACY ,License Type: Pharmacy (Community),RICHMOND, CONTRA COSTA, 94804
CARUTHERS PHARMACY ,License Type: Pharmacy (Community),CARUTHERS, FRESNO, 93609
CENTRAL ADMIXTURE PHARMACY SERVICES INC ,License Type: Pharmacy (Community),FREMONT, ALAMEDA, 94538
CENTRAL PHARMACY ,License Type: Pharmacy (Community),RICHMOND, CONTRA COSTA, 94804
CHICO PHARMACY ,License Type: Pharmacy (Community),Probation, BUTTE, 95926
CHILDREN'S HSP MED CTR AMBULATORY CARE ,License Type: Pharmacy (Community),OAKLAND, ALAMEDA, 94609
CHILDRENS CLINIC PHARMACY ,License Type: Pharmacy (Community),OAKLAND, ALAMEDA, 94609
CITY CENTER PHARMACY II ,License Type: Pharmacy (Community),PITTSBURG, CONTRA COSTA, 94565
CLAYWORTH HEALTHCARE PHARMACY ,License Type: Pharmacy (Community),CASTRO VALLEY, ALAMEDA, 94546
CLEAR CHOICE PHARMACY ,License Type: Pharmacy (Community),PLEASANTON, ALAMEDA, 94588
COMMUNITY A WALGREENS PHARMACY #16477 ,License Type: Pharmacy (Community),OAKLAND, ALAMEDA, 94611
COMMUNITY CANCER CENTER INFUSION PHARMACY ,License Type: Pharmacy (Community),CLOVIS, FRESNO, 93611
COMMUNITY HOME INFUSION ,License Type: Pharmacy (Community),FRESNO, FRESNO, 93710
CONTRA COSTA REG MED CTR OUTPATIENT PHY ,License Type: Pharmacy (Government Owned Community),MARTINEZ, CONTRA COSTA, 94553
COOL VILLAGE PHARMACY ,License Type: Pharmacy (Community),COOL, EL DORADO, 95614
CORAM CVS/SPECIALTY INFUSION SERVICES ,License Type: Pharmacy (Community),HAYWARD, ALAMEDA, 94545
COSTCO PHARMACY #1002 ,License Type: Pharmacy (Community),ANTIOCH, CONTRA COSTA, 94509
COSTCO PHARMACY #1061 ,License Type: Pharmacy (Community),HAYWARD, ALAMEDA, 94545
COSTCO PHARMACY #135 ,License Type: Pharmacy (Community),CLOVIS, FRESNO, 93612
COSTCO PHARMACY #146 ,License Type: Pharmacy (Community),LIVERMORE, ALAMEDA, 94550
COSTCO PHARMACY #21 ,License Type: Pharmacy (Community),DANVILLE, CONTRA COSTA, 94526
COSTCO PHARMACY #31 ,License Type: Pharmacy (Community),FRESNO, FRESNO, 93722
COSTCO PHARMACY #482 ,License Type: Pharmacy (Community),RICHMOND, CONTRA COSTA, 94804
COSTCO PHARMACY #778 ,License Type: Pharmacy (Community),FREMONT, ALAMEDA, 94538
COSTCO PHARMACY 1011 ,License Type: Pharmacy (Community),CHICO, BUTTE, 95928
COSTCO PHARMACY 118 ,License Type: Pharmacy (Community),SAN LEANDRO, ALAMEDA, 94577
COSTCO PHARMACY NO 657 ,License Type: Pharmacy (Community),FRESNO, FRESNO, 93720
COSTCO PHARMACY NO 663 ,License Type: Pharmacy (Community),CONCORD, CONTRA COSTA, 94520
CPP PET CARE ,License Type: Pharmacy (Community),HAYWARD, ALAMEDA, 94545
CRESCENT HEALTHCARE INC DBA CRESCENT HEALTHCARE ,License Type: Pharmacy (Community),HAYWARD, ALAMEDA, 94545
CRMC INFUSION CENTER - CLOVIS ,License Type: Pharmacy (Community),CLOVIS, FRESNO, 93611
CRYSTAL MEDICAL CENTER PHARMACY ,License Type: Pharmacy (Community),OROVILLE, BUTTE, 95966
CUSTOM CARE COMPOUNDING PHARMACY ,License Type: Pharmacy (Community),SAN RAMON, CONTRA COSTA, 94583
CVS PHARMACY #09377 ,License Type: Pharmacy (Community),REEDLEY, FRESNO, 93654
CVS PHARMACY #10199 ,License Type: Pharmacy (Community),HAYWARD, ALAMEDA, 94544
CVS PHARMACY #10924 ,License Type: Pharmacy (Community),PLEASANTON, ALAMEDA, 94566
CVS PHARMACY #2881 ,License Type: Pharmacy (Community),CHICO, BUTTE, 95928
CVS PHARMACY #4326 ,License Type: Pharmacy (Community),ANTIOCH, CONTRA COSTA, 94531
CVS PHARMACY #4446 ,License Type: Pharmacy (Community),KERMAN, FRESNO, 93630
CVS PHARMACY #7128 ,License Type: Pharmacy (Community),CHICO, BUTTE, 95973
CVS/PHARMACY # 10121 ,License Type: Pharmacy (Community),BERKELEY, ALAMEDA, 94704
CVS/PHARMACY # 16084 ,License Type: Pharmacy (Community),FRESNO, FRESNO, 93711
CVS/PHARMACY # 16108 ,License Type: Pharmacy (Community),FRESNO, FRESNO, 93726
CVS/PHARMACY # 16116 ,License Type: Pharmacy (Community),DUBLIN, ALAMEDA, 94568
CVS/PHARMACY # 16117 ,License Type: Pharmacy (Community),PLEASANT HILL, CONTRA COSTA, 94523
CVS/PHARMACY # 16118 ,License Type: Pharmacy (Community),PITTSBURG, CONTRA COSTA, 94565
CVS/PHARMACY # 16136 ,License Type: Pharmacy (Community),CLOVIS, FRESNO, 93612
CVS/PHARMACY # 16222 ,License Type: Pharmacy (Community),PINOLE, CONTRA COSTA, 94564
CVS/PHARMACY # 16275 ,License Type: Pharmacy (Community),LIVERMORE, ALAMEDA, 94551
CVS/PHARMACY # 16337 ,License Type: Pharmacy (Community),FRESNO, FRESNO, 93720
CVS/PHARMACY # 16365 ,License Type: Pharmacy (Community),SAN RAMON, CONTRA COSTA, 94583
CVS/PHARMACY # 16563 ,License Type: Pharmacy (Community),WALNUT CREEK, CONTRA COSTA, 94596
CVS/PHARMACY # 16755 ,License Type: Pharmacy (Community),FRESNO, FRESNO, 93710
CVS/PHARMACY # 16764 ,License Type: Pharmacy (Community),SAN LEANDRO, ALAMEDA, 94578
CVS/PHARMACY # 16804 ,License Type: Pharmacy (Community),HAYWARD, ALAMEDA, 94544
CVS/PHARMACY # 16837 ,License Type: Pharmacy (Community),RICHMOND, CONTRA COSTA, 94805
CVS/PHARMACY # 16940 ,License Type: Pharmacy (Community),ANTIOCH, CONTRA COSTA, 94531
CVS/PHARMACY # 17044 ,License Type: Pharmacy (Community),ALBANY, ALAMEDA, 94710
CVS/PHARMACY # 17111 ,License Type: Pharmacy (Community),CLOVIS, FRESNO, 93612
CVS/PHARMACY # 17265 ,License Type: Pharmacy (Community),HAYWARD, ALAMEDA, 94541
CVS/PHARMACY # 17344 ,License Type: Pharmacy (Community),EL DORADO HILLS, EL DORADO, 95762
CVS/PHARMACY # 17592 ,License Type: Pharmacy (Community),FREMONT, ALAMEDA, 94538
CVS/PHARMACY # 17614 ,License Type: Pharmacy (Community),FRESNO, FRESNO, 93722
CVS/PHARMACY # 17624 ,License Type: Pharmacy (Community),EMERYVILLE, ALAMEDA, 94608
CVS/PHARMACY # 17628 ,License Type: Pharmacy (Community),DUBLIN, ALAMEDA, 94568
CVS/PHARMACY # 17657 ,License Type: Pharmacy (Community),ALAMEDA, ALAMEDA, 94501
CVS/PHARMACY # 17673 ,License Type: Pharmacy (Community),BERKELEY, ALAMEDA, 94704
CVS/PHARMACY #0331 ,License Type: Pharmacy (Community),FREMONT, ALAMEDA, 94539
CVS/PHARMACY #0414 ,License Type: Pharmacy (Community),SAN LEANDRO, ALAMEDA, 94578
CVS/PHARMACY #0816 ,License Type: Pharmacy (Community),HAYWARD, ALAMEDA, 94541
CVS/PHARMACY #09376 ,License Type: Pharmacy (Community),SOUTH LAKE TAHOE, EL DORADO, 96150
CVS/PHARMACY #09390 ,License Type: Pharmacy (Community),VALLEY SPRINGS, CALAVERAS, 95252
CVS/PHARMACY #09391 ,License Type: Pharmacy (Community),FRESNO, FRESNO, 93720
CVS/PHARMACY #09397 ,License Type: Pharmacy (Community),LIVERMORE, ALAMEDA, 94551
CVS/PHARMACY #09399 ,License Type: Pharmacy (Community),PRATHER, FRESNO, 93651
CVS/PHARMACY #09490 ,License Type: Pharmacy (Community),POLLOCK PINES, EL DORADO, 95726
CVS/PHARMACY #09494 ,License Type: Pharmacy (Community),NEWARK, ALAMEDA, 94560
CVS/PHARMACY #09509 ,License Type: Pharmacy (Community),CONCORD, CONTRA COSTA, 94521
CVS/PHARMACY #09511 ,License Type: Pharmacy (Community),BRENTWOOD, CONTRA COSTA, 94513
CVS/PHARMACY #09525 ,License Type: Pharmacy (Community),GRIDLEY, BUTTE, 95948
CVS/PHARMACY #09536 ,License Type: Pharmacy (Community),SAN RAMON, CONTRA COSTA, 94583
CVS/PHARMACY #09537 ,License Type: Pharmacy (Community),FRESNO, FRESNO, 93705
CVS/PHARMACY #09539 ,License Type: Pharmacy (Community),ANGELS CAMP, CALAVERAS, 95222
CVS/PHARMACY #09545 ,License Type: Pharmacy (Community),WALNUT CREEK, CONTRA COSTA, 94596
CVS/PHARMACY #09553 ,License Type: Pharmacy (Community),EMERYVILLE, ALAMEDA, 94608
CVS/PHARMACY #09565 ,License Type: Pharmacy (Community),DISCOVERY BAY, CONTRA COSTA, 94505
CVS/PHARMACY #09595 ,License Type: Pharmacy (Community),ALBANY, ALAMEDA, 94706
CVS/PHARMACY #09599 ,License Type: Pharmacy (Community),CHICO, BUTTE, 95926
CVS/PHARMACY #09600 ,License Type: Pharmacy (Community),FREMONT, ALAMEDA, 94536
CVS/PHARMACY #09622 ,License Type: Pharmacy (Community),HAYWARD, ALAMEDA, 94544
CVS/PHARMACY #09635 ,License Type: Pharmacy (Community),SAN LEANDRO, ALAMEDA, 94577
CVS/PHARMACY #09678 ,License Type: Pharmacy (Community),LIVERMORE, ALAMEDA, 94550
CVS/PHARMACY #09710 ,License Type: Pharmacy (Community),FOWLER, FRESNO, 93625
CVS/PHARMACY #09713 ,License Type: Pharmacy (Community),SOUTH LAKE TAHOE, EL DORADO, 96150
CVS/PHARMACY #09800 ,License Type: Pharmacy (Community),DANVILLE, CONTRA COSTA, 94526
CVS/PHARMACY #09815 ,License Type: Pharmacy (Community),WALNUT CREEK, CONTRA COSTA, 94598
CVS/PHARMACY #09827 ,License Type: Pharmacy (Community),CONCORD, CONTRA COSTA, 94521
CVS/PHARMACY #09846 ,License Type: Pharmacy (Community),FRESNO, FRESNO, 93722
CVS/PHARMACY #09865 ,License Type: Pharmacy (Community),FRESNO, FRESNO, 93711
CVS/PHARMACY #09868 ,License Type: Pharmacy (Community),SAN RAMON, CONTRA COSTA, 94583
CVS/PHARMACY #09875 ,License Type: Pharmacy (Community),PITTSBURG, CONTRA COSTA, 94565
CVS/PHARMACY #09876 ,License Type: Pharmacy (Community),SAN LEANDRO, ALAMEDA, 94579
CVS/PHARMACY #09904 ,License Type: Pharmacy (Community),CASTRO VALLEY, ALAMEDA, 94546
CVS/PHARMACY #09929 ,License Type: Pharmacy (Community),OAKLAND, ALAMEDA, 94611
CVS/PHARMACY #09930 ,License Type: Pharmacy (Community),PARADISE, BUTTE, 95969
CVS/PHARMACY #09933 ,License Type: Pharmacy (Community),CLOVIS, FRESNO, 93611
CVS/PHARMACY #09938 ,License Type: Pharmacy (Community),LAFAYETTE, CONTRA COSTA, 94549
CVS/PHARMACY #09939 ,License Type: Pharmacy (Community),ORINDA, CONTRA COSTA, 94563
CVS/PHARMACY #09941 ,License Type: Pharmacy (Community),BERKELEY, ALAMEDA, 94709
CVS/PHARMACY #09942 ,License Type: Pharmacy (Community),SAN LEANDRO, ALAMEDA, 94577
CVS/PHARMACY #09957 ,License Type: Pharmacy (Community),OAKLAND, ALAMEDA, 94612
CVS/PHARMACY #09971 ,License Type: Pharmacy (Community),FRESNO, FRESNO, 93722
CVS/PHARMACY #09983 ,License Type: Pharmacy (Community),KINGSBURG, FRESNO, 93631
CVS/PHARMACY #09989 ,License Type: Pharmacy (Community),MARTINEZ, CONTRA COSTA, 94553
CVS/PHARMACY #09991 ,License Type: Pharmacy (Community),ALAMO, CONTRA COSTA, 94507
CVS/PHARMACY #09994 ,License Type: Pharmacy (Community),FRESNO, FRESNO, 93704
CVS/PHARMACY #10074 ,License Type: Pharmacy (Community),FRESNO, FRESNO, 93727
CVS/PHARMACY #10119 ,License Type: Pharmacy (Community),PLEASANTON, ALAMEDA, 94566
CVS/PHARMACY #1283 ,License Type: Pharmacy (Community),OAKLAND, ALAMEDA, 94610
CVS/PHARMACY #3009 ,License Type: Pharmacy (Community),CAMERON PARK, EL DORADO, 95682
CVS/PHARMACY #3024 ,License Type: Pharmacy (Community),DUBLIN, ALAMEDA, 94568
CVS/PHARMACY #3026 ,License Type: Pharmacy (Community),BERKELEY, ALAMEDA, 94704
CVS/PHARMACY #3034 ,License Type: Pharmacy (Community),SANGER, FRESNO, 93657
CVS/PHARMACY #3053 ,License Type: Pharmacy (Community),EL CERRITO, CONTRA COSTA, 94530
CVS/PHARMACY #3078 ,License Type: Pharmacy (Community),RICHMOND, CONTRA COSTA, 94804
CVS/PHARMACY #3909 ,License Type: Pharmacy (Community),EL DORADO HILLS, EL DORADO, 95762
CVS/PHARMACY #3925 ,License Type: Pharmacy (Community),CLOVIS, FRESNO, 93611
CVS/PHARMACY #3940 ,License Type: Pharmacy (Community),CLOVIS, FRESNO, 93611
CVS/PHARMACY #4283 ,License Type: Pharmacy (Community),BRENTWOOD, CONTRA COSTA, 94513
CVS/PHARMACY #5422 ,License Type: Pharmacy (Community),FRESNO, FRESNO, 93727
CVS/PHARMACY #6526 ,License Type: Pharmacy (Community),CLAYTON, CONTRA COSTA, 94517
CVS/PHARMACY #6772 ,License Type: Pharmacy (Community),Probation, FRESNO, 93726
CVS/PHARMACY #6793 ,License Type: Pharmacy (Community),CAMERON PARK, EL DORADO, 95682
CVS/PHARMACY #7506 ,License Type: Pharmacy (Community),CHICO, BUTTE, 95926
CVS/PHARMACY #7553 ,License Type: Pharmacy (Community),FRESNO, FRESNO, 93726
CVS/PHARMACY #7910 ,License Type: Pharmacy (Community),CLOVIS, FRESNO, 93611
CVS/PHARMACY #8431 ,License Type: Pharmacy (Community),OAKLAND, ALAMEDA, 94605
CVS/PHARMACY #9086 ,License Type: Pharmacy (Community),EL CERRITO, CONTRA COSTA, 94530
CVS/PHARMACY #9099 ,License Type: Pharmacy (Community),FREMONT, ALAMEDA, 94538
CVS/PHARMACY #9128 ,License Type: Pharmacy (Community),ALAMEDA, ALAMEDA, 94501
CVS/PHARMACY #9129 ,License Type: Pharmacy (Community),FRESNO, FRESNO, 93721
CVS/PHARMACY #9130 ,License Type: Pharmacy (Community),OAKLAND, ALAMEDA, 94611
CVS/PHARMACY #9149 ,License Type: Pharmacy (Community),FRESNO, FRESNO, 93710
CVS/PHARMACY #9158 ,License Type: Pharmacy (Community),OROVILLE, BUTTE, 95965
CVS/PHARMACY #9184 ,License Type: Pharmacy (Community),PLACERVILLE, EL DORADO, 95667
CVS/PHARMACY #9203 ,License Type: Pharmacy (Community),MORAGA, CONTRA COSTA, 94556
CVS/PHARMACY #9226 ,License Type: Pharmacy (Community),OAKLAND, ALAMEDA, 94602
CVS/PHARMACY #9233 ,License Type: Pharmacy (Community),JACKSON, AMADOR, 95642
CVS/PHARMACY #9234 ,License Type: Pharmacy (Community),FREMONT, ALAMEDA, 94539
CVS/PHARMACY #9238 ,License Type: Pharmacy (Community),CONCORD, CONTRA COSTA, 94519
CVS/PHARMACY #9250 ,License Type: Pharmacy (Community),ALAMEDA, ALAMEDA, 94502
CVS/PHARMACY #9251 ,License Type: Pharmacy (Community),PLEASANTON, ALAMEDA, 94588
CVS/PHARMACY #9253 ,License Type: Pharmacy (Community),MARTINEZ, CONTRA COSTA, 94553
CVS/PHARMACY #9255 ,License Type: Pharmacy (Community),ALAMEDA, ALAMEDA, 94501
CVS/PHARMACY #9296 ,License Type: Pharmacy (Community),DANVILLE, CONTRA COSTA, 94506
CVS/PHARMACY #9299 ,License Type: Pharmacy (Community),PINOLE, CONTRA COSTA, 94564
CVS/PHARMACY #9348 ,License Type: Pharmacy (Community),SAN RAMON, CONTRA COSTA, 94583
CVS/PHARMACY #9372 ,License Type: Pharmacy (Community),MORAGA, CONTRA COSTA, 94556
CVS/PHARMACY #9378 ,License Type: Pharmacy (Community),OAKLAND, ALAMEDA, 94619
DANVILLE SAN RAMON PHARMACY ,License Type: Pharmacy (Community),Probation, CONTRA COSTA, 94526
DAVISON DRUG & STATIONERY ,License Type: Pharmacy (Community),Probation, COLUSA, 95932
DIABLO PHARMACY ,License Type: Pharmacy (Community),SAN RAMON, CONTRA COSTA, 94583
DOLPHIN HEALTH PHARMACY ,License Type: Pharmacy (Community),OAKLAND, ALAMEDA, 94605
DOVES LANDING PHARMACY ,License Type: Pharmacy (Community),OROVILLE, BUTTE, 95966
DRATE PHARMACY ,License Type: Pharmacy (Community),Accusation filed, ALAMEDA, 94703
EAST BAY AIDS CENTER OUTPATIENT PHARMACY ,License Type: Pharmacy (Community),OAKLAND, ALAMEDA, 94609
EAST OAKLAND HEALTH PHARMACY ,License Type: Pharmacy (Community),OAKLAND, ALAMEDA, 94621
EL DORADO COMMUNITY PHARMACY ,License Type: Pharmacy (Community),CAMERON PARK, EL DORADO, 95682
EL PORTAL PHARMACY ,License Type: Pharmacy (Community),SANGER, FRESNO, 93657
ELM COMMUNITY HEALTH CENTER ,License Type: Pharmacy (Community),FRESNO, FRESNO, 93706
ENLOE MEDICAL CENTER - CANCER CENTER ,License Type: Pharmacy (Community),CHICO, BUTTE, 95926
ENLOE OUTPATIENT CENTER PHARMACY ,License Type: Pharmacy (Community),CHICO, BUTTE, 95926
ENTIRELYPETS PHARMACY ,License Type: Pharmacy (Community),Probation Terminated/Completed, ALAMEDA, 94587
FAMILY FIRST PHARMACY ,License Type: Pharmacy (Community),FRESNO, FRESNO, 93727
FEATHER RIVER TRIBAL HEALTH INC ,License Type: Pharmacy (Community),OROVILLE, BUTTE, 95965
FOODMAXX PHARMACY #484 ,License Type: Pharmacy (Community),OAKLAND, ALAMEDA, 94601
FOOTHILLS DRUG STORE ,License Type: Pharmacy (Community),VALLEY SPRINGS, CALAVERAS, 95252
FOUCH & SON PHARMACY ,License Type: Pharmacy (Community),WILLIAMS, COLUSA, 95987
FOX DRUG STORE ,License Type: Pharmacy (Community),PARLIER, FRESNO, 93648
FOX DRUG STORE ,License Type: Pharmacy (Community),SELMA, FRESNO, 93662
FOX DRUG STORE INC ,License Type: Pharmacy (Community),FOWLER, FRESNO, 93625
FRESNO COMMUNITY AMB INFUSION PHARMACY ,License Type: Pharmacy (Community),FRESNO, FRESNO, 93701
FRESNO PHARMACY ,License Type: Pharmacy (Community),Probation, FRESNO, 93727
GARFIELD BEACH CVS LLC CVS/PHARMACY #10475 ,License Type: Pharmacy (Community),OAKLAND, ALAMEDA, 94611
GARFIELD BEACH CVS LLC D/B/A CVS/PHARMACY # 17712 ,License Type: Pharmacy (Community),BERKELEY, ALAMEDA, 94702
GARFIELD BEACH CVS LLC D/B/A CVS/PHARMACY #10478 ,License Type: Pharmacy (Community),CRESCENT CITY, DEL NORTE, 95531
GARFIELD BEACH CVS LLC D/B/A CVS/PHARMACY #10801 ,License Type: Pharmacy (Community),FRESNO, FRESNO, 93710
GKN RX ,License Type: Pharmacy (Community),FRESNO, FRESNO, 93720
HALLER'S LTC PHARMACY ,License Type: Pharmacy (Community),FREMONT, ALAMEDA, 94536
HALLER'S PHARMACY AND MEDICAL SUPPLY ,License Type: Pharmacy (Community),FREMONT, ALAMEDA, 94536
HERNDON PHARMACY ,License Type: Pharmacy (Community),FRESNO, FRESNO, 93720
HIGH STREET PHARMACY ,License Type: Pharmacy (Community),Accusation filed, ALAMEDA, 94619
INTEGRATED MEDICAL ASSOCIATES PHARMACY INC ,License Type: Pharmacy (Community),OAKLAND, ALAMEDA, 94605
IONE PHARMACY ,License Type: Pharmacy (Community),IONE, AMADOR, 95640
ISORX ,License Type: Pharmacy (Community),RICHMOND, CONTRA COSTA, 94804
JADE PHARMACY ,License Type: Pharmacy (Community),FREMONT, ALAMEDA, 94555
KAISER DELTA SQUARE PHARMACY ,License Type: Pharmacy (Community),ANTIOCH, CONTRA COSTA, 94509
KAISER FDN HLT PLAN FABIOLA 1 PHY 115 ,License Type: Pharmacy (Community),OAKLAND, ALAMEDA, 94611
KAISER FN HSP INP PHY 54A ,License Type: Pharmacy (Community),MARTINEZ, CONTRA COSTA, 94553
KAISER FOUNDATION CPP PHARMACY 251 ,License Type: Pharmacy (Community),LIVERMORE, ALAMEDA, 94550
KAISER HEALTH PARK SHADELANDS PHY 501 ,License Type: Pharmacy (Community),WALNUT CREEK, CONTRA COSTA, 94598
KAISER HEALTH PLAN  YOSEMITE PHY 502 ,License Type: Pharmacy (Community),WALNUT CREEK, CONTRA COSTA, 94598
KAISER HEALTH PLAN B PHY 722 ,License Type: Pharmacy (Community),FRESNO, FRESNO, 93720
KAISER HEALTH PLAN C PHY 723 ,License Type: Pharmacy (Community),FRESNO, FRESNO, 93720
KAISER HEALTH PLAN MAIN PHY 551 ,License Type: Pharmacy (Community),ANTIOCH, CONTRA COSTA, 94509
KAISER HEALTH PLAN MOB 1 PHY 511 ,License Type: Pharmacy (Community),WALNUT CREEK, CONTRA COSTA, 94596
KAISER HEALTH PLAN MOB PHARMACY 541 ,License Type: Pharmacy (Community),MARTINEZ, CONTRA COSTA, 94553
KAISER HEALTH PLAN NILES 3 PHY 164 ,License Type: Pharmacy (Community),FREMONT, ALAMEDA, 94538
KAISER HEALTH PLAN NILES PHY 161 ,License Type: Pharmacy (Community),FREMONT, ALAMEDA, 94538
KAISER HEALTH PLAN NORTH 1 PHY 473 ,License Type: Pharmacy (Community),PLEASANTON, ALAMEDA, 94588
KAISER HEALTH PLAN NORTH FIRST ST 725 ,License Type: Pharmacy (Community),FRESNO, FRESNO, 93726
KAISER HEALTH PLAN OHLONE PHY 162 ,License Type: Pharmacy (Community),FREMONT, ALAMEDA, 94538
KAISER HEALTH PLAN PEDIATRIC PHY 118 ,License Type: Pharmacy (Community),OAKLAND, ALAMEDA, 94611
KAISER HEALTH PLAN SKYVIEW PHY 124 ,License Type: Pharmacy (Community),RICHMOND, CONTRA COSTA, 94801
KAISER HEALTH PLAN SOUTH 1 PHY 471 ,License Type: Pharmacy (Community),PLEASANTON, ALAMEDA, 94588
KAISER HEALTH PLAN SOUTH 2 PHY 472 ,License Type: Pharmacy (Community),PLEASANTON, ALAMEDA, 94588
KAISER HLTH PLAN SLEEPY HOLLOW PHY 143 ,License Type: Pharmacy (Community),HAYWARD, ALAMEDA, 94545
KAISER MOB 2  2ND FLOOR PHY 512 ,License Type: Pharmacy (Community),WALNUT CREEK, CONTRA COSTA, 94596
KAISER ONCOLOGY PHARMACY #104 ,License Type: Pharmacy (Community),OAKLAND, ALAMEDA, 94611
KAISER ONCOLOGY PHARMACY #165 ,License Type: Pharmacy (Community),FREMONT, ALAMEDA, 94538
KAISER ONCOLOGY PHARMACY #573 ,License Type: Pharmacy (Community),ANTIOCH, CONTRA COSTA, 94531
KAISER OUTPATIENT HOSPITAL PHARMACY 123 ,License Type: Pharmacy (Community),RICHMOND, CONTRA COSTA, 94801
KAISER PERMANENTE PHARMACY #102 ,License Type: Pharmacy (Community),OAKLAND, ALAMEDA, 94611
KAISER PERMANENTE PHARMACY #105 ,License Type: Pharmacy (Community),OAKLAND, ALAMEDA, 94611
KAISER PERMANENTE PHARMACY #181 ,License Type: Pharmacy (Community),BERKELEY, ALAMEDA, 94710
KAISER PERMANENTE PHARMACY #241 ,License Type: Pharmacy (Community),LIVERMORE, ALAMEDA, 94550
KAISER PERMANENTE PHARMACY #291 ,License Type: Pharmacy (Community),CLOVIS, FRESNO, 93611
KAISER PERMANENTE PHARMACY #503 ,License Type: Pharmacy (Community),WALNUT CREEK, CONTRA COSTA, 94598
KAISER PERMANENTE PHARMACY #514 ,License Type: Pharmacy (Community),WALNUT CREEK, CONTRA COSTA, 94596
KAISER PERMANENTE PHARMACY #571 ,License Type: Pharmacy (Community),ANTIOCH, CONTRA COSTA, 94531
KAISER PERMANENTE PHARMACY #572 ,License Type: Pharmacy (Community),ANTIOCH, CONTRA COSTA, 94531
KAISER PERMANENTE PHARMACY #729 ,License Type: Pharmacy (Community),FRESNO, FRESNO, 93720
KAISER PERMANENTE PHARMACY #841 ,License Type: Pharmacy (Community),SELMA, FRESNO, 93662
KAISER PERMANENTE PHARMACY #921 ,License Type: Pharmacy (Community),SAN LEANDRO, ALAMEDA, 94577
KAISER PERMANENTE PHARMACY #922 ,License Type: Pharmacy (Community),SAN LEANDRO, ALAMEDA, 94577
KAISER PERMANENTE PHARMACY #931 ,License Type: Pharmacy (Community),SAN RAMON, CONTRA COSTA, 94583
KAISER PERMANENTE PHARMACY NO 101 ,License Type: Pharmacy (Community),ALAMEDA, ALAMEDA, 94501
KAISER PERMANENTE PHARMACY NO 515 ,License Type: Pharmacy (Community),WALNUT CREEK, CONTRA COSTA, 94596
KAISER PERMANENTE PHRMCY 120 ,License Type: Pharmacy (Community),PINOLE, CONTRA COSTA, 94564
KAISER UNION CITY MAIN MOB 2 PHY #132 ,License Type: Pharmacy (Community),UNION CITY, ALAMEDA, 94587
KELLY'S DRUG STORE ,License Type: Pharmacy (Community),SAN ANDREAS, CALAVERAS, 95249
KINDCARE PHARMACY AND MEDICAL SUPPLY ,License Type: Pharmacy (Community),CHICO, BUTTE, 95928
LA CLINICA DE LA RAZA ,License Type: Pharmacy (Community),OAKLAND, ALAMEDA, 94601
"LA CLINICA DE LA RAZA, INC. ",License Type: Pharmacy (Community),OAKLAND, ALAMEDA, 94606
LIFESCRIPT PHARMACY ,License Type: Pharmacy (Community),OAKLAND, ALAMEDA, 94621
LINDEN PHARMACY ,License Type: Pharmacy (Community),LINDEN, CALAVERAS, 95236
LIRX ,License Type: Pharmacy (Community),FREMONT, ALAMEDA, 94538
LISA FAMILY PHARMACY ,License Type: Pharmacy (Community),Public Reprimand, BUTTE, 95954
LISA FAMILY PHARMACY ,License Type: Pharmacy (Community),PARADISE, BUTTE, 95969
LONGS DRUG STORES CALIFORNIA LLC D/B/A CVS/PHARMACY #9772 ,License Type: Pharmacy (Community),ANTIOCH, CONTRA COSTA, 94509
LONGS DRUG STORES CALIFORNIA LLC D/B/A CVS/PHARMACY #9801 ,License Type: Pharmacy (Community),CLOVIS, FRESNO, 93612
LONGS DRUG STORES CALIFORNIA LLC DBA CVS PHARMACY #9324 ,License Type: Pharmacy (Community),WALNUT CREEK, CONTRA COSTA, 94595
LUCKY PHARMACY #212 ,License Type: Pharmacy (Community),ANTIOCH, CONTRA COSTA, 94509
LUCKY PHARMACY #705 ,License Type: Pharmacy (Community),CONCORD, CONTRA COSTA, 94521
LUCKY PHARMACY #709 ,License Type: Pharmacy (Community),EL CERRITO, CONTRA COSTA, 94530
LUCKY PHARMACY #711 ,License Type: Pharmacy (Community),FREMONT, ALAMEDA, 94539
LUCKY PHARMACY #712 ,License Type: Pharmacy (Community),FREMONT, ALAMEDA, 94555
LUCKY PHARMACY #714 ,License Type: Pharmacy (Community),FREMONT, ALAMEDA, 94538
LUCKY PHARMACY #715 ,License Type: Pharmacy (Community),HAYWARD, ALAMEDA, 94541
LUCKY PHARMACY #716 ,License Type: Pharmacy (Community),HAYWARD, ALAMEDA, 94544
LUCKY PHARMACY #718 ,License Type: Pharmacy (Community),HERCULES, CONTRA COSTA, 94547
LUCKY PHARMACY #721 ,License Type: Pharmacy (Community),LIVERMORE, ALAMEDA, 94550
LUCKY PHARMACY #722 ,License Type: Pharmacy (Community),LIVERMORE, ALAMEDA, 94550
LUCKY PHARMACY #736 ,License Type: Pharmacy (Community),OAKLAND, ALAMEDA, 94606
LUCKY PHARMACY #737 ,License Type: Pharmacy (Community),OAKLEY, CONTRA COSTA, 94561
LUCKY PHARMACY #742 ,License Type: Pharmacy (Community),PINOLE, CONTRA COSTA, 94564
LUCKY PHARMACY #744 ,License Type: Pharmacy (Community),PLEASANTON, ALAMEDA, 94588
LUCKY PHARMACY #767 ,License Type: Pharmacy (Community),SAN LEANDRO, ALAMEDA, 94578
LUCKY PHARMACY #768 ,License Type: Pharmacy (Community),SAN LORENZO, ALAMEDA, 94580
LUCKY PHARMACY #770 ,License Type: Pharmacy (Community),SAN RAMON, CONTRA COSTA, 94583
LUCKY PHARMACY #782 ,License Type: Pharmacy (Community),UNION CITY, ALAMEDA, 94587
MADISON HOME PHARMACY ,License Type: Pharmacy (Community),OROVILLE, BUTTE, 95966
MANOR DRUGS ,License Type: Pharmacy (Community),FRESNO, FRESNO, 93710
MARSHALL MEDICAL ONCOLOGY PHARMACY ,License Type: Pharmacy (Community),CAMERON PARK, EL DORADO, 95682
MARTINEZ DETENTION FACILITY PHARMACY ,License Type: Correctional Pharmacy,MARTINEZ, CONTRA COSTA, 94553
MASONIC HOME PHARMACY ,License Type: Pharmacy (Community),UNION CITY, ALAMEDA, 94587
MAXOR CORRECTIONAL PHARMACY SERVICES ,License Type: Pharmacy (Community),OAKLAND, ALAMEDA, 94607
MAXOR CORRECTIONAL PHARMACY SERVICES ,License Type: Pharmacy (Community),DUBLIN, ALAMEDA, 94568
MEADOWMONT PHARMACY ,License Type: Pharmacy (Community),ARNOLD, CALAVERAS, 95223
MEDICAL ARTS PHARMACY ,License Type: Pharmacy (Community),SAN LEANDRO, ALAMEDA, 94578
MEDICAL DENTAL PHARMACY ,License Type: Pharmacy (Community),Public Reprimand, FRESNO, 93720
MEDICINE SHOPPE ,License Type: Pharmacy (Community),CLOVIS, FRESNO, 93612
MEDICINE SHOPPE 485 ,License Type: Pharmacy (Community),Probation, FRESNO, 93728
MIDTOWN PHARMACY PROFESSIONAL CORPORATION ,License Type: Pharmacy (Community),ALAMEDA, ALAMEDA, 94502
MISSION PHARMACY ,License Type: Pharmacy (Community),HAYWARD, ALAMEDA, 94541
MIXMED PHARMACY ,License Type: Pharmacy (Community),CLOVIS, FRESNO, 93611
MODEL DRUG INC ,License Type: Pharmacy (Community),KINGSBURG, FRESNO, 93631
MODERN DRUG ,License Type: Pharmacy (Community),FRESNO, FRESNO, 93721
MODERN DRUG ,License Type: Pharmacy (Community),FRESNO, FRESNO, 93702
MOWRY MEDICAL PHARMACY ,License Type: Pharmacy (Community),FREMONT, ALAMEDA, 94538
MOWRY PLAZA PHARMACY ,License Type: Pharmacy (Community),FREMONT, ALAMEDA, 94536
MULE CREEK INFILL PHARMACY ,License Type: Correctional Pharmacy,IONE, AMADOR, 95640
MULE CREEK STATE PRISON PHARMACY ,License Type: Correctional Pharmacy,IONE, AMADOR, 95640
MY LAN PHARMACY ,License Type: Pharmacy (Community),OAKLAND, ALAMEDA, 94606
MYMED PHARMACY ,License Type: Pharmacy (Community),FRESNO, FRESNO, 93720
NEW CHINA TOWN PHARMACY ,License Type: Pharmacy (Community),OAKLAND, ALAMEDA, 94606
NEW OAKLAND PHARMACY #2 ,License Type: Pharmacy (Community),OAKLAND, ALAMEDA, 94607
NEW OAKLAND PHARMACY - LAKE MERRITT ,License Type: Pharmacy (Community),OAKLAND, ALAMEDA, 94606
NEW OAKLAND PHARMACY_#1 ,License Type: Pharmacy (Community),OAKLAND, ALAMEDA, 94607
NEW TIBURCIO VASQUEZ HEALTH CENTER PHY ,License Type: Pharmacy (Community),UNION CITY, ALAMEDA, 94587
NEWARK HALLER'S PHARMACY ,License Type: Pharmacy (Community),NEWARK, ALAMEDA, 94560
NICHOLS HILL PRESCRIPTION PHARMACY ,License Type: Pharmacy (Community),OAKLAND, ALAMEDA, 94609
NORTHWEST MEDICAL PHARMACY ,License Type: Pharmacy (Community),FRESNO, FRESNO, 93711
OAK GROVE PHARMACY ,License Type: Pharmacy (Community),CONCORD, CONTRA COSTA, 94518
OAKLAND CLINIC PHARMACY ,License Type: Pharmacy (Community),OAKLAND, ALAMEDA, 94618
OMNICARE OF HAYWARD ,License Type: Pharmacy (Community),HAYWARD, ALAMEDA, 94545
ONE POINT PATIENT CARE LLC ,License Type: Pharmacy (Community),SAN LEANDRO, ALAMEDA, 94577
OPTION CARE ,License Type: Pharmacy (Community),CHICO, BUTTE, 95926
OROVILLE CARE PHARMACY ,License Type: Pharmacy (Community),OROVILLE, BUTTE, 95966
PACIFIC PHARMACY ,License Type: Pharmacy (Community),OAKLAND, ALAMEDA, 94606
PARADISE DRUG ,License Type: Pharmacy (Community),CHICO, BUTTE, 95926
PELICAN BAY STATE PRISON PHARMACY ,License Type: Correctional Pharmacy,CRESCENT CITY, DEL NORTE, 95531
PERALTA OUTPATIENT PHARMACY ,License Type: Pharmacy (Community),OAKLAND, ALAMEDA, 94609
PETNET SOLUTIONS INC DBA PETNET PHARMACEUTICAL ,License Type: Pharmacy (Community),HAYWARD, ALAMEDA, 94545
PHARMACA INTEGRATIVE PHARMACY INC ,License Type: Pharmacy (Community),OAKLAND, ALAMEDA, 94618
PHARMACA INTEGRATIVE PHARMACY INC ,License Type: Pharmacy (Community),BERKELEY, ALAMEDA, 94707
PHARMATRON A PHARMACY CORPORATION ,License Type: Pharmacy (Community),FRESNO, FRESNO, 93710
PHARMERICA ,License Type: Pharmacy (Community),UNION CITY, ALAMEDA, 94587
PHARMERICA ,License Type: Pharmacy (Community),FRESNO, FRESNO, 93726
PILL BOX PHARMACY ,License Type: Pharmacy (Community),FRESNO, FRESNO, 93726
PINE CONE DRUG ,License Type: Pharmacy (Community),PINE GROVE, AMADOR, 95665
PLEASANT CARE PHARMACY ,License Type: Pharmacy (Community),HAYWARD, ALAMEDA, 94541
PLEASANT VALLEY STATE PRISON ,License Type: Correctional Pharmacy,COALINGA, FRESNO, 93210
POINT RX ,License Type: Pharmacy (Community),POINT RICHMOND, CONTRA COSTA, 94801
POSTMEDS INC ,License Type: Pharmacy (Community),HAYWARD, ALAMEDA, 94545
PREMIER PHARMACY ,License Type: Pharmacy (Community),SAN RAMON, CONTRA COSTA, 94583
PRIMARY CARE PHARMACY ,License Type: Pharmacy (Community),FRESNO, FRESNO, 93727
RALEYS PHARMACY #127 ,License Type: Pharmacy (Community),SOUTH LAKE TAHOE, EL DORADO, 96150
RALEYS PHARMACY #236 ,License Type: Pharmacy (Community),OROVILLE, BUTTE, 95966
RALEYS PHARMACY #245 ,License Type: Pharmacy (Community),CHICO, BUTTE, 95926
RALEYS PHARMACY #249 ,License Type: Pharmacy (Community),CHICO, BUTTE, 95928
RALEYS PHARMACY #304 ,License Type: Pharmacy (Community),OAKLEY, CONTRA COSTA, 94561
RALEYS PHARMACY #315 ,License Type: Pharmacy (Community),FREMONT, ALAMEDA, 94538
RALEYS PHARMACY #316 ,License Type: Pharmacy (Community),PLEASANTON, ALAMEDA, 94566
RALEYS PHARMACY #333 ,License Type: Pharmacy (Community),ANTIOCH, CONTRA COSTA, 94509
RALEYS PHARMACY #336 ,License Type: Pharmacy (Community),BRENTWOOD, CONTRA COSTA, 94513
RALEYS PHARMACY #422 ,License Type: Pharmacy (Community),PLACERVILLE, EL DORADO, 95667
RALEYS PHARMACY #424 ,License Type: Pharmacy (Community),EL DORADO HILLS, EL DORADO, 95762
RALEYS PHARMACY #426 ,License Type: Pharmacy (Community),JACKSON, AMADOR, 95642
"RAY FISHER PHARMACY, INC. ",License Type: Pharmacy (Community),Probation, FRESNO, 93710
REDWOOD LTC PHARMACY ,License Type: Pharmacy (Community),CASTRO VALLEY, ALAMEDA, 94546
REEDLEY PRO SCRIPT PHARMACY ,License Type: Pharmacy (Community),REEDLEY, FRESNO, 93654
RHEEM SPECIALTY PHARMACY LLC ,License Type: Pharmacy (Community),MORAGA, CONTRA COSTA, 94556
RIDGECREST PHARMACY ,License Type: Pharmacy (Community),WALNUT CREEK, CONTRA COSTA, 94596
RITE AID #4072 ,License Type: Pharmacy (Community),FRESNO, FRESNO, 93730
RITE AID #5860 ,License Type: Pharmacy (Community),SELMA, FRESNO, 93662
RITE AID #6091 ,License Type: Pharmacy (Community),OROVILLE, BUTTE, 95966
RITE AID #6356 ,License Type: Pharmacy (Community),ANTIOCH, CONTRA COSTA, 94531
RITE AID #6526 ,License Type: Pharmacy (Community),CAMERON PARK, EL DORADO, 95682
RITE AID #6548 ,License Type: Pharmacy (Community),MAGALIA, BUTTE, 95954
RITE AID 5793 ,License Type: Pharmacy (Community),COALINGA, FRESNO, 93210
RITE AID 5853 ,License Type: Pharmacy (Community),KERMAN, FRESNO, 93630
RITE AID 5858 ,License Type: Pharmacy (Community),REEDLEY, FRESNO, 93654
RITE AID 5861 ,License Type: Pharmacy (Community),FRESNO, FRESNO, 93726
RITE AID 5863 ,License Type: Pharmacy (Community),FRESNO, FRESNO, 93710
RITE AID 5865 ,License Type: Pharmacy (Community),FRESNO, FRESNO, 93711
RITE AID 5907 ,License Type: Pharmacy (Community),ALAMO, CONTRA COSTA, 94507
RITE AID 5908 ,License Type: Pharmacy (Community),ANTIOCH, CONTRA COSTA, 94509
RITE AID 5909 ,License Type: Pharmacy (Community),ANTIOCH, CONTRA COSTA, 94531
RITE AID 5913 ,License Type: Pharmacy (Community),CONCORD, CONTRA COSTA, 94520
RITE AID 5915 ,License Type: Pharmacy (Community),PLEASANT HILL, CONTRA COSTA, 94523
RITE AID 5918 ,License Type: Pharmacy (Community),FREMONT, ALAMEDA, 94538
RITE AID 5920 ,License Type: Pharmacy (Community),HAYWARD, ALAMEDA, 94544
RITE AID 5922 ,License Type: Pharmacy (Community),CASTRO VALLEY, ALAMEDA, 94546
RITE AID 5923 ,License Type: Pharmacy (Community),HERCULES, CONTRA COSTA, 94547
RITE AID 5925 ,License Type: Pharmacy (Community),LIVERMORE, ALAMEDA, 94550
RITE AID 5927 ,License Type: Pharmacy (Community),MARTINEZ, CONTRA COSTA, 94553
RITE AID 5931 ,License Type: Pharmacy (Community),OAKLEY, CONTRA COSTA, 94561
RITE AID 5933 ,License Type: Pharmacy (Community),ORINDA, CONTRA COSTA, 94563
RITE AID 5935 ,License Type: Pharmacy (Community),BAY POINT, CONTRA COSTA, 94565
RITE AID 5937 ,License Type: Pharmacy (Community),SAN LEANDRO, ALAMEDA, 94577
RITE AID 5940 ,License Type: Pharmacy (Community),SAN RAMON, CONTRA COSTA, 94583
RITE AID 5942 ,License Type: Pharmacy (Community),UNION CITY, ALAMEDA, 94587
RITE AID 5943 ,License Type: Pharmacy (Community),UNION CITY, ALAMEDA, 94587
RITE AID 5944 ,License Type: Pharmacy (Community),PLEASANTON, ALAMEDA, 94588
RITE AID 5947 ,License Type: Pharmacy (Community),WALNUT CREEK, CONTRA COSTA, 94595
RITE AID 5948 ,License Type: Pharmacy (Community),WALNUT CREEK, CONTRA COSTA, 94597
RITE AID 5952 ,License Type: Pharmacy (Community),OAKLAND, ALAMEDA, 94611
RITE AID 5999 ,License Type: Pharmacy (Community),ANGELS CAMP, CALAVERAS, 95222
RITE AID 6040 ,License Type: Pharmacy (Community),CRESCENT CITY, DEL NORTE, 95531
RITE AID 6057 ,License Type: Pharmacy (Community),PLACERVILLE, EL DORADO, 95667
RITE AID 6058 ,License Type: Pharmacy (Community),PLACERVILLE, EL DORADO, 95667
RITE AID 6088 ,License Type: Pharmacy (Community),COLUSA, COLUSA, 95932
RITE AID 6090 ,License Type: Pharmacy (Community),GRIDLEY, BUTTE, 95948
RITE AID 6092 ,License Type: Pharmacy (Community),PARADISE, BUTTE, 95969
RITE AID 6094 ,License Type: Pharmacy (Community),CHICO, BUTTE, 95926
RITE AID 6107 ,License Type: Pharmacy (Community),SOUTH LAKE TAHOE, EL DORADO, 96150
RITE AID NO 5862 ,License Type: Pharmacy (Community),FRESNO, FRESNO, 93703
RITE AID NO 5869 ,License Type: Pharmacy (Community),FRESNO, FRESNO, 93722
RITE AID NO 5872 ,License Type: Pharmacy (Community),FRESNO, FRESNO, 93727
RITE AID NO 6087 ,License Type: Pharmacy (Community),CHICO, BUTTE, 95926
RITE AID NO 6289 ,License Type: Pharmacy (Community),FRESNO, FRESNO, 93705
RITE AID NO 6295 ,License Type: Pharmacy (Community),FRESNO, FRESNO, 93706
RITE AID NO 6378 ,License Type: Pharmacy (Community),FRESNO, FRESNO, 93720
RITE AID NO 6456 ,License Type: Pharmacy (Community),LIVERMORE, ALAMEDA, 94551
RITE AID NO 6476 ,License Type: Pharmacy (Community),FRESNO, FRESNO, 93720
RIVERDALE DRUG ,License Type: Pharmacy (Community),RIVERDALE, FRESNO, 93656
ROBINSON'S PHARMACY ,License Type: Pharmacy (Community),PLACERVILLE, EL DORADO, 95667
ROYAL PHARMACY ,License Type: Pharmacy (Community),WALNUT CREEK, CONTRA COSTA, 94598
RX CARE PHARMACY ,License Type: Pharmacy (Community),COALINGA, FRESNO, 93210
SAFEWAY PHARMACY #0302 ,License Type: Pharmacy (Community),PARADISE, BUTTE, 95969
SAFEWAY PHARMACY #0676 ,License Type: Pharmacy (Community),ALBANY, ALAMEDA, 94707
SAFEWAY PHARMACY #0691 ,License Type: Pharmacy (Community),BERKELEY, ALAMEDA, 94709
SAFEWAY PHARMACY #0768 ,License Type: Pharmacy (Community),CASTRO VALLEY, ALAMEDA, 94546
SAFEWAY PHARMACY #0783 ,License Type: Pharmacy (Community),LAFAYETTE, CONTRA COSTA, 94549
SAFEWAY PHARMACY #0908 ,License Type: Pharmacy (Community),OAKLAND, ALAMEDA, 94602
SAFEWAY PHARMACY #0917 ,License Type: Pharmacy (Community),WALNUT CREEK, CONTRA COSTA, 94596
SAFEWAY PHARMACY #0951 ,License Type: Pharmacy (Community),ALAMEDA, ALAMEDA, 94502
SAFEWAY PHARMACY #0954 ,License Type: Pharmacy (Community),CRESCENT CITY, DEL NORTE, 95531
SAFEWAY PHARMACY #0955 ,License Type: Pharmacy (Community),CONCORD, CONTRA COSTA, 94519
SAFEWAY PHARMACY #0971 ,License Type: Pharmacy (Community),HAYWARD, ALAMEDA, 94541
SAFEWAY PHARMACY #0972 ,License Type: Pharmacy (Community),MARTINEZ, CONTRA COSTA, 94553
SAFEWAY PHARMACY #0982 ,License Type: Pharmacy (Community),SAN RAMON, CONTRA COSTA, 94583
SAFEWAY PHARMACY #0993 ,License Type: Pharmacy (Community),FREMONT, ALAMEDA, 94538
SAFEWAY PHARMACY #1125 ,License Type: Pharmacy (Community),CHICO, BUTTE, 95926
SAFEWAY PHARMACY #1192 ,License Type: Pharmacy (Community),CONCORD, CONTRA COSTA, 94521
SAFEWAY PHARMACY #1195 ,License Type: Pharmacy (Community),CLAYTON, CONTRA COSTA, 94517
SAFEWAY PHARMACY #1197 ,License Type: Pharmacy (Community),UNION CITY, ALAMEDA, 94587
SAFEWAY PHARMACY #1211 ,License Type: Pharmacy (Community),DANVILLE, CONTRA COSTA, 94506
SAFEWAY PHARMACY #1215 ,License Type: Pharmacy (Community),PITTSBURG, CONTRA COSTA, 94565
SAFEWAY PHARMACY #1234 ,License Type: Pharmacy (Community),BRENTWOOD, CONTRA COSTA, 94513
SAFEWAY PHARMACY #1257 ,License Type: Pharmacy (Community),LIVERMORE, ALAMEDA, 94551
SAFEWAY PHARMACY #1259 ,License Type: Pharmacy (Community),ANTIOCH, CONTRA COSTA, 94531
SAFEWAY PHARMACY #1541 ,License Type: Pharmacy (Community),PLEASANT HILL, CONTRA COSTA, 94523
SAFEWAY PHARMACY #1618 ,License Type: Pharmacy (Community),CAMERON PARK, EL DORADO, 95682
SAFEWAY PHARMACY #1724 ,License Type: Pharmacy (Community),PLACERVILLE, EL DORADO, 95667
SAFEWAY PHARMACY #1824 ,License Type: Pharmacy (Community),SOUTH LAKE TAHOE, EL DORADO, 96150
SAFEWAY PHARMACY #1825 ,License Type: Pharmacy (Community),POLLOCK PINES, EL DORADO, 95726
SAFEWAY PHARMACY #1917 ,License Type: Pharmacy (Community),DISCOVERY BAY, CONTRA COSTA, 94505
SAFEWAY PHARMACY #1931 ,License Type: Pharmacy (Community),FREMONT, ALAMEDA, 94539
SAFEWAY PHARMACY #1932 ,License Type: Pharmacy (Community),DUBLIN, ALAMEDA, 94568
SAFEWAY PHARMACY #1953 ,License Type: Pharmacy (Community),DUBLIN, ALAMEDA, 94568
SAFEWAY PHARMACY #2287 ,License Type: Pharmacy (Community),GRIDLEY, BUTTE, 95948
SAFEWAY PHARMACY #2683 ,License Type: Pharmacy (Community),EL DORADO HILLS, EL DORADO, 95762
SAFEWAY PHARMACY #2708 ,License Type: Pharmacy (Community),ALAMEDA, ALAMEDA, 94501
SAFEWAY PHARMACY #2712 ,License Type: Pharmacy (Community),SAN RAMON, CONTRA COSTA, 94582
SAFEWAY PHARMACY #2778 ,License Type: Pharmacy (Community),JACKSON, AMADOR, 95642
SAFEWAY PHARMACY #2856 ,License Type: Pharmacy (Community),PLEASANTON, ALAMEDA, 94566
SAFEWAY PHARMACY #2870 ,License Type: Pharmacy (Community),OAKLAND, ALAMEDA, 94618
SAFEWAY PHARMACY #2940 ,License Type: Pharmacy (Community),EL CERRITO, CONTRA COSTA, 94530
SAFEWAY PHARMACY #2941 ,License Type: Pharmacy (Community),PLEASANT HILL, CONTRA COSTA, 94523
SAFEWAY PHARMACY #3026 ,License Type: Pharmacy (Community),WALNUT CREEK, CONTRA COSTA, 94598
SAFEWAY PHARMACY #3125 ,License Type: Pharmacy (Community),EMERYVILLE, ALAMEDA, 94608
SAFEWAY PHARMACY #3132 ,License Type: Pharmacy (Community),OAKLAND, ALAMEDA, 94611
SAFEWAY PHARMACY #3281 ,License Type: Pharmacy (Community),ALAMEDA, ALAMEDA, 94501
SAM'S CLUB PHARMACY 10-6612 ,License Type: Pharmacy (Community),CONCORD, CONTRA COSTA, 94520
SAM'S PHARMACY NO 10-4704 ,License Type: Pharmacy (Community),FRESNO, FRESNO, 93720
SAVE MART SUPERMARKETS #52 ,License Type: Pharmacy (Community),CLOVIS, FRESNO, 93611
SAVE MART SUPERMARKETS #602 ,License Type: Pharmacy (Community),CHICO, BUTTE, 95926
SAVE MART SUPERMARKETS #65 ,License Type: Pharmacy (Community),FRESNO, FRESNO, 93711
SAVE MART SUPERMARKETS #651 ,License Type: Pharmacy (Community),FRESNO, FRESNO, 93710
SAVE MART SUPERMARKETS #71 ,License Type: Pharmacy (Community),FRESNO, FRESNO, 93720
SAVE MART SUPERMARKETS #78 ,License Type: Pharmacy (Community),FRESNO, FRESNO, 93720
SAVE MART SUPERMARKETS #87 ,License Type: Pharmacy (Community),CLOVIS, FRESNO, 93611
SAVE MART SUPERMARKETS #93 ,License Type: Pharmacy (Community),FRESNO, FRESNO, 93722
SAVE MART SUPERMARKETS #98 ,License Type: Pharmacy (Community),CLOVIS, FRESNO, 93611
SCRIPTWORKS - A PROFESSIONAL PHARMACY ,License Type: Pharmacy (Community),WALNUT CREEK, CONTRA COSTA, 94598
SHINGLE SPRINGS HEALTH & WELLNESS CENTER ,License Type: Pharmacy (Community),PLACERVILLE, EL DORADO, 95667
SKILLED NURSING PHARMACY ,License Type: Pharmacy (Community),HAYWARD, ALAMEDA, 94545
SOLANO PHARMACY ,License Type: Pharmacy (Community),CONCORD, CONTRA COSTA, 94520
SOLEO HEALTH INC ,License Type: Pharmacy (Community),HAYWARD, ALAMEDA, 94545
STANFORD EMERYVILLE HEALTH CENTER PHARMACY ,License Type: Pharmacy (Community),EMERYVILLE, ALAMEDA, 94608
STUDENT HEALTH SERVICE PHARMACY ,License Type: Pharmacy (Government Owned Community),FRESNO, FRESNO, 93740
STUDENT HEALTH SVC PHY-CA ST UNIV CHICO ,License Type: Pharmacy (Government Owned Community),CHICO, BUTTE, 95929
SUNNYSIDE PHARMACY ,License Type: Pharmacy (Community),FRESNO, FRESNO, 93727
SUTTER INFUSION & PHARMACY SERVICES ,License Type: Pharmacy (Community),ALAMEDA, ALAMEDA, 94501
SYCAMORE MEDICAL PHARMACY ,License Type: Pharmacy (Community),CONCORD, CONTRA COSTA, 94520
TAHOE VALLEY PHARMACY ,License Type: Pharmacy (Community),SO LAKE TAHOE, EL DORADO, 96150
TEDS DRUGS ,License Type: Pharmacy (Community),HAYWARD, ALAMEDA, 94545
TENNYSON PHARMACY ,License Type: Pharmacy (Community),HAYWARD, ALAMEDA, 94544
THE MEDICINE CHEST PHARMACY ,License Type: Pharmacy (Community),FRESNO, FRESNO, 93703
THE MEDICINE SHOPPE ,License Type: Pharmacy (Community),ORINDA, CONTRA COSTA, 94563
THE MEDICINE SHOPPE ,License Type: Pharmacy (Community),PLEASANT HILL, CONTRA COSTA, 94523
THE MEDICINE SHOPPE ,License Type: Pharmacy (Community),PLEASANTON, ALAMEDA, 94588
THE MEDICINE SHOPPE ,License Type: Pharmacy (Community),FRESNO, FRESNO, 93727
THE MEDICINE SHOPPE ,License Type: Pharmacy (Community),FRESNO, FRESNO, 93726
THE MEDICINE SHOPPE PHARMACY ,License Type: Pharmacy (Community),FRESNO, FRESNO, 93722
TIB PHARMACY LLC ,License Type: Pharmacy (Community),NEWARK, ALAMEDA, 94560
UNITED HEALTH CENTERS PHARMACY HURON ,License Type: Pharmacy (Community),HURON, FRESNO, 93234
UNITED HEALTH CENTERS PHARMACY KERMAN ,License Type: Pharmacy (Community),KERMAN, FRESNO, 93630
UNITED HEALTH CENTERS PHARMACY MENDOTA ,License Type: Pharmacy (Community),MENDOTA, FRESNO, 93640
UNITED HEALTH CENTERS PHARMACY ORANGE COVE ,License Type: Pharmacy (Community),ORANGE COVE, FRESNO, 93646
UNITED HEALTH CENTERS PHARMACY PARLIER ,License Type: Pharmacy (Community),PARLIER, FRESNO, 93648
UNITED HEALTH CENTERS PHARMACY SANGER ,License Type: Pharmacy (Community),SANGER, FRESNO, 93657
UNITED PHARMACY ,License Type: Pharmacy (Community),BERKELEY, ALAMEDA, 94705
UNIVERSITY HEALTH SERVICE PHARMACY ,License Type: Pharmacy (Government Owned Community),BERKELEY, ALAMEDA, 94702
UNIVERSITY MEDICAL CENTER PHARMACY ,License Type: Pharmacy (Community),FRESNO, FRESNO, 93701
VALE ROAD PHARMACY ,License Type: Pharmacy (Community),SAN PABLO, CONTRA COSTA, 94806
VALLEY CHILDREN'S HOSPITAL ,License Type: Pharmacy (Community),FRESNO, FRESNO, 93711
VALLEY CHILDREN'S HOSPITAL ,License Type: Pharmacy (Community),FRESNO, FRESNO, 93727
VERSAILLES PHARMACY ,License Type: Pharmacy (Community),ALAMEDA, ALAMEDA, 94501
VIBRANT CARE PHARMACY INC ,License Type: Pharmacy (Community),OAKLAND, ALAMEDA, 94605
VINA PHARMACY ,License Type: Pharmacy (Community),FRESNO, FRESNO, 93703
VITACARE PHARMACY ,License Type: Pharmacy (Community),OAKLAND, ALAMEDA, 94612
VONS PHARMACY #1754 ,License Type: Pharmacy (Community),FRESNO, FRESNO, 93727
VONS PHARMACY #1756 ,License Type: Pharmacy (Community),CLOVIS, FRESNO, 93611
VONS PHARMACY #2188 ,License Type: Pharmacy (Community),FRESNO, FRESNO, 93720
VONS PHARMACY #2701 ,License Type: Pharmacy (Community),CLOVIS, FRESNO, 93611
WAL MART PHARMACY  10-2001 ,License Type: Pharmacy (Community),FRESNO, FRESNO, 93727
WAL MART PHARMACY 10 1615 ,License Type: Pharmacy (Community),PITTSBURG, CONTRA COSTA, 94565
WAL MART PHARMACY 10 2031 ,License Type: Pharmacy (Community),UNION CITY, ALAMEDA, 94587
WAL MART PHARMACY 10-2054 ,License Type: Pharmacy (Community),JACKSON, AMADOR, 95642
WAL-MART PHARMACY 10 2044 ,License Type: Pharmacy (Community),CHICO, BUTTE, 95928
WAL-MART PHARMACY 10-1910 ,License Type: Pharmacy (Community),CRESCENT CITY, DEL NORTE, 95531
WAL-MART PHARMACY 10-1972 ,License Type: Pharmacy (Community),LIVERMORE, ALAMEDA, 94551
WAL-MART PHARMACY 10-4238 ,License Type: Pharmacy (Community),SANGER, FRESNO, 93657
WAL-MART PHARMACY 10-5337 ,License Type: Pharmacy (Community),CLOVIS, FRESNO, 93611
WAL-MART PHARMACY 10-5434 ,License Type: Pharmacy (Community),SAN LEANDRO, ALAMEDA, 94579
WAL-MART PHARMACY 10-5610 ,License Type: Pharmacy (Community),SAN RAMON, CONTRA COSTA, 94583
WAL-MART PHARMACY 10-5611 ,License Type: Pharmacy (Community),PLEASANTON, ALAMEDA, 94566
WAL-MART PHARMACY 10-5633 ,License Type: Pharmacy (Community),CLOVIS, FRESNO, 93611
WAL-MART PHARMACY 10-5634 ,License Type: Pharmacy (Community),FRESNO, FRESNO, 93710
WAL-MART PHARMACY 10-5701 ,License Type: Pharmacy (Community),KERMAN, FRESNO, 93630
WALGREEN CO D/B/A WALGREENS #15078 ,License Type: Pharmacy (Community),WALNUT CREEK, CONTRA COSTA, 94598
WALGREEN CO D/B/A WALGREENS #15330 ,License Type: Pharmacy (Community),OAKLAND, ALAMEDA, 94605
WALGREEN CO D/B/A WALGREENS #15947 ,License Type: Pharmacy (Community),SAN PABLO, CONTRA COSTA, 94806
WALGREENS #00101 ,License Type: Pharmacy (Community),CASTRO VALLEY, ALAMEDA, 94546
WALGREENS #01536 ,License Type: Pharmacy (Community),OAKLAND, ALAMEDA, 94619
WALGREENS #01537 ,License Type: Pharmacy (Community),OAKLAND, ALAMEDA, 94601
WALGREENS #01625 ,License Type: Pharmacy (Community),OAKLAND, ALAMEDA, 94609
WALGREENS #02112 ,License Type: Pharmacy (Community),CLAYTON, CONTRA COSTA, 94517
WALGREENS #02150 ,License Type: Pharmacy (Community),PLEASANTON, ALAMEDA, 94566
WALGREENS #02306 ,License Type: Pharmacy (Community),Probation Terminated/Completed, ALAMEDA, 94544
WALGREENS #02314 ,License Type: Pharmacy (Community),BERKELEY, ALAMEDA, 94710
WALGREENS #02366 ,License Type: Pharmacy (Community),FREMONT, ALAMEDA, 94555
WALGREENS #02401 ,License Type: Pharmacy (Community),HAYWARD, ALAMEDA, 94541
WALGREENS #02426 ,License Type: Pharmacy (Community),SAN LEANDRO, ALAMEDA, 94579
WALGREENS #02485 ,License Type: Pharmacy (Community),SAN RAMON, CONTRA COSTA, 94583
WALGREENS #02506 ,License Type: Pharmacy (Community),RICHMOND, CONTRA COSTA, 94801
WALGREENS #02560 ,License Type: Pharmacy (Community),DANVILLE, CONTRA COSTA, 94526
WALGREENS #02609 ,License Type: Pharmacy (Community),BERKELEY, ALAMEDA, 94702
WALGREENS #02660 ,License Type: Pharmacy (Community),FREMONT, ALAMEDA, 94538
WALGREENS #03164 ,License Type: Pharmacy (Community),CONCORD, CONTRA COSTA, 94520
WALGREENS #03170 ,License Type: Pharmacy (Community),OAKLAND, ALAMEDA, 94609
WALGREENS #03295 ,License Type: Pharmacy (Community),OAKLAND, ALAMEDA, 94621
WALGREENS #03770 ,License Type: Pharmacy (Community),EL CERRITO, CONTRA COSTA, 94530
WALGREENS #03877 ,License Type: Pharmacy (Community),PARADISE, BUTTE, 95969
WALGREENS #04026 ,License Type: Pharmacy (Community),WALNUT CREEK, CONTRA COSTA, 94597
WALGREENS #04049 ,License Type: Pharmacy (Community),EL SOBRANTE, CONTRA COSTA, 94803
WALGREENS #04050 ,License Type: Pharmacy (Community),ALAMEDA, ALAMEDA, 94501
WALGREENS #04491 ,License Type: Pharmacy (Community),SAN PABLO, CONTRA COSTA, 94806
WALGREENS #04517 ,License Type: Pharmacy (Community),FREMONT, ALAMEDA, 94538
WALGREENS #04614 ,License Type: Pharmacy (Community),BERKELEY, ALAMEDA, 94703
WALGREENS #04659 ,License Type: Pharmacy (Community),HAYWARD, ALAMEDA, 94544
WALGREENS #04724 ,License Type: Pharmacy (Community),ANTIOCH, CONTRA COSTA, 94531
WALGREENS #04907 ,License Type: Pharmacy (Community),FRESNO, FRESNO, 93705
WALGREENS #05207 ,License Type: Pharmacy (Community),CHICO, BUTTE, 95926
WALGREENS #05847 ,License Type: Pharmacy (Community),FRESNO, FRESNO, 93720
WALGREENS #05864 ,License Type: Pharmacy (Community),PLEASANT HILL, CONTRA COSTA, 94523
WALGREENS #06082 ,License Type: Pharmacy (Community),FRESNO, FRESNO, 93727
WALGREENS #06101 ,License Type: Pharmacy (Community),MARTINEZ, CONTRA COSTA, 94553
WALGREENS #06141 ,License Type: Pharmacy (Community),OROVILLE, BUTTE, 95966
WALGREENS #06386 ,License Type: Pharmacy (Community),FRESNO, FRESNO, 93727
WALGREENS #06387 ,License Type: Pharmacy (Community),CLOVIS, FRESNO, 93611
WALGREENS #06502 ,License Type: Pharmacy (Community),HAYWARD, ALAMEDA, 94541
WALGREENS #06871 ,License Type: Pharmacy (Community),BRENTWOOD, CONTRA COSTA, 94513
WALGREENS #06942 ,License Type: Pharmacy (Community),FRESNO, FRESNO, 93722
WALGREENS #07204 ,License Type: Pharmacy (Community),FRESNO, FRESNO, 93711
WALGREENS #07266 ,License Type: Pharmacy (Community),FRESNO, FRESNO, 93720
WALGREENS #07274 ,License Type: Pharmacy (Community),SAN LEANDRO, ALAMEDA, 94578
WALGREENS #07376 ,License Type: Pharmacy (Community),PITTSBURG, CONTRA COSTA, 94565
WALGREENS #07830 ,License Type: Pharmacy (Community),CLOVIS, FRESNO, 93612
WALGREENS #09102 ,License Type: Pharmacy (Community),BRENTWOOD, CONTRA COSTA, 94513
WALGREENS #09248 ,License Type: Pharmacy (Community),ALAMEDA, ALAMEDA, 94501
WALGREENS #09655 ,License Type: Pharmacy (Community),FRESNO, FRESNO, 93710
WALGREENS #09702 ,License Type: Pharmacy (Community),FRESNO, FRESNO, 93710
WALGREENS #09815 ,License Type: Pharmacy (Community),KINGSBURG, FRESNO, 93631
WALGREENS #09978 ,License Type: Pharmacy (Community),BRENTWOOD, CONTRA COSTA, 94513
WALGREENS #10045 ,License Type: Pharmacy (Community),BERKELEY, ALAMEDA, 94704
WALGREENS #10243 ,License Type: Pharmacy (Community),FRESNO, FRESNO, 93703
WALGREENS #10334 ,License Type: Pharmacy (Community),CLOVIS, FRESNO, 93611
WALGREENS #10335 ,License Type: Pharmacy (Community),FRESNO, FRESNO, 93722
WALGREENS #10481 ,License Type: Pharmacy (Community),COALINGA, FRESNO, 93210
WALGREENS #10526 ,License Type: Pharmacy (Community),OAKLAND, ALAMEDA, 94610
WALGREENS #10599 ,License Type: Pharmacy (Community),CAMERON PARK, EL DORADO, 95682
WALGREENS #11614 ,License Type: Pharmacy (Community),PINOLE, CONTRA COSTA, 94564
WALGREENS #11706 ,License Type: Pharmacy (Community),OAKLAND, ALAMEDA, 94606
WALGREENS #11754 ,License Type: Pharmacy (Community),CRESCENT CITY, DEL NORTE, 95531
WALGREENS #11823 ,License Type: Pharmacy (Community),PLACERVILLE, EL DORADO, 95667
WALGREENS #11877 ,License Type: Pharmacy (Community),FRESNO, FRESNO, 93722
WALGREENS #12282 ,License Type: Pharmacy (Community),SANGER, FRESNO, 93657
WALGREENS #12298 ,License Type: Pharmacy (Community),REEDLEY, FRESNO, 93654
WALGREENS #12337 ,License Type: Pharmacy (Community),SELMA, FRESNO, 93662
WALGREENS #12528 ,License Type: Pharmacy (Community),SUTTER CREEK, AMADOR, 95685
WALGREENS #12574 ,License Type: Pharmacy (Community),FRESNO, FRESNO, 93703
WALGREENS #12707 ,License Type: Pharmacy (Community),FRESNO, FRESNO, 93726
WALGREENS #12840 ,License Type: Pharmacy (Community),EL DORADO HILLS, EL DORADO, 95762
WALGREENS #13000 ,License Type: Pharmacy (Community),Accusation filed, BUTTE, 95926
WALGREENS #13026 ,License Type: Pharmacy (Community),BAY POINT, CONTRA COSTA, 94565
WALGREENS #13595 ,License Type: Pharmacy (Community),OAKLAND, ALAMEDA, 94612
WALGREENS #13796 ,License Type: Pharmacy (Community),SAN PABLO, CONTRA COSTA, 94806
WALGREENS #13858 ,License Type: Pharmacy (Community),BERKELEY, ALAMEDA, 94709
WALGREENS #13871 ,License Type: Pharmacy (Community),FRESNO, FRESNO, 93711
WALGREENS #15003 ,License Type: Pharmacy (Community),CONCORD, CONTRA COSTA, 94520
WALGREENS #15025 ,License Type: Pharmacy (Community),BERKELEY, ALAMEDA, 94704
WALGREENS #15163 ,License Type: Pharmacy (Community),LIVERMORE, ALAMEDA, 94550
WALGREENS #15666 ,License Type: Pharmacy (Community),ALAMEDA, ALAMEDA, 94501
WALGREENS #15946 ,License Type: Pharmacy (Community),LAFAYETTE, CONTRA COSTA, 94549
WALGREENS #16090 ,License Type: Pharmacy (Community),SAN RAMON, CONTRA COSTA, 94582
WALMART PHARMACY #10-1575 ,License Type: Pharmacy (Community),OROVILLE, BUTTE, 95965
WALMART PHARMACY #10-1815 ,License Type: Pharmacy (Community),FRESNO, FRESNO, 93711
WALMART PHARMACY #10-2418 ,License Type: Pharmacy (Community),PLACERVILLE, EL DORADO, 95667
WALMART PHARMACY #10-2689 ,License Type: Pharmacy (Community),FRESNO, FRESNO, 93703
WALMART PHARMACY #10-2989 ,License Type: Pharmacy (Community),FREMONT, ALAMEDA, 94539
WALMART PHARMACY #10-3455 ,License Type: Pharmacy (Community),RICHMOND, CONTRA COSTA, 94806
WALMART PHARMACY #10-5426 ,License Type: Pharmacy (Community),FREMONT, ALAMEDA, 94538
WALMART PHARMACY 10 1882 ,License Type: Pharmacy (Community),SELMA, FRESNO, 93662
WALMART PHARMACY 10 2161 ,License Type: Pharmacy (Community),PLEASANTON, ALAMEDA, 94588
WALMART PHARMACY 10 2277 ,License Type: Pharmacy (Community),CLOVIS, FRESNO, 93612
WALMART PHARMACY 10-5632 ,License Type: Pharmacy (Community),FRESNO, FRESNO, 93726
WALMART PHARMACY NO 10 2648 ,License Type: Pharmacy (Community),SAN LEANDRO, ALAMEDA, 94577
WALMART PHARMACY NO 10-2697 ,License Type: Pharmacy (Community),ANTIOCH, CONTRA COSTA, 94531
WALMART PHARMACY NO 10-2985 ,License Type: Pharmacy (Community),FRESNO, FRESNO, 93650
WALMART PHARMACY NO 10-3493 ,License Type: Pharmacy (Community),MARTINEZ, CONTRA COSTA, 94553
WELLPLUS PHARMACY INC ,License Type: Pharmacy (Community),FRESNO, FRESNO, 93711
WELLSPRING COMPOUNDING PHARMACY ,License Type: Pharmacy (Community),BERKELEY, ALAMEDA, 94704
WELLSPRING PHARMACY ,License Type: Pharmacy (Community),OAKLAND, ALAMEDA, 94611
WEST COUNTY DETENTION FACILITY PHARMACY ,License Type: Correctional Pharmacy,RICHMOND, CONTRA COSTA, 94806
WEST OAKLAND HEALTH CENTER PHARM ,License Type: Pharmacy (Community),OAKLAND, ALAMEDA, 94607
WEST SIDE DRUG CO ,License Type: Pharmacy (Community),FIREBAUGH, FRESNO, 93622
