,name,license_type,county,city,zip
0,3175 PHARMACY ,License Type: Pharmacy (Community),SAN FRANCISCO, SAN FRANCISCO, 94110
1,A & O PENINSULA PHARMACY ,License Type: Pharmacy (Community),BURLINGAME, SAN MATEO, 94010
2,ABALA PHARMACY ,License Type: Pharmacy (Community),TRACY, SAN JOAQUIN, 95376
3,ABORN PHARMACY ,License Type: Pharmacy (Community),Accusation filed, SANTA CLARA, 95121
4,ADVENTIST HEALTH LODI MEMORIAL PHARMACY WEST ,License Type: Pharmacy (Community),LODI, SAN JOAQUIN, 95242
5,AIDS HEALTHCARE FOUNDATION DBA AHF PHARMACY ,License Type: Pharmacy (Community),SAN FRANCISCO, SAN FRANCISCO, 94114
6,ALPHASCRIPT INC ,License Type: Pharmacy (Community),SAN CARLOS, SAN MATEO, 94070
7,ALTO PHARMACY ,License Type: Pharmacy (Community),SAN FRANCISCO, SAN FRANCISCO, 94107
8,ALUM ROCK PHARMACY ,License Type: Pharmacy (Community),SAN JOSE, SANTA CLARA, 95116
9,ANCHOR DRUGS III ,License Type: Pharmacy (Community),S SAN FRANCISCO, SAN MATEO, 94080
10,ANGKOR PHARMACY ,License Type: Pharmacy (Community),STOCKTON, SAN JOAQUIN, 95207
11,B & B PHARMACY ,License Type: Pharmacy (Community),SAN FRANCISCO, SAN FRANCISCO, 94115
12,BASCOM PHARMACY LLC ,License Type: Pharmacy (Community),SAN JOSE, SANTA CLARA, 95128
13,BERKSHIRE PHARMACY ,License Type: Pharmacy (Community),REDWOOD CITY, SAN MATEO, 94063
14,BESTCARE PHARMACY ,License Type: Pharmacy (Community),ARROYO GRANDE, SAN LUIS OBISPO, 93420
15,BETTER HEALTH PHARMACY ,License Type: Pharmacy (Government Owned Community),SAN JOSE, SANTA CLARA, 95112
16,BJRX PHARMACY INC ,License Type: Pharmacy (Community),STOCKTON, SAN JOAQUIN, 95210
17,BJRX PHARMACY LTC INC ,License Type: Pharmacy (Community),STOCKTON, SAN JOAQUIN, 95210
18,BOB'S PHARMACY ,License Type: Pharmacy (Community),MANTECA, SAN JOAQUIN, 95336
19,BOTIKA LTC ,License Type: Pharmacy (Community),CAMPBELL, SANTA CLARA, 95008
20,BROOKLIN OAKS PHARMACY INC ,License Type: Pharmacy (Community),PASO ROBLES, SAN LUIS OBISPO, 93446
21,BRUCE PHARMACY ,License Type: Pharmacy (Community),STOCKTON, SAN JOAQUIN, 95207
22,CAL POLY HEALTH SERVICES PHARMACY ,License Type: Pharmacy (Government Owned Community),SAN LUIS OBISPO, SAN LUIS OBISPO, 93407
23,CALAVERAS PHARMACY ,License Type: Pharmacy (Community),MILPITAS, SANTA CLARA, 95035
24,CALIFORNIA HEALTH CARE FACILITY ,License Type: Correctional Pharmacy,STOCKTON, SAN JOAQUIN, 95215
25,CALIFORNIA HEALTH CARE FACILITY DEWITT E-YARD ,License Type: Correctional Pharmacy,STOCKTON, SAN JOAQUIN, 95215
26,CALIFORNIA MEN'S COLONY MENTAL HEALTH CRISIS BED PHARMACY ,License Type: Correctional Pharmacy,SAN LUIS OBISPO, SAN LUIS OBISPO, 93409
27,CALMONT PHARMACY ,License Type: Pharmacy (Community),STOCKTON, SAN JOAQUIN, 95204
28,CAMBRIA DRUG & GIFTS ,License Type: Pharmacy (Community),CAMBRIA, SAN LUIS OBISPO, 93428
29,CAMDEN PHARMACY ,License Type: Pharmacy (Community),CAMPBELL, SANTA CLARA, 95008
30,CAMINO PHARMACY ,License Type: Pharmacy (Community),MOUNTAIN VIEW, SANTA CLARA, 94040
31,CAPITOL PHARMACY ,License Type: Pharmacy (Community),SAN JOSE, SANTA CLARA, 95112
32,CARDINAL HEALTH 414 LLC ,License Type: Pharmacy (Community),SAN JOSE, SANTA CLARA, 95112
33,CARE4U PHARMACY ,License Type: Pharmacy (Community),DALY CITY, SAN MATEO, 94015
34,CAREKINESIS ,License Type: Pharmacy (Community),SOUTH SAN FRANCISCO, SAN MATEO, 94080
35,CAYUCOS PHARMACY ,License Type: Pharmacy (Community),CAYUCOS, SAN LUIS OBISPO, 93430
36,CBHS PHARMACY SERVICES ,License Type: Pharmacy (Government Owned Community),SAN FRANCISCO, SAN FRANCISCO, 94103
37,CENTRAL COAST PHARMACY SPECIALISTS ,License Type: Pharmacy (Community),TEMPLETON, SAN LUIS OBISPO, 93465
38,CENTRAL DRUG STORE ,License Type: Pharmacy (Community),Accusation filed, SAN FRANCISCO, 94112
39,CHARLIES DRUG ,License Type: Pharmacy (Community),SAN FRANCISCO, SAN FRANCISCO, 94115
40,CHARTER WAY PHARMACY ,License Type: Pharmacy (Community),STOCKTON, SAN JOAQUIN, 95206
41,CHC PHARMACY ATASCADERO ,License Type: Pharmacy (Community),ATASCADERO, SAN LUIS OBISPO, 93422
42,CHC PHARMACY PASO ROBLES ,License Type: Pharmacy (Community),PASO ROBLES, SAN LUIS OBISPO, 93446
43,CHC PHARMACY SLO ,License Type: Pharmacy (Community),SAN LUIS OBISPO, SAN LUIS OBISPO, 93405
44,CHILDRENS RECOVERY CENTER 2 LLC DBA SARATOGA PEDIATRIC SUBACUTE ,License Type: Pharmacy (Community),SARATOGA, SANTA CLARA, 95070
45,CHINESE HOSPITAL PHARMACY ,License Type: Pharmacy (Community),SAN FRANCISCO, SAN FRANCISCO, 94133
46,CHINESE HOSPITAL PHARMACY ,License Type: Pharmacy (Community),DALY CITY, SAN MATEO, 94015
47,CHOICECARE PHARMACY ,License Type: Pharmacy (Community),S SAN FRANCISCO, SAN MATEO, 94080
48,CITY CARE PHARMACY ,License Type: Pharmacy (Community),SAN JOSE, SANTA CLARA, 95127
49,CLAY MEDICAL PHARMACY ,License Type: Pharmacy (Community),SAN FRANCISCO, SAN FRANCISCO, 94108
50,COMMUNITY A WALGREENS PHARMACY #21141 ,License Type: Pharmacy (Community),PALO ALTO, SANTA CLARA, 94301
51,COMMUNITY HEALTH CENTERS ,License Type: Pharmacy (Community),NIPOMO, SAN LUIS OBISPO, 93444
52,"COMMUNITY MEDICAL CENTERS, PHARMACY ",License Type: Pharmacy (Community),STOCKTON, SAN JOAQUIN, 95202
53,"COMMUNITY, A WALGREENS PHARMACY #15296 ",License Type: Pharmacy (Community),SAN FRANCISCO, SAN FRANCISCO, 94114
54,CONVERSIO HEALTH ,License Type: Pharmacy (Community),SAN LUIS OBISPO, SAN LUIS OBISPO, 93401
55,CORAM CVS/SPECIALTY INFUSION SERVICES ,License Type: Pharmacy (Community),GOLETA, SANTA BARBARA, 93111
56,COSTCO PHARMACY  129 ,License Type: Pharmacy (Community),SANTA CLARA, SANTA CLARA, 95050
57,COSTCO PHARMACY  143 ,License Type: Pharmacy (Community),MOUNTAIN VIEW, SANTA CLARA, 94043
58,COSTCO PHARMACY #1004 ,License Type: Pharmacy (Community),SAN JOSE, SANTA CLARA, 95131
59,COSTCO PHARMACY #1031 ,License Type: Pharmacy (Community),MANTECA, SAN JOAQUIN, 95336
60,COSTCO PHARMACY #1042 ,License Type: Pharmacy (Community),REDWOOD CITY, SAN MATEO, 94063
61,COSTCO PHARMACY #1091 ,License Type: Pharmacy (Community),LODI, SAN JOAQUIN, 95240
62,COSTCO PHARMACY #1267 ,License Type: Pharmacy (Community),SAN JOSE, SANTA CLARA, 95119
63,COSTCO PHARMACY #1275 ,License Type: Pharmacy (Community),SANTA MARIA, SANTA BARBARA, 93454
64,COSTCO PHARMACY #147 ,License Type: Pharmacy (Community),FOSTER CITY, SAN MATEO, 94404
65,COSTCO PHARMACY #148 ,License Type: Pharmacy (Community),SAN JOSE, SANTA CLARA, 95112
66,COSTCO PHARMACY #38 ,License Type: Pharmacy (Community),STOCKTON, SAN JOAQUIN, 95210
67,COSTCO PHARMACY #422 ,License Type: Pharmacy (Community),SOUTH SAN FRANCISCO, SAN MATEO, 94080
68,COSTCO PHARMACY #423 ,License Type: Pharmacy (Community),SUNNYVALE, SANTA CLARA, 94086
69,COSTCO PHARMACY #470 ,License Type: Pharmacy (Community),SAN JOSE, SANTA CLARA, 95118
70,COSTCO PHARMACY 144 ,License Type: Pharmacy (Community),SAN FRANCISCO, SAN FRANCISCO, 94103
71,COSTCO PHARMACY NO 474 ,License Type: Pharmacy (Community),GOLETA, SANTA BARBARA, 93117
72,COSTCO PHARMACY NO 658 ,License Type: Pharmacy (Community),TRACY, SAN JOAQUIN, 95377
73,COSTCO PHARMACY NO 760 ,License Type: Pharmacy (Community),GILROY, SANTA CLARA, 95020
74,COSTCO WHOLESALE #741 ,License Type: Pharmacy (Community),SAN LUIS OBISPO, SAN LUIS OBISPO, 93405
75,COSTCO WHOLESALE NO 475 ,License Type: Pharmacy (Community),SOUTH SAN FRANCISCO, SAN MATEO, 94080
76,COUNTY JAIL #8 PHARMACY ,License Type: Correctional Pharmacy,SAN FRANCISCO, SAN FRANCISCO, 94103
77,COUNTY OF SANTA BARBARA COM HLTH ,License Type: Pharmacy (Government Owned Community),SANTA BARBARA, SANTA BARBARA, 93110
78,CREEKSIDE PHARMACY ,License Type: Pharmacy (Community),SAN JOSE, SANTA CLARA, 95116
79,CVS PHARMACY #09592 ,License Type: Pharmacy (Community),ARROYO GRANDE, SAN LUIS OBISPO, 93420
80,CVS PHARMACY #2852 ,License Type: Pharmacy (Community),SAN FRANCISCO, SAN FRANCISCO, 94103
81,CVS PHARMACY #9662 ,License Type: Pharmacy (Community),SAN LUIS OBISPO, SAN LUIS OBISPO, 93401
82,CVS PHARMACY #9737 ,License Type: Pharmacy (Community),GOLETA, SANTA BARBARA, 93111
83,CVS PHARMACY #9750 ,License Type: Pharmacy (Community),SANTA MARIA, SANTA BARBARA, 93454
84,CVS PHARMACY #9782 ,License Type: Pharmacy (Community),NIPOMO, SAN LUIS OBISPO, 93444
85,CVS PHARMACY #9860 ,License Type: Pharmacy (Community),SANTA BARBARA, SANTA BARBARA, 93101
86,CVS/PHARMACY # 10165 ,License Type: Pharmacy (Community),DALY CITY, SAN MATEO, 94015
87,CVS/PHARMACY # 10188 ,License Type: Pharmacy (Community),SAN FRANCISCO, SAN FRANCISCO, 94117
88,CVS/PHARMACY # 10240 ,License Type: Pharmacy (Community),MENLO PARK, SAN MATEO, 94025
89,CVS/PHARMACY # 16105 ,License Type: Pharmacy (Community),SANTA MARIA, SANTA BARBARA, 93454
90,CVS/PHARMACY # 16107 ,License Type: Pharmacy (Community),STOCKTON, SAN JOAQUIN, 95207
91,CVS/PHARMACY # 16111 ,License Type: Pharmacy (Community),COLMA, SAN MATEO, 94014
92,CVS/PHARMACY # 16112 ,License Type: Pharmacy (Community),REDWOOD CITY, SAN MATEO, 94063
93,CVS/PHARMACY # 16113 ,License Type: Pharmacy (Community),MOUNTAIN VIEW, SANTA CLARA, 94040
94,CVS/PHARMACY # 16115 ,License Type: Pharmacy (Community),SAN JOSE, SANTA CLARA, 95124
95,CVS/PHARMACY # 16223 ,License Type: Pharmacy (Community),TRACY, SAN JOAQUIN, 95304
96,CVS/PHARMACY # 16294 ,License Type: Pharmacy (Community),LODI, SAN JOAQUIN, 95242
97,CVS/PHARMACY # 16439 ,License Type: Pharmacy (Community),SAN BRUNO, SAN MATEO, 94066
98,CVS/PHARMACY # 16488 ,License Type: Pharmacy (Community),PASO ROBLES, SAN LUIS OBISPO, 93446
99,CVS/PHARMACY # 16490 ,License Type: Pharmacy (Community),SAN MATEO, SAN MATEO, 94404
100,CVS/PHARMACY # 16746 ,License Type: Pharmacy (Community),DALY CITY, SAN MATEO, 94015
101,CVS/PHARMACY # 16763 ,License Type: Pharmacy (Community),SAN JOSE, SANTA CLARA, 95129
102,CVS/PHARMACY # 16856 ,License Type: Pharmacy (Community),MANTECA, SAN JOAQUIN, 95336
103,CVS/PHARMACY # 16971 ,License Type: Pharmacy (Community),GILROY, SANTA CLARA, 95020
104,CVS/PHARMACY # 16982 ,License Type: Pharmacy (Community),STOCKTON, SAN JOAQUIN, 95219
105,CVS/PHARMACY # 17045 ,License Type: Pharmacy (Community),SAN JOSE, SANTA CLARA, 95123
106,CVS/PHARMACY # 17100 ,License Type: Pharmacy (Community),SAN JOSE, SANTA CLARA, 95122
107,CVS/PHARMACY # 17176 ,License Type: Pharmacy (Community),SAN JOSE, SANTA CLARA, 95110
108,CVS/PHARMACY # 17314 ,License Type: Pharmacy (Community),SAN JOSE, SANTA CLARA, 95121
109,CVS/PHARMACY # 17327 ,License Type: Pharmacy (Community),MORGAN HILL, SANTA CLARA, 95037
110,CVS/PHARMACY # 17355 ,License Type: Pharmacy (Community),SAN JOSE, SANTA CLARA, 95125
111,CVS/PHARMACY # 17412 ,License Type: Pharmacy (Community),LATHROP, SAN JOAQUIN, 95330
112,CVS/PHARMACY # 17582 ,License Type: Pharmacy (Community),SAN JOSE, SANTA CLARA, 95134
113,CVS/PHARMACY # 17583 ,License Type: Pharmacy (Community),SUNNYVALE, SANTA CLARA, 94086
114,CVS/PHARMACY # 17588 ,License Type: Pharmacy (Community),SAN JOSE, SANTA CLARA, 95123
115,CVS/PHARMACY # 17619 ,License Type: Pharmacy (Community),SAN LUIS OBISPO, SAN LUIS OBISPO, 93405
116,CVS/PHARMACY # 17623 ,License Type: Pharmacy (Community),SAN FRANCISCO, SAN FRANCISCO, 94103
117,CVS/PHARMACY # 17625 ,License Type: Pharmacy (Community),SAN FRANCISCO, SAN FRANCISCO, 94118
118,CVS/PHARMACY # 17658 ,License Type: Pharmacy (Community),SANTA CLARA, SANTA CLARA, 95050
119,CVS/PHARMACY # 17672 ,License Type: Pharmacy (Community),SAN FRANCISCO, SAN FRANCISCO, 94104
120,CVS/PHARMACY # 17674 ,License Type: Pharmacy (Community),SAN FRANCISCO, SAN FRANCISCO, 94112
121,CVS/PHARMACY # 1983 ,License Type: Pharmacy (Community),SAN FRANCISCO, SAN FRANCISCO, 94127
122,CVS/PHARMACY # 4770 ,License Type: Pharmacy (Community),SAN FRANCISCO, SAN FRANCISCO, 94103
123,CVS/PHARMACY #0550 ,License Type: Pharmacy (Community),SAN CARLOS, SAN MATEO, 94070
124,CVS/PHARMACY #09392 ,License Type: Pharmacy (Community),SANTA BARBARA, SANTA BARBARA, 93101
125,CVS/PHARMACY #09394 ,License Type: Pharmacy (Community),SANTA MARIA, SANTA BARBARA, 93455
126,CVS/PHARMACY #09395 ,License Type: Pharmacy (Community),SAN JOSE, SANTA CLARA, 95136
127,CVS/PHARMACY #09534 ,License Type: Pharmacy (Community),SAN JOSE, SANTA CLARA, 95135
128,CVS/PHARMACY #09554 ,License Type: Pharmacy (Community),SAN MATEO, SAN MATEO, 94402
129,CVS/PHARMACY #09559 ,License Type: Pharmacy (Community),SAN JOSE, SANTA CLARA, 95125
130,CVS/PHARMACY #09567 ,License Type: Pharmacy (Community),SANTA BARBARA, SANTA BARBARA, 93109
131,CVS/PHARMACY #09684 ,License Type: Pharmacy (Community),MOUNTAIN VIEW, SANTA CLARA, 94040
132,CVS/PHARMACY #09690 ,License Type: Pharmacy (Community),REDWOOD CITY, SAN MATEO, 94063
133,CVS/PHARMACY #09700 ,License Type: Pharmacy (Community),SUNNYVALE, SANTA CLARA, 94087
134,CVS/PHARMACY #09793 ,License Type: Pharmacy (Community),SANTA CLARA, SANTA CLARA, 95051
135,CVS/PHARMACY #09805 ,License Type: Pharmacy (Community),CAMPBELL, SANTA CLARA, 95008
136,CVS/PHARMACY #09807 ,License Type: Pharmacy (Community),SAN BRUNO, SAN MATEO, 94066
137,CVS/PHARMACY #09808 ,License Type: Pharmacy (Community),SAN JOSE, SANTA CLARA, 95123
138,CVS/PHARMACY #09810 ,License Type: Pharmacy (Community),SAN JOSE, SANTA CLARA, 95122
139,CVS/PHARMACY #09811 ,License Type: Pharmacy (Community),BURLINGAME, SAN MATEO, 94010
140,CVS/PHARMACY #09812 ,License Type: Pharmacy (Community),SAN JOSE, SANTA CLARA, 95132
141,CVS/PHARMACY #09821 ,License Type: Pharmacy (Community),SANTA MARIA, SANTA BARBARA, 93454
142,CVS/PHARMACY #09824 ,License Type: Pharmacy (Community),SANTA BARBARA, SANTA BARBARA, 93105
143,CVS/PHARMACY #09829 ,License Type: Pharmacy (Community),SAN JOSE, SANTA CLARA, 95124
144,CVS/PHARMACY #09830 ,License Type: Pharmacy (Community),STOCKTON, SAN JOAQUIN, 95207
145,CVS/PHARMACY #09833 ,License Type: Pharmacy (Community),SAN MATEO, SAN MATEO, 94403
146,CVS/PHARMACY #09834 ,License Type: Pharmacy (Community),SARATOGA, SANTA CLARA, 95070
147,CVS/PHARMACY #09855 ,License Type: Pharmacy (Community),TRACY, SAN JOAQUIN, 95376
148,CVS/PHARMACY #09856 ,License Type: Pharmacy (Community),SUNNYVALE, SANTA CLARA, 94087
149,CVS/PHARMACY #09866 ,License Type: Pharmacy (Community),MANTECA, SAN JOAQUIN, 95336
150,CVS/PHARMACY #09871 ,License Type: Pharmacy (Community),LOMPOC, SANTA BARBARA, 93436
151,CVS/PHARMACY #09873 ,License Type: Pharmacy (Community),SAN LUIS OBISPO, SAN LUIS OBISPO, 93405
152,CVS/PHARMACY #09879 ,License Type: Pharmacy (Community),FOSTER CITY, SAN MATEO, 94404
153,CVS/PHARMACY #09892 ,License Type: Pharmacy (Community),PISMO BEACH, SAN LUIS OBISPO, 93449
154,CVS/PHARMACY #09894 ,License Type: Pharmacy (Community),CUPERTINO, SANTA CLARA, 95014
155,CVS/PHARMACY #09895 ,License Type: Pharmacy (Community),CAMPBELL, SANTA CLARA, 95008
156,CVS/PHARMACY #09896 ,License Type: Pharmacy (Community),SAN JOSE, SANTA CLARA, 95124
157,CVS/PHARMACY #09897 ,License Type: Pharmacy (Community),SAN JOSE, SANTA CLARA, 95127
158,CVS/PHARMACY #09901 ,License Type: Pharmacy (Community),SAN JOSE, SANTA CLARA, 95118
159,CVS/PHARMACY #09909 ,License Type: Pharmacy (Community),ATASCADERO, SAN LUIS OBISPO, 93422
160,CVS/PHARMACY #09915 ,License Type: Pharmacy (Community),PALO ALTO, SANTA CLARA, 94301
161,CVS/PHARMACY #09916 ,License Type: Pharmacy (Community),STOCKTON, SAN JOAQUIN, 95210
162,CVS/PHARMACY #09921 ,License Type: Pharmacy (Community),SAN JOSE, SANTA CLARA, 95124
163,CVS/PHARMACY #09925 ,License Type: Pharmacy (Community),PASO ROBLES, SAN LUIS OBISPO, 93446
164,CVS/PHARMACY #09940 ,License Type: Pharmacy (Community),SAN MATEO, SAN MATEO, 94401
165,CVS/PHARMACY #09944 ,License Type: Pharmacy (Community),SANTA CLARA, SANTA CLARA, 95050
166,CVS/PHARMACY #09949 ,License Type: Pharmacy (Community),RIPON, SAN JOAQUIN, 95366
167,CVS/PHARMACY #09970 ,License Type: Pharmacy (Community),BUELLTON, SANTA BARBARA, 93427
168,CVS/PHARMACY #09977 ,License Type: Pharmacy (Community),SAN MATEO, SAN MATEO, 94402
169,CVS/PHARMACY #09982 ,License Type: Pharmacy (Community),LOS GATOS, SANTA CLARA, 95032
170,CVS/PHARMACY #09984 ,License Type: Pharmacy (Community),PALO ALTO, SANTA CLARA, 94306
171,CVS/PHARMACY #09987 ,License Type: Pharmacy (Community),MOUNTAIN VIEW, SANTA CLARA, 94040
172,CVS/PHARMACY #09995 ,License Type: Pharmacy (Community),SAN JOSE, SANTA CLARA, 95118
173,CVS/PHARMACY #10035 ,License Type: Pharmacy (Community),SAN FRANCISCO, SAN FRANCISCO, 94105
174,CVS/PHARMACY #10080 ,License Type: Pharmacy (Community),SAN FRANCISCO, SAN FRANCISCO, 94109
175,CVS/PHARMACY #10189 ,License Type: Pharmacy (Community),SAN FRANCISCO, SAN FRANCISCO, 94109
176,CVS/PHARMACY #2294 ,License Type: Pharmacy (Community),SAN JOSE, SANTA CLARA, 95126
177,CVS/PHARMACY #3029 ,License Type: Pharmacy (Community),SAN JOSE, SANTA CLARA, 95126
178,CVS/PHARMACY #3061 ,License Type: Pharmacy (Community),SAN JOSE, SANTA CLARA, 95127
179,CVS/PHARMACY #3153 ,License Type: Pharmacy (Community),SANTA MARIA, SANTA BARBARA, 93454
180,CVS/PHARMACY #3908 ,License Type: Pharmacy (Community),TRACY, SAN JOAQUIN, 95376
181,CVS/PHARMACY #3935 ,License Type: Pharmacy (Community),PALO ALTO, SANTA CLARA, 94301
182,CVS/PHARMACY #3938 ,License Type: Pharmacy (Community),LOS GATOS, SANTA CLARA, 95032
183,CVS/PHARMACY #422 ,License Type: Pharmacy (Community),SAN JOSE, SANTA CLARA, 95134
184,CVS/PHARMACY #4675 ,License Type: Pharmacy (Community),SAN FRANCISCO, SAN FRANCISCO, 94121
185,CVS/PHARMACY #5403 ,License Type: Pharmacy (Community),MANTECA, SAN JOAQUIN, 95336
186,CVS/PHARMACY #7657 ,License Type: Pharmacy (Community),SAN FRANCISCO, SAN FRANCISCO, 94104
187,CVS/PHARMACY #7774 ,License Type: Pharmacy (Community),MOUNTAIN VIEW, SANTA CLARA, 94041
188,CVS/PHARMACY #7955 ,License Type: Pharmacy (Community),SAN FRANCISCO, SAN FRANCISCO, 94109
189,CVS/PHARMACY #9147 ,License Type: Pharmacy (Community),STOCKTON, SAN JOAQUIN, 95207
190,CVS/PHARMACY #9156 ,License Type: Pharmacy (Community),GOLETA, SANTA BARBARA, 93117
191,CVS/PHARMACY #9161 ,License Type: Pharmacy (Community),MILPITAS, SANTA CLARA, 95035
192,CVS/PHARMACY #9172 ,License Type: Pharmacy (Community),SAN CARLOS, SAN MATEO, 94070
193,CVS/PHARMACY #9198 ,License Type: Pharmacy (Community),SUNNYVALE, SANTA CLARA, 94087
194,CVS/PHARMACY #9216 ,License Type: Pharmacy (Community),HALF MOON BAY, SAN MATEO, 94019
195,CVS/PHARMACY #9229 ,License Type: Pharmacy (Community),SAN JOSE, SANTA CLARA, 95148
196,CVS/PHARMACY #9235 ,License Type: Pharmacy (Community),CARPINTERIA, SANTA BARBARA, 93013
197,CVS/PHARMACY #9243 ,License Type: Pharmacy (Community),LODI, SAN JOAQUIN, 95240
198,CVS/PHARMACY #9257 ,License Type: Pharmacy (Community),SAN JOSE, SANTA CLARA, 95129
199,CVS/PHARMACY #9261 ,License Type: Pharmacy (Community),LODI, SAN JOAQUIN, 95240
200,CVS/PHARMACY #9262 ,License Type: Pharmacy (Community),SANTA CLARA, SANTA CLARA, 95050
201,CVS/PHARMACY #9329 ,License Type: Pharmacy (Community),REDWOOD CITY, SAN MATEO, 94063
202,CVS/PHARMACY #9330 ,License Type: Pharmacy (Community),MENLO PARK, SAN MATEO, 94025
203,CVS/PHARMACY #9333 ,License Type: Pharmacy (Community),SANTA BARBARA, SANTA BARBARA, 93108
204,CVS/PHARMACY #9335 ,License Type: Pharmacy (Community),SANTA BARBARA, SANTA BARBARA, 93105
205,CVS/PHARMACY #9337 ,License Type: Pharmacy (Community),SAN JOSE, SANTA CLARA, 95120
206,CVS/PHARMACY #9342 ,License Type: Pharmacy (Community),MORGAN HILL, SANTA CLARA, 95037
207,CVS/PHARMACY #9345 ,License Type: Pharmacy (Community),SAN LUIS OBISPO, SAN LUIS OBISPO, 93401
208,CVS/PHARMACY #9346 ,License Type: Pharmacy (Community),MOUNTAIN VIEW, SANTA CLARA, 94040
209,CVS/PHARMACY #9752 ,License Type: Pharmacy (Community),DALY CITY, SAN MATEO, 94015
210,DAMERON'S LINACIA PHARMACY ,License Type: Pharmacy (Community),STOCKTON, SAN JOAQUIN, 95203
211,DANIELS PHARMACY ,License Type: Pharmacy (Community),Accusation filed, SAN FRANCISCO, 94112
212,DAVITA RX LLC ,License Type: Pharmacy (Community),SAN BRUNO, SAN MATEO, 94066
213,DEUEL VOCATIONAL INSTITUTION ,License Type: Correctional Pharmacy,TRACY, SAN JOAQUIN, 95376
214,DIGNITY HEALTH HOME INFUSION SERVICES ,License Type: Pharmacy (Community),SANTA MARIA, SANTA BARBARA, 93454
215,DO RX PHARMACY ,License Type: Pharmacy (Community),SAN JOSE, SANTA CLARA, 95112
216,DOWNTOWN PHARMACY INC ,License Type: Pharmacy (Community),SAN JOSE, SANTA CLARA, 95112
217,DREW CENTER PHARMACY ,License Type: Pharmacy (Community),EAST PALO ALTO, SAN MATEO, 94303
218,DROGUERIA SAN JOSE INC D/B/A TROPICANA DRUGS LONG TERM CARE ,License Type: Pharmacy (Community),SAN JOSE, SANTA CLARA, 95122
219,EL CAMINO HOSPITAL CANCER CENTER ,License Type: Pharmacy (Community),MOUNTAIN VIEW, SANTA CLARA, 94040
220,EL CAMINO HOSPITAL OUTPATIENT PHARMACY ,License Type: Pharmacy (Community),MOUNTAIN VIEW, SANTA CLARA, 94040
221,EL DORADO DRUG STORE ,License Type: Pharmacy (Community),STOCKTON, SAN JOAQUIN, 95205
222,EN SOLEIL PHARMACY INC ,License Type: Pharmacy (Community),ATASCADERO, SAN LUIS OBISPO, 93422
223,ENBORG LANE PHARMACY ,License Type: Pharmacy (Government Owned Community),SAN JOSE, SANTA CLARA, 95128
224,EVERGREEN PHARMACY ,License Type: Pharmacy (Community),SAN JOSE, SANTA CLARA, 95122
225,EVERGREEN PHARMACY ,License Type: Pharmacy (Community),SAN JOSE, SANTA CLARA, 95148
226,FAIR OAKS COMMUNITY PHARMACY ,License Type: Pharmacy (Community),REDWOOD CITY, SAN MATEO, 94063
227,FAIRMONT PHARMACY ,License Type: Pharmacy (Community),LODI, SAN JOAQUIN, 95240
228,FEDERAL DRUG COMPANY ,License Type: Pharmacy (Community),SANTA BARBARA, SANTA BARBARA, 93105
229,FEEL GOOD COMPOUNDERS ,License Type: Pharmacy (Community),PACIFICA, SAN MATEO, 94044
230,FORTY NINE DRUG CO ,License Type: Pharmacy (Community),STOCKTON, SAN JOAQUIN, 95203
231,FRANKLIN PHARMACY ,License Type: Pharmacy (Community),SAN FRANCISCO, SAN FRANCISCO, 94109
232,FRIENDLY #1 PHARMACY ,License Type: Pharmacy (Community),SAN JOSE, SANTA CLARA, 95111
233,FRIENDLY #2 PHARMACY ,License Type: Pharmacy (Community),SAN JOSE, SANTA CLARA, 95111
234,GARCIA PHARMACY ,License Type: Pharmacy (Community),SAN JOSE, SANTA CLARA, 95112
235,GARDNER SOUTH COUNTY HEALTH CENTER PHARMACY ,License Type: Pharmacy (Community),GILROY, SANTA CLARA, 95020
236,GARFIELD BEACH CVS DBA CVS PHARMACY #5131 ,License Type: Pharmacy (Community),SAN FRANCISCO, SAN FRANCISCO, 94116
237,GARFIELD BEACH CVS LLC D/B/A CVS/PHARMACY # 17709 ,License Type: Pharmacy (Community),SAN FRANCISCO, SAN FRANCISCO, 94132
238,GARFIELD BEACH CVS LLC D/B/A CVS/PHARMACY # 17710 ,License Type: Pharmacy (Community),EAST PALO ALTO, SAN MATEO, 94303
239,GARFIELD BEACH CVS LLC D/B/A CVS/PHARMACY #10330 ,License Type: Pharmacy (Community),SAN FRANCISCO, SAN FRANCISCO, 94118
240,GARFIELD BEACH CVS LLC D/B/A CVS/PHARMACY #10368 ,License Type: Pharmacy (Community),SAN FRANCISCO, SAN FRANCISCO, 94108
241,GARFIELD BEACH CVS LLC D/B/A CVS/PHARMACY #10492 ,License Type: Pharmacy (Community),SAN FRANCISCO, SAN FRANCISCO, 94108
242,GARFIELD BEACH CVS LLC D/B/A CVS/PHARMACY #10622 ,License Type: Pharmacy (Community),SAN FRANCISCO, SAN FRANCISCO, 94103
243,GARFIELD BEACH CVS LLC D/B/A CVS/PHARMACY #10913 ,License Type: Pharmacy (Community),SANTA BARBARA, SANTA BARBARA, 93103
244,GARFIELD BEACH CVS LLC D/B/A CVS/PHARMACY #11004 ,License Type: Pharmacy (Community),SAN FRANCISCO, SAN FRANCISCO, 94109
245,GARFIELD BEACH CVS LLC DBA CVS PHARMACY #17687 ,License Type: Pharmacy (Community),CUPERTINO, SANTA CLARA, 95014
246,GARFIELD BEACH CVS LLC DBA CVS/PHARMACY #10164 ,License Type: Pharmacy (Community),SAN FRANCISCO, SAN FRANCISCO, 94105
247,GE HEALTHCARE ,License Type: Pharmacy (Community),SUNNYVALE, SANTA CLARA, 94089
248,GOLDEN STATE PHARMACY ,License Type: Pharmacy (Community),STOCKTON, SAN JOAQUIN, 95204
249,GOOD LIFE RX PHARMACY ,License Type: Pharmacy (Community),SAN FRANCISCO, SAN FRANCISCO, 94109
250,GRANT LINE PHARMACY INCORPORATED ,License Type: Pharmacy (Community),TRACY, SAN JOAQUIN, 95377
251,HALF MOON BAY PHARMACY ,License Type: Pharmacy (Community),HALF MOON BAY, SAN MATEO, 94019
252,HAMMER LANE PHARMACY ,License Type: Pharmacy (Community),STOCKTON, SAN JOAQUIN, 95209
253,HAN'S PHARMACY ,License Type: Pharmacy (Community),SANTA CLARA, SANTA CLARA, 95051
254,HAROLD K REICH'S PHARMACY ,License Type: Pharmacy (Community),TRACY, SAN JOAQUIN, 95376
255,HILLTOP PHARMACY ,License Type: Pharmacy (Community),STOCKTON, SAN JOAQUIN, 95207
256,HOME CHOICE PHARMACY INC ,License Type: Pharmacy (Community),SAN JOSE, SANTA CLARA, 95123
257,HOMETOWN LTC PHARMACY ,License Type: Pharmacy (Community),SANTA MARIA, SANTA BARBARA, 93455
258,HOMETOWN MEDICAL PHARMACY ,License Type: Pharmacy (Community),SANTA MARIA, SANTA BARBARA, 93454
259,HOMETOWN PHARMACY ,License Type: Pharmacy (Community),LOMPOC, SANTA BARBARA, 93436
260,HORIZONS PHARMACY SERVICES ,License Type: Pharmacy (Community),LOS GATOS, SANTA CLARA, 95032
261,ICARE PHARMACY ,License Type: Pharmacy (Community),SAN JOSE, SANTA CLARA, 95133
262,INFUSION CENTER OF SAN LUIS OBISPO ,License Type: Pharmacy (Community),SAN LUIS OBISPO, SAN LUIS OBISPO, 93401
263,JACKSON MEDICAL PHARMACY ,License Type: Pharmacy (Community),SAN JOSE, SANTA CLARA, 95116
264,JDX PHARMACY ,License Type: Pharmacy (Community),SANTA MARIA, SANTA BARBARA, 93454
265,JOE'S PHARMACY ,License Type: Pharmacy (Community),SAN FRANCISCO, SAN FRANCISCO, 94118
266,KAISER CAMPBELL PHARMACY ,License Type: Pharmacy (Community),CAMPBELL, SANTA CLARA, 95008
267,KAISER FDN HSP ANNEX PHY 354 ,License Type: Pharmacy (Community),SOUTH SAN FRANCISCO, SAN MATEO, 94080
268,KAISER FDN HSP FRENCH OUT PHY 321 ,License Type: Pharmacy (Community),SAN FRANCISCO, SAN FRANCISCO, 94118
269,KAISER FOUNDATION HEALTH PLAN PHARMACY ,License Type: Pharmacy (Community),SAN FRANCISCO, SAN FRANCISCO, 94115
270,KAISER FOUNDATION HEALTH PLAN PHARMACY ,License Type: Pharmacy (Community),SAN FRANCISCO, SAN FRANCISCO, 94115
271,KAISER FRENCH OUTPATIENT PHY 322 ,License Type: Pharmacy (Community),SAN FRANCISCO, SAN FRANCISCO, 94118
272,KAISER HEALTH PLAN 1 NORTH PHY 631 ,License Type: Pharmacy (Community),SAN JOSE, SANTA CLARA, 95119
273,KAISER HEALTH PLAN BAYHILL PHY 353 ,License Type: Pharmacy (Community),SAN BRUNO, SAN MATEO, 94066
274,KAISER HEALTH PLAN BIRCH PHY 372 ,License Type: Pharmacy (Community),REDWOOD CITY, SAN MATEO, 94063
275,KAISER HEALTH PLAN BLDG D PHY 632 ,License Type: Pharmacy (Community),SAN JOSE, SANTA CLARA, 95119
276,KAISER HEALTH PLAN CYPRESS MOB PHY 371 ,License Type: Pharmacy (Community),REDWOOD CITY, SAN MATEO, 94063
277,KAISER HEALTH PLAN FAMILY PHY 635 ,License Type: Pharmacy (Community),SAN JOSE, SANTA CLARA, 95119
278,KAISER HEALTH PLAN MAIN PHY 381 ,License Type: Pharmacy (Community),MILPITAS, SANTA CLARA, 95035
279,KAISER HEALTH PLAN MAIN PHY 752 ,License Type: Pharmacy (Community),GILROY, SANTA CLARA, 95020
280,KAISER HEALTH PLAN MANTECA PHY NO 491 ,License Type: Pharmacy (Community),MANTECA, SAN JOAQUIN, 95337
281,KAISER HEALTH PLAN MOB 1 PHY 684 ,License Type: Pharmacy (Community),STOCKTON, SAN JOAQUIN, 95210
282,KAISER HEALTH PLAN PHARMACY NO 338 ,License Type: Pharmacy (Community),SAN FRANCISCO, SAN FRANCISCO, 94115
283,KAISER HEALTH PLAN PHY 421 ,License Type: Pharmacy (Community),MOUNTAIN VIEW, SANTA CLARA, 94041
284,KAISER HEALTH PLAN SOUTH PHY 383 ,License Type: Pharmacy (Community),MILPITAS, SANTA CLARA, 95035
285,KAISER HEALTH PLAN TWO NORTH PHY #637 ,License Type: Pharmacy (Community),SAN JOSE, SANTA CLARA, 95119
286,KAISER ONCOLOGY PHARMACY #680 ,License Type: Pharmacy (Community),STOCKTON, SAN JOAQUIN, 95210
287,KAISER ONCOLOGY PHARMACY #683 ,License Type: Pharmacy (Community),STOCKTON, SAN JOAQUIN, 95210
288,KAISER ONCOLOGY PHRMCY #638 ,License Type: Pharmacy (Community),SAN JOSE, SANTA CLARA, 95119
289,KAISER PERMANENTE PHARMACY #329 ,License Type: Pharmacy (Community),SAN FRANCISCO, SAN FRANCISCO, 94118
290,KAISER PERMANENTE PHARMACY #339 ,License Type: Pharmacy (Community),SAN MATEO, SAN MATEO, 94403
291,KAISER PERMANENTE PHARMACY #341 ,License Type: Pharmacy (Community),DALY CITY, SAN MATEO, 94015
292,KAISER PERMANENTE PHARMACY #351 ,License Type: Pharmacy (Community),SOUTH SAN FRANCISCO, SAN MATEO, 94080
293,KAISER PERMANENTE PHARMACY #358 ,License Type: Pharmacy (Community),S SAN FRANCISCO, SAN MATEO, 94080
294,KAISER PERMANENTE PHARMACY #377 ,License Type: Pharmacy (Community),REDWOOD CITY, SAN MATEO, 94063
295,KAISER PERMANENTE PHARMACY #414 ,License Type: Pharmacy (Community),SANTA CLARA, SANTA CLARA, 95051
296,KAISER PERMANENTE PHARMACY #431 ,License Type: Pharmacy (Community),TRACY, SAN JOAQUIN, 95377
297,KAISER PERMANENTE PHARMACY #441 ,License Type: Pharmacy (Community),SANTA CLARA, SANTA CLARA, 95051
298,KAISER PERMANENTE PHARMACY #443 ,License Type: Pharmacy (Community),SANTA CLARA, SANTA CLARA, 95051
299,KAISER PERMANENTE PHARMACY #444 ,License Type: Pharmacy (Community),SANTA CLARA, SANTA CLARA, 95051
300,KAISER PERMANENTE PHARMACY #453 ,License Type: Pharmacy (Community),CAMPBELL, SANTA CLARA, 95008
301,KAISER PERMANENTE PHARMACY #634 ,License Type: Pharmacy (Community),SAN JOSE, SANTA CLARA, 95119
302,KAISER PERMANENTE PHARMACY #685 ,License Type: Pharmacy (Community),STOCKTON, SAN JOAQUIN, 95210
303,KAISER PERMANENTE PHARMACY #791 ,License Type: Pharmacy (Community),SAN JOSE, SANTA CLARA, 95110
304,KAISER PERMANENTE PHARMACY #941 ,License Type: Pharmacy (Community),SAN FRANCISCO, SAN FRANCISCO, 94158
305,KAISER PERMANENTE PHARMACY 442 ,License Type: Pharmacy (Community),SANTA CLARA, SANTA CLARA, 95051
306,KAISER PERMANENTE PHARMACY NO 357 ,License Type: Pharmacy (Community),SAN BRUNO, SAN MATEO, 94066
307,KAISER PERMANENTE PHRMCY #447 ,License Type: Pharmacy (Community),SANTA CLARA, SANTA CLARA, 95051
308,KML PHARMACY INC ,License Type: Pharmacy (Community),CUPERTINO, SANTA CLARA, 95014
309,KOHANA PHARMACY AND CENTER FOR REGENERATIVE MEDICINE ,License Type: Pharmacy (Community),Accusation filed, SAN LUIS OBISPO, 93401
310,KOSHLAND PHARM: CUSTOM COMPOUNDING PHARMACY ,License Type: Pharmacy (Community),SAN FRANCISCO, SAN FRANCISCO, 94105
311,LA JOYA PHARMACY ,License Type: Pharmacy (Community),SANTA MARIA, SANTA BARBARA, 93458
312,LATHROP PHARMACY ,License Type: Pharmacy (Community),LATHROP, SAN JOAQUIN, 95330
313,LEI COMPOUNDING ,License Type: Pharmacy (Community),SAN JOSE, SANTA CLARA, 95119
314,LEXANN PHARMACY INC ,License Type: Pharmacy (Community),SAN JOSE, SANTA CLARA, 95121
315,LIFE CONNECTIONS HEALTH CENTER PHARMACY ,License Type: Pharmacy (Community),SAN JOSE, SANTA CLARA, 95134
316,LINDA RX PHARMACY INC ,License Type: Pharmacy (Community),SAN JOSE, SANTA CLARA, 95121
317,LION PHARMACY INC ,License Type: Pharmacy (Community),Accusation filed, SANTA CLARA, 95111
318,LOCKEFORD DRUG ,License Type: Pharmacy (Community),LOCKEFORD, SAN JOAQUIN, 95237
319,LOMPOC VALLEY MEDICAL CENTER ONCOLOGY-HEMATOLOGY SERVICES ,License Type: Pharmacy (Government Owned Community),LOMPOC, SANTA BARBARA, 93436
320,LONGS DRUG STORES CALIFORNIA LLC D/B/A CVS/PHARMACY #9945 ,License Type: Pharmacy (Community),GILROY, SANTA CLARA, 95020
321,LONGS DRUG STORES CALIFORNIA LLC DBA CVS PHARMACY #9498 ,License Type: Pharmacy (Community),SAN JOSE, SANTA CLARA, 95129
322,LOS ALAMITOS PHARMACY INC ,License Type: Pharmacy (Community),SAN JOSE, SANTA CLARA, 95116
323,LOS OSOS REXALL ,License Type: Pharmacy (Community),LOS OSOS, SAN LUIS OBISPO, 93402
324,LPCH CHILDREN'S HOME PHARMACY ,License Type: Pharmacy (Community),MENLO PARK, SAN MATEO, 94025
325,LUCILE PACKARD CHILDRENS HOSPITAL OUTPATIENT PHARMACY ,License Type: Pharmacy (Community),PALO ALTO, SANTA CLARA, 94304
326,LUCKY CA PHARMACY #707 ,License Type: Pharmacy (Community),DALY CITY, SAN MATEO, 94014
327,LUCKY PHARMACY #233 ,License Type: Pharmacy (Community),SAN JOSE, SANTA CLARA, 95127
328,LUCKY PHARMACY #710 ,License Type: Pharmacy (Community),FOSTER CITY, SAN MATEO, 94404
329,LUCKY PHARMACY #723 ,License Type: Pharmacy (Community),LOS ALTOS, SANTA CLARA, 94022
330,LUCKY PHARMACY #748 ,License Type: Pharmacy (Community),SAN BRUNO, SAN MATEO, 94066
331,LUCKY PHARMACY #749 ,License Type: Pharmacy (Community),SAN CARLOS, SAN MATEO, 94070
332,LUCKY PHARMACY #755 ,License Type: Pharmacy (Community),SAN FRANCISCO, SAN FRANCISCO, 94132
333,LUCKY PHARMACY #756 ,License Type: Pharmacy (Community),SAN FRANCISCO, SAN FRANCISCO, 94117
334,LUCKY PHARMACY #757 ,License Type: Pharmacy (Community),SAN JOSE, SANTA CLARA, 95124
335,LUCKY PHARMACY #758 ,License Type: Pharmacy (Community),SAN JOSE, SANTA CLARA, 95124
336,LUCKY PHARMACY #759 ,License Type: Pharmacy (Community),SAN JOSE, SANTA CLARA, 95119
337,LUCKY PHARMACY #761 ,License Type: Pharmacy (Community),SAN JOSE, SANTA CLARA, 95130
338,LUCKY PHARMACY #763 ,License Type: Pharmacy (Community),SAN JOSE, SANTA CLARA, 95123
339,LUCKY PHARMACY #773 ,License Type: Pharmacy (Community),SANTA CLARA, SANTA CLARA, 95051
340,LUCKY PHARMACY #780 ,License Type: Pharmacy (Community),SUNNYVALE, SANTA CLARA, 94085
341,MARCH LANE MEDICAL PHARMACY ,License Type: Pharmacy (Community),STOCKTON, SAN JOAQUIN, 95207
342,MARINER ADVANCED PHARMACY CORP ,License Type: Pharmacy (Community),SAN MATEO, SAN MATEO, 94401
343,MAXIMART PHARMACY ,License Type: Pharmacy (Community),PALO ALTO, SANTA CLARA, 94306
344,MC KEE MEDICAL PHARMACY ,License Type: Pharmacy (Community),SAN JOSE, SANTA CLARA, 95116
345,MED-PLACE PHARMACY ,License Type: Pharmacy (Community),SAN JOSE, SANTA CLARA, 95128
346,MEDEX HM PHARMACY ,License Type: Pharmacy (Community),SAN JOSE, SANTA CLARA, 95113
347,MEDICAL PAVILION PHARMACY ,License Type: Pharmacy (Community),Public Reprimand, SANTA CLARA, 95020
348,MEDICAL PLAZA PHARMACY ,License Type: Pharmacy (Community),PALO ALTO, SANTA CLARA, 94304
349,MEDICINE SHOPPE NO 793 ,License Type: Pharmacy (Community),SANTA BARBARA, SANTA BARBARA, 93105
350,MEGA DRUGS LLC ,License Type: Pharmacy (Community),SAN JOSE, SANTA CLARA, 95112
351,MISSION HOPE INFUSION CENTER ,License Type: Pharmacy (Community),SANTA MARIA, SANTA BARBARA, 93454
352,MISSION NEIGHBORHOOD HLTH CTR PHCY ,License Type: Pharmacy (Community),SAN FRANCISCO, SAN FRANCISCO, 94110
353,MISSION WELLNESS PHARMACY ,License Type: Pharmacy (Community),SAN FRANCISCO, SAN FRANCISCO, 94117
354,MISSION WELLNESS PHARMACY ,License Type: Pharmacy (Community),SAN FRANCISCO, SAN FRANCISCO, 94110
355,MODEL DRUG ,License Type: Pharmacy (Community),PISMO BEACH, SAN LUIS OBISPO, 93449
356,MORRO BAY DRUG AND GIFT ,License Type: Pharmacy (Community),MORRO BAY, SAN LUIS OBISPO, 93442
357,NEMS - CLEMENT PHARMACY ,License Type: Pharmacy (Community),SAN FRANCISCO, SAN FRANCISCO, 94118
358,NEMS - EASTMOOR PHARMACY ,License Type: Pharmacy (Community),DALY CITY, SAN MATEO, 94015
359,NEMS - LUNDY PHARMACY ,License Type: Pharmacy (Community),SAN JOSE, SANTA CLARA, 95131
360,NEMS - SAN BRUNO PHARMACY ,License Type: Pharmacy (Community),SAN FRANCISCO, SAN FRANCISCO, 94134
361,NEMS-NORIEGA PHARMACY ,License Type: Pharmacy (Community),SAN FRANCISCO, SAN FRANCISCO, 94122
362,NIMBLE PHARMACY ,License Type: Pharmacy (Community),SAN FRANCISCO, SAN FRANCISCO, 94124
363,NIMBLE PHARMACY ,License Type: Pharmacy (Community),MENLO PARK, SAN MATEO, 94025
364,NIPOMO REXALL DRUGS ,License Type: Pharmacy (Community),NIPOMO, SAN LUIS OBISPO, 93444
365,NOB HILL PHARMACY #602 ,License Type: Pharmacy (Community),GILROY, SANTA CLARA, 95020
366,NOB HILL PHARMACY #628 ,License Type: Pharmacy (Community),REDWOOD CITY, SAN MATEO, 94065
367,NOB HILL PHARMACY #635 ,License Type: Pharmacy (Community),SAN JOSE, SANTA CLARA, 95123
368,NORTH EAST MEDICAL SERVICES PHARMACY ,License Type: Pharmacy (Community),SAN FRANCISCO, SAN FRANCISCO, 94133
369,NORTHERN CALIFORNIA YOUTH CENTER ,License Type: Correctional Pharmacy,STOCKTON, SAN JOAQUIN, 95213
370,NOWRX ,License Type: Pharmacy (Community),MOUNTAIN VIEW, SANTA CLARA, 94043
371,OMNICARE OF NORTHERN CALIFORNIA ,License Type: Pharmacy (Community),LODI, SAN JOAQUIN, 95240
372,PACIFIC COMPOUNDING PHARMACY & CONSULTATIONS INC ,License Type: Pharmacy (Community),STOCKTON, SAN JOAQUIN, 95207
373,PARNASSUS HEIGHTS PHARMACY ,License Type: Pharmacy (Community),SAN FRANCISCO, SAN FRANCISCO, 94117
374,PHARMA101 ,License Type: Pharmacy (Community),SAN LUIS OBISPO, SAN LUIS OBISPO, 93401
375,PHARMACA INTEGRATIVE PHARMACY INC ,License Type: Pharmacy (Community),LOS GATOS, SANTA CLARA, 95030
376,PHARMACA INTEGRATIVE PHARMACY INC ,License Type: Pharmacy (Community),MENLO PARK, SAN MATEO, 94025
377,PHARMACA INTEGRATIVE PHARMACY INC ,License Type: Pharmacy (Community),SAN FRANCISCO, SAN FRANCISCO, 94117
378,PHARMERICA ,License Type: Pharmacy (Community),SAN LUIS OBISPO, SAN LUIS OBISPO, 93401
379,POST AND DIVISADERO MEDICAL PHARMACY ,License Type: Pharmacy (Community),SAN FRANCISCO, SAN FRANCISCO, 94115
380,PRESCRIPTION HEADQUARTERS INC ,License Type: Pharmacy (Community),SAN JOSE, SANTA CLARA, 95122
381,PRESCRIPTION PHARMACY ,License Type: Pharmacy (Community),SANTA BARBARA, SANTA BARBARA, 93110
382,PRESCRIPTION PHARMACY ,License Type: Pharmacy (Community),SANTA BARBARA, SANTA BARBARA, 93105
383,"PROCARE PHARMACY, L.L.C DBA CVS/PHARMACY ",License Type: Pharmacy (Community),SAN FRANCISCO, SAN FRANCISCO, 94114
384,PUBLIC HEALTH PHARMACY - SANTA MARIA ,License Type: Pharmacy (Government Owned Community),SANTA MARIA, SANTA BARBARA, 93455
385,PUBLIC HEALTH PHARMACY-LOMPOC ,License Type: Pharmacy (Government Owned Community),LOMPOC, SANTA BARBARA, 93436
386,RALEYS PHARMACY #306 ,License Type: Pharmacy (Community),STOCKTON, SAN JOAQUIN, 95212
387,RALEYS PHARMACY #311 ,License Type: Pharmacy (Community),MANTECA, SAN JOAQUIN, 95336
388,RALEYS PHARMACY #317 ,License Type: Pharmacy (Community),TRACY, SAN JOAQUIN, 95376
389,RALEYS PHARMACY #445 ,License Type: Pharmacy (Community),LODI, SAN JOAQUIN, 95242
390,RALPHS PHARMACY 70300271 ,License Type: Pharmacy (Community),LOS OSOS, SAN LUIS OBISPO, 93402
391,RALPHS PHARMACY 70300680 ,License Type: Pharmacy (Community),SANTA BARBARA, SANTA BARBARA, 93101
392,RELIABLE REXALL SUNSET PHARMACY ,License Type: Pharmacy (Community),SAN FRANCISCO, SAN FRANCISCO, 94122
393,RITE AID #5825 ,License Type: Pharmacy (Community),ARROYO GRANDE, SAN LUIS OBISPO, 93420
394,RITE AID #5987 ,License Type: Pharmacy (Community),SAN JOSE, SANTA CLARA, 95124
395,RITE AID #6490 ,License Type: Pharmacy (Community),TRACY, SAN JOAQUIN, 95376
396,RITE AID #6510 ,License Type: Pharmacy (Community),STOCKTON, SAN JOAQUIN, 95210
397,RITE AID 5776 ,License Type: Pharmacy (Community),CARPINTERIA, SANTA BARBARA, 93013
398,RITE AID 5788 ,License Type: Pharmacy (Community),SANTA BARBARA, SANTA BARBARA, 93103
399,RITE AID 5789 ,License Type: Pharmacy (Community),SANTA BARBARA, SANTA BARBARA, 93101
400,RITE AID 5790 ,License Type: Pharmacy (Community),SANTA BARBARA, SANTA BARBARA, 93109
401,RITE AID 5791 ,License Type: Pharmacy (Community),GOLETA, SANTA BARBARA, 93117
402,RITE AID 5820 ,License Type: Pharmacy (Community),SAN LUIS OBISPO, SAN LUIS OBISPO, 93401
403,RITE AID 5821 ,License Type: Pharmacy (Community),LOS OSOS, SAN LUIS OBISPO, 93402
404,RITE AID 5824 ,License Type: Pharmacy (Community),ARROYO GRANDE, SAN LUIS OBISPO, 93420
405,RITE AID 5827 ,License Type: Pharmacy (Community),ATASCADERO, SAN LUIS OBISPO, 93422
406,RITE AID 5830 ,License Type: Pharmacy (Community),MORRO BAY, SAN LUIS OBISPO, 93442
407,RITE AID 5831 ,License Type: Pharmacy (Community),PASO ROBLES, SAN LUIS OBISPO, 93446
408,RITE AID 5832 ,License Type: Pharmacy (Community),PASO ROBLES, SAN LUIS OBISPO, 93446
409,RITE AID 5833 ,License Type: Pharmacy (Community),PISMO BEACH, SAN LUIS OBISPO, 93449
410,RITE AID 5835 ,License Type: Pharmacy (Community),SANTA MARIA, SANTA BARBARA, 93458
411,RITE AID 5836 ,License Type: Pharmacy (Community),SANTA MARIA, SANTA BARBARA, 93454
412,RITE AID 5885 ,License Type: Pharmacy (Community),HALF MOON BAY, SAN MATEO, 94019
413,RITE AID 5886 ,License Type: Pharmacy (Community),LOS ALTOS, SANTA CLARA, 94024
414,RITE AID 5890 ,License Type: Pharmacy (Community),PACIFICA, SAN MATEO, 94044
415,RITE AID 5891 ,License Type: Pharmacy (Community),PACIFICA, SAN MATEO, 94044
416,RITE AID 5892 ,License Type: Pharmacy (Community),REDWOOD CITY, SAN MATEO, 94061
417,RITE AID 5902 ,License Type: Pharmacy (Community),SAN MATEO, SAN MATEO, 94402
418,RITE AID 5903 ,License Type: Pharmacy (Community),SAN MATEO, SAN MATEO, 94403
419,RITE AID 5967 ,License Type: Pharmacy (Community),CUPERTINO, SANTA CLARA, 95014
420,RITE AID 5970 ,License Type: Pharmacy (Community),GILROY, SANTA CLARA, 95020
421,RITE AID 5972 ,License Type: Pharmacy (Community),LOS GATOS, SANTA CLARA, 95032
422,RITE AID 5976 ,License Type: Pharmacy (Community),SANTA CLARA, SANTA CLARA, 95051
423,RITE AID 5983 ,License Type: Pharmacy (Community),SAN JOSE, SANTA CLARA, 95119
424,RITE AID 5984 ,License Type: Pharmacy (Community),SAN JOSE, SANTA CLARA, 95120
425,RITE AID 5985 ,License Type: Pharmacy (Community),Probation Terminated/Completed, SANTA CLARA, 95121
426,RITE AID 5988 ,License Type: Pharmacy (Community),SAN JOSE, SANTA CLARA, 95125
427,RITE AID 5991 ,License Type: Pharmacy (Community),SAN JOSE, SANTA CLARA, 95127
428,RITE AID 5992 ,License Type: Pharmacy (Community),SAN JOSE, SANTA CLARA, 95127
429,RITE AID 5993 ,License Type: Pharmacy (Community),SAN JOSE, SANTA CLARA, 95128
430,RITE AID 5994 ,License Type: Pharmacy (Community),SAN JOSE, SANTA CLARA, 95129
431,RITE AID 5996 ,License Type: Pharmacy (Community),STOCKTON, SAN JOAQUIN, 95205
432,RITE AID 5998 ,License Type: Pharmacy (Community),STOCKTON, SAN JOAQUIN, 95207
433,RITE AID 6000 ,License Type: Pharmacy (Community),LODI, SAN JOAQUIN, 95240
434,RITE AID 6005 ,License Type: Pharmacy (Community),MANTECA, SAN JOAQUIN, 95337
435,RITE AID 6185 ,License Type: Pharmacy (Community),SOLVANG, SANTA BARBARA, 93463
436,RITE AID NO 5893 ,License Type: Pharmacy (Community),REDWOOD CITY, SAN MATEO, 94061
437,RITE AID NO 5975 ,License Type: Pharmacy (Community),MORGAN HILL, SANTA CLARA, 95037
438,RITE AID NO 6291 ,License Type: Pharmacy (Community),TRACY, SAN JOAQUIN, 95376
439,RITE AID NO 6434 ,License Type: Pharmacy (Community),ESCALON, SAN JOAQUIN, 95320
440,RX EXPRESS PHARMACY ,License Type: Pharmacy (Community),STOCKTON, SAN JOAQUIN, 95202
441,S-MART PHARMACY #209 ,License Type: Pharmacy (Community),LODI, SAN JOAQUIN, 95240
442,S-MART PHARMACY #91 ,License Type: Pharmacy (Community),STOCKTON, SAN JOAQUIN, 95207
443,SAFEWAY PHARMACY #0305 ,License Type: Pharmacy (Community),REDWOOD CITY, SAN MATEO, 94063
444,SAFEWAY PHARMACY #0316 ,License Type: Pharmacy (Community),SAN JOSE, SANTA CLARA, 95136
445,SAFEWAY PHARMACY #0695 ,License Type: Pharmacy (Community),SAN JOSE, SANTA CLARA, 95120
446,SAFEWAY PHARMACY #0705 ,License Type: Pharmacy (Community),MOUNTAIN VIEW, SANTA CLARA, 94043
447,SAFEWAY PHARMACY #0747 ,License Type: Pharmacy (Community),REDWOOD CITY, SAN MATEO, 94061
448,SAFEWAY PHARMACY #0785 ,License Type: Pharmacy (Community),SAN FRANCISCO, SAN FRANCISCO, 94121
449,SAFEWAY PHARMACY #0909 ,License Type: Pharmacy (Community),SAN FRANCISCO, SAN FRANCISCO, 94116
450,SAFEWAY PHARMACY #0964 ,License Type: Pharmacy (Community),SAN FRANCISCO, SAN FRANCISCO, 94112
451,SAFEWAY PHARMACY #0970 ,License Type: Pharmacy (Community),SAN MATEO, SAN MATEO, 94402
452,SAFEWAY PHARMACY #0985 ,License Type: Pharmacy (Community),SAN FRANCISCO, SAN FRANCISCO, 94122
453,SAFEWAY PHARMACY #0995 ,License Type: Pharmacy (Community),SAN FRANCISCO, SAN FRANCISCO, 94115
454,SAFEWAY PHARMACY #0997 ,License Type: Pharmacy (Community),SAN JOSE, SANTA CLARA, 95118
455,SAFEWAY PHARMACY #1138 ,License Type: Pharmacy (Community),BELMONT, SAN MATEO, 94002
456,SAFEWAY PHARMACY #1196 ,License Type: Pharmacy (Community),SUNNYVALE, SANTA CLARA, 94087
457,SAFEWAY PHARMACY #1245 ,License Type: Pharmacy (Community),LOS GATOS, SANTA CLARA, 95032
458,SAFEWAY PHARMACY #1293 ,License Type: Pharmacy (Community),CAMPBELL, SANTA CLARA, 95008
459,SAFEWAY PHARMACY #1439 ,License Type: Pharmacy (Community),SUNNYVALE, SANTA CLARA, 94087
460,SAFEWAY PHARMACY #1455 ,License Type: Pharmacy (Community),MORGAN HILL, SANTA CLARA, 95037
461,SAFEWAY PHARMACY #1465 ,License Type: Pharmacy (Community),SAN JOSE, SANTA CLARA, 95129
462,SAFEWAY PHARMACY #1476 ,License Type: Pharmacy (Community),SAN JOSE, SANTA CLARA, 95126
463,SAFEWAY PHARMACY #1483 ,License Type: Pharmacy (Community),SAN JOSE, SANTA CLARA, 95125
464,SAFEWAY PHARMACY #1490 ,License Type: Pharmacy (Community),SAN FRANCISCO, SAN FRANCISCO, 94103
465,SAFEWAY PHARMACY #1507 ,License Type: Pharmacy (Community),SAN FRANCISCO, SAN FRANCISCO, 94114
466,SAFEWAY PHARMACY #1547 ,License Type: Pharmacy (Community),BURLINGAME, SAN MATEO, 94010
467,SAFEWAY PHARMACY #1648 ,License Type: Pharmacy (Community),LODI, SAN JOAQUIN, 95242
468,SAFEWAY PHARMACY #1682 ,License Type: Pharmacy (Community),PALO ALTO, SANTA CLARA, 94306
469,SAFEWAY PHARMACY #1711 ,License Type: Pharmacy (Community),SAN FRANCISCO, SAN FRANCISCO, 94123
470,SAFEWAY PHARMACY #1769 ,License Type: Pharmacy (Community),STOCKTON, SAN JOAQUIN, 95204
471,SAFEWAY PHARMACY #1879 ,License Type: Pharmacy (Community),MILPITAS, SANTA CLARA, 95035
472,SAFEWAY PHARMACY #1891 ,License Type: Pharmacy (Community),MORGAN HILL, SANTA CLARA, 95037
473,SAFEWAY PHARMACY #1990 ,License Type: Pharmacy (Community),SANTA CLARA, SANTA CLARA, 95054
474,SAFEWAY PHARMACY #2600 ,License Type: Pharmacy (Community),TRACY, SAN JOAQUIN, 95376
475,SAFEWAY PHARMACY #2606 ,License Type: Pharmacy (Community),SAN FRANCISCO, SAN FRANCISCO, 94107
476,SAFEWAY PHARMACY #2646 ,License Type: Pharmacy (Community),SAN FRANCISCO, SAN FRANCISCO, 94118
477,SAFEWAY PHARMACY #2707 ,License Type: Pharmacy (Community),STOCKTON, SAN JOAQUIN, 95207
478,SAFEWAY PHARMACY #2719 ,License Type: Pharmacy (Community),MENLO PARK, SAN MATEO, 94025
479,SAFEWAY PHARMACY #2814 ,License Type: Pharmacy (Community),LOS ALTOS, SANTA CLARA, 94022
480,SAFEWAY PHARMACY #2815 ,License Type: Pharmacy (Community),LOS GATOS, SANTA CLARA, 95032
481,SAFEWAY PHARMACY #2878 ,License Type: Pharmacy (Community),MILLBRAE, SAN MATEO, 94030
482,SAFEWAY PHARMACY #2887 ,License Type: Pharmacy (Community),SUNNYVALE, SANTA CLARA, 94087
483,SAFEWAY PHARMACY #2900 ,License Type: Pharmacy (Community),SAN JOSE, SANTA CLARA, 95123
484,SAFEWAY PHARMACY #2948 ,License Type: Pharmacy (Community),MOUNTAIN VIEW, SANTA CLARA, 94040
485,SAFEWAY PHARMACY #3095 ,License Type: Pharmacy (Community),SAN JOSE, SANTA CLARA, 95148
486,SAFEWAY PHARMACY #3124 ,License Type: Pharmacy (Community),MANTECA, SAN JOAQUIN, 95337
487,SAFEWAY PHARMACY #3241 ,License Type: Pharmacy (Community),CAMPBELL, SANTA CLARA, 95008
488,SAFEWAY PHARMACY #3251 ,License Type: Pharmacy (Community),CUPERTINO, SANTA CLARA, 95014
489,SAFEWAY PHARMACY #4905 ,License Type: Pharmacy (Community),Accusation filed, SANTA CLARA, 95138
490,SAMARITAN APOTHECARY PHARMACY ,License Type: Pharmacy (Community),SAN JOSE, SANTA CLARA, 95124
491,SAN BRUNO JAIL PHARMACY CJ#7 ,License Type: Correctional Pharmacy,SAN BRUNO, SAN MATEO, 94066
492,SAN JOAQUIN COUNTY CORRECTIONAL HEALTH CARE PHY ,License Type: Correctional Pharmacy,FRENCH CAMP, SAN JOAQUIN, 95231
493,SAN JOSE COMPOUNDING PHARMACY ,License Type: Pharmacy (Community),SAN JOSE, SANTA CLARA, 95128
494,SAN JOSE PHARMACY ,License Type: Pharmacy (Community),SAN JOSE, SANTA CLARA, 95116
495,SAN MATEO MEDICAL CENTER ,License Type: Pharmacy (Government Owned Community),SAN MATEO, SAN MATEO, 94403
496,SAN MATEO MEDICAL CENTER LTC PHARMACY ,License Type: Pharmacy (Government Owned Community),SAN MATEO, SAN MATEO, 94403
497,SAN MATEO NEIGHBORHOOD PHARMACY ,License Type: Pharmacy (Community),SAN MATEO, SAN MATEO, 94403
498,SAN YSIDRO PHARMACY INC ,License Type: Pharmacy (Community),Accusation filed, SANTA BARBARA, 93108
499,SANTA BARBARA COTTAGE HOSPITAL DISCHARGE PHARMACY ,License Type: Pharmacy (Community),SANTA BARBARA, SANTA BARBARA, 93102
500,SANTA BARBARA SPECIALTY PHARMACY LLC ,License Type: Pharmacy (Community),CARPINTERIA, SANTA BARBARA, 93013
501,SANTA CLARA VALLEY MED CTR-OUTPATNT PHY ,License Type: Pharmacy (Government Owned Community),SAN JOSE, SANTA CLARA, 95128
502,SANTA CLARA VALLEY MEDICAL CENTER - ONCOLOGY INFUSION PHARMACY ,License Type: Pharmacy (Government Owned Community),SAN JOSE, SANTA CLARA, 95128
503,SANTA CLARA VALLEY MEDICAL CENTER DISCHARGE PHARMACY ,License Type: Pharmacy (Government Owned Community),SAN JOSE, SANTA CLARA, 95128
504,SANTA CRUZ RX ,License Type: Pharmacy (Community),PASO ROBLES, SAN LUIS OBISPO, 93446
505,SAV-ON PHARMACY #1348 ,License Type: Pharmacy (Community),SANTA MARIA, SANTA BARBARA, 93454
506,SAV-ON PHARMACY #1394 ,License Type: Pharmacy (Community),ORCUTT, SANTA BARBARA, 93455
507,SAV-ON PHARMACY #314 ,License Type: Pharmacy (Community),PASO ROBLES, SAN LUIS OBISPO, 93446
508,SAV-ON PHARMACY #3171 ,License Type: Pharmacy (Community),LOMPOC, SANTA BARBARA, 93436
509,SAV-ON PHARMACY #355 ,License Type: Pharmacy (Community),CARPINTERIA, SANTA BARBARA, 93013
510,SAVCO PHARMACY ,License Type: Pharmacy (Community),SAN JOSE, SANTA CLARA, 95128
511,SAVE MART SUPERMARKETS #100 ,License Type: Pharmacy (Community),RIPON, SAN JOAQUIN, 95366
512,SAVE MART SUPERMARKETS #39 ,License Type: Pharmacy (Community),STOCKTON, SAN JOAQUIN, 95207
513,SAVE MART SUPERMARKETS #781 ,License Type: Pharmacy (Community),TRACY, SAN JOAQUIN, 95376
514,SAVE MART SUPERMARKETS #94 ,License Type: Pharmacy (Community),LATHROP, SAN JOAQUIN, 95330
515,SCRIPTSITE PHARMACY ,License Type: Pharmacy (Community),SAN FRANCISCO, SAN FRANCISCO, 94102
516,SCVH & HS REFILL CENTER PHARMACY ,License Type: Pharmacy (Government Owned Community),SAN JOSE, SANTA CLARA, 95128
517,SENTER PHARMACY INC. ,License Type: Pharmacy (Community),SAN JOSE, SANTA CLARA, 95111
518,SEVENTEEN FIFTY MEDICAL CENTER PHARMACY ,License Type: Pharmacy (Community),BURLINGAME, SAN MATEO, 94010
519,SILICON VALLEY PHARMACY ,License Type: Pharmacy (Community),Public Reprimand, SANTA CLARA, 95032
520,SOFIE CO ,License Type: Pharmacy (Community),GILROY, SANTA CLARA, 95020
521,SORCI HEALTHCARE LTC PHARMACY ,License Type: Pharmacy (Community),LOS GATOS, SANTA CLARA, 95032
522,SORCI HEALTHCARE PHARMACY ,License Type: Pharmacy (Community),LOS GATOS, SANTA CLARA, 95032
523,SOUTH COUNTY COMMUNITY HEALTH CENTER INC DBA RAVENSWOOD FAMILY HE ,License Type: Pharmacy (Community),EAST PALO ALTO, SAN MATEO, 94303
524,SOUTH VALLEY PHARMACY SERVICES ,License Type: Pharmacy (Community),GILROY, SANTA CLARA, 95020
525,ST JAMES HEALTH CENTER PHARMACY ,License Type: Pharmacy (Community),SAN JOSE, SANTA CLARA, 95112
526,ST MARY'S MEDICAL CENTER CLINIC PHY ,License Type: Pharmacy (Community),SAN FRANCISCO, SAN FRANCISCO, 94117
527,STANFORD HEALTH CARE ,License Type: Pharmacy (Community),REDWOOD CITY, SAN MATEO, 94063
528,STANFORD HEALTH CARE ,License Type: Pharmacy (Community),REDWOOD CITY, SAN MATEO, 94063
529,STANFORD HEALTH CARE ,License Type: Pharmacy (Community),STANFORD, SANTA CLARA, 94305
530,STANFORD HEALTH CARE PAVILION C-1 PHARMACY ,License Type: Pharmacy (Community),REDWOOD CITY, SAN MATEO, 94063
531,STANFORD HEALTH CARE PHARMACY ,License Type: Pharmacy (Community),PALO ALTO, SANTA CLARA, 94305
532,STANFORD NEUROSCIENCE HEALTH CENTER PHARMACY ,License Type: Pharmacy (Community),STANFORD, SANTA CLARA, 94305
533,STANFORD SOUTH BAY CANCER CENTER PHARMACY ,License Type: Pharmacy (Community),SAN JOSE, SANTA CLARA, 95124
534,STANFORD UNIV STUDENT HEALTH CTR PHY ,License Type: Pharmacy (Community),STANFORD, SANTA CLARA, 94305
535,STAR DRUG CO ,License Type: Pharmacy (Community),SANTA YNEZ, SANTA BARBARA, 93460
536,STARS PHARMACY ,License Type: Pharmacy (Community),GUADALUPE, SANTA BARBARA, 93434
537,STRIPLIN'S PHARMACY ,License Type: Pharmacy (Community),MANTECA, SAN JOAQUIN, 95336
538,STUDENT HEALTH SERV PHCY SF ,License Type: Pharmacy (Government Owned Community),SAN FRANCISCO, SAN FRANCISCO, 94132
539,STUDENT HEALTH SERVICES ,License Type: Pharmacy (Government Owned Community),SAN JOSE, SANTA CLARA, 95192
540,SUN PHARMACY ,License Type: Pharmacy (Community),SAN JOSE, SANTA CLARA, 95122
541,SUNSHINE CENTER PHARMACY ,License Type: Pharmacy (Community),S SAN FRANCISCO, SAN MATEO, 94080
542,SUTTER PROFESSIONAL PHARMACY ,License Type: Pharmacy (Community),SAN FRANCISCO, SAN FRANCISCO, 94115
543,SUTTER TRACY OUTPATIENT PHARMACY ,License Type: Pharmacy (Community),TRACY, SAN JOAQUIN, 95376
544,TED'S VILLAGE PHARMACY INC ,License Type: Pharmacy (Community),SAN MATEO, SAN MATEO, 94403
545,THE PILL CLUB ,License Type: Pharmacy (Community),SAN CARLOS, SAN MATEO, 94070
546,THOUSAND CRANES PHARMACY ,License Type: Pharmacy (Community),SAN FRANCISCO, SAN FRANCISCO, 94115
547,THRIFTY PAYLESS INC DBA RITE AID #5822 ,License Type: Pharmacy (Community),SAN LUIS OBISPO, SAN LUIS OBISPO, 93405
548,TIFFANY THU INC DBA KING PHARMACY & DME ,License Type: Pharmacy (Community),SAN JOSE, SANTA CLARA, 95116
549,TORGSYN DISCOUNT PHARMACY ,License Type: Pharmacy (Community),SAN FRANCISCO, SAN FRANCISCO, 94121
550,TRI-CITY PHARMACY ,License Type: Pharmacy (Community),MILPITAS, SANTA CLARA, 95035
551,TRIAD ISOTOPES ,License Type: Pharmacy (Community),SOUTH SAN FRANCISCO, SAN MATEO, 94080
552,TULLY MEDICAL CLINIC PHARMACY ,License Type: Pharmacy (Community),SAN JOSE, SANTA CLARA, 95121
553,UCSB STUDENT HEALTH SERVICE PHARMACY ,License Type: Pharmacy (Government Owned Community),SANTA BARBARA, SANTA BARBARA, 93106
554,UCSF AMBULATORY CARE CTR OUTPATIENT ,License Type: Pharmacy (Government Owned Community),SAN FRANCISCO, SAN FRANCISCO, 94143
555,VALLEY HEALTH CENTER AT BASCOM PHARMACY ,License Type: Pharmacy (Government Owned Community),SAN JOSE, SANTA CLARA, 95128
556,VALLEY HEALTH CENTER AT DOWNTOWN PHARMACY ,License Type: Pharmacy (Government Owned Community),SAN JOSE, SANTA CLARA, 95112
557,VALLEY HEALTH CENTER AT EAST VALLEY PHARMACY ,License Type: Pharmacy (Government Owned Community),SAN JOSE, SANTA CLARA, 95116
558,VALLEY HEALTH CENTER AT GILROY PHARMACY ,License Type: Pharmacy (Government Owned Community),GILROY, SANTA CLARA, 95020
559,VALLEY HEALTH CENTER AT LENZEN PHARMACY ,License Type: Pharmacy (Government Owned Community),SAN JOSE, SANTA CLARA, 95126
560,VALLEY HEALTH CENTER AT MOORPARK PHARMACY ,License Type: Pharmacy (Government Owned Community),SAN JOSE, SANTA CLARA, 95128
561,VALLEY HEALTH CENTER AT SUNNYVALE PHARMACY ,License Type: Pharmacy (Government Owned Community),SUNNYVALE, SANTA CLARA, 94086
562,VALLEY HEALTH CENTER AT TULLY PHARMACY ,License Type: Pharmacy (Government Owned Community),SAN JOSE, SANTA CLARA, 95111
563,VHC @ MILPITAS PHARMACY ,License Type: Pharmacy (Government Owned Community),MILPITAS, SANTA CLARA, 95035
564,VIET TOWN PHARMACY ,License Type: Pharmacy (Community),SAN JOSE, SANTA CLARA, 95122
565,VINEYARD PHARMACY & GIFTS ,License Type: Pharmacy (Community),ESCALON, SAN JOAQUIN, 95320
566,VISITACION VALLEY PHARMACY ,License Type: Pharmacy (Community),SAN FRANCISCO, SAN FRANCISCO, 94134
567,VONS PHARMACY #1621 ,License Type: Pharmacy (Community),NIPOMO, SAN LUIS OBISPO, 93444
568,VONS PHARMACY #1738 ,License Type: Pharmacy (Community),LOMPOC, SANTA BARBARA, 93436
569,VONS PHARMACY #2101 ,License Type: Pharmacy (Community),MONTECITO, SANTA BARBARA, 93108
570,VONS PHARMACY #2306 ,License Type: Pharmacy (Community),SAN LUIS OBISPO, SAN LUIS OBISPO, 93401
571,VONS PHARMACY #2560 ,License Type: Pharmacy (Community),GROVER BEACH, SAN LUIS OBISPO, 93433
572,WAL MART PHARMACY  10 1989 ,License Type: Pharmacy (Community),LOMPOC, SANTA BARBARA, 93436
573,WAL MART PHARMACY 10 2119 ,License Type: Pharmacy (Community),MILPITAS, SANTA CLARA, 95035
574,WAL-MART PHARMACY #10-1554 ,License Type: Pharmacy (Community),STOCKTON, SAN JOAQUIN, 95212
575,WAL-MART PHARMACY 10-1840 ,License Type: Pharmacy (Community),MANTECA, SAN JOAQUIN, 95337
576,WAL-MART PHARMACY 10-2002 ,License Type: Pharmacy (Community),GILROY, SANTA CLARA, 95020
577,WAL-MART PHARMACY 10-2025 ,License Type: Pharmacy (Community),TRACY, SAN JOAQUIN, 95304
578,WAL-MART PHARMACY 10-2099 ,License Type: Pharmacy (Community),PASO ROBLES, SAN LUIS OBISPO, 93446
579,WAL-MART PHARMACY 10-3022 ,License Type: Pharmacy (Community),STOCKTON, SAN JOAQUIN, 95210
580,WAL-MART PHARMACY 10-3023 ,License Type: Pharmacy (Community),SAN JOSE, SANTA CLARA, 95135
581,WAL-MART PHARMACY 10-3025 ,License Type: Pharmacy (Community),SAN JOSE, SANTA CLARA, 95129
582,WAL-MART PHARMACY 10-3352 ,License Type: Pharmacy (Community),STOCKTON, SAN JOAQUIN, 95219
583,WAL-MART PHARMACY 10-5658 ,License Type: Pharmacy (Community),SANTA MARIA, SANTA BARBARA, 93454
584,WAL-MART PHARMACY 10-5659 ,License Type: Pharmacy (Community),SANTA MARIA, SANTA BARBARA, 93454
585,WAL-MART PHARMACY 10-5766 ,License Type: Pharmacy (Community),MORGAN HILL, SANTA CLARA, 95037
586,WAL-MART STORES 10-5884 ,License Type: Pharmacy (Community),SAN JOSE, SANTA CLARA, 95118
587,WALGREENS #00063 ,License Type: Pharmacy (Community),BELMONT, SAN MATEO, 94002
588,WALGREENS #00324 ,License Type: Pharmacy (Community),DALY CITY, SAN MATEO, 94015
589,WALGREENS #00625 ,License Type: Pharmacy (Community),MILLBRAE, SAN MATEO, 94030
590,WALGREENS #00689 ,License Type: Pharmacy (Community),MOUNTAIN VIEW, SANTA CLARA, 94040
591,WALGREENS #00840 ,License Type: Pharmacy (Community),SAN JOSE, SANTA CLARA, 95129
592,WALGREENS #00842 ,License Type: Pharmacy (Community),SAN JOSE, SANTA CLARA, 95133
593,WALGREENS #00887 ,License Type: Pharmacy (Community),SAN FRANCISCO, SAN FRANCISCO, 94109
594,WALGREENS #00890 ,License Type: Pharmacy (Community),SAN FRANCISCO, SAN FRANCISCO, 94102
595,WALGREENS #00893 ,License Type: Pharmacy (Community),SAN FRANCISCO, SAN FRANCISCO, 94133
596,WALGREENS #00896 ,License Type: Pharmacy (Community),SAN FRANCISCO, SAN FRANCISCO, 94118
597,WALGREENS #00900 ,License Type: Pharmacy (Community),SAN JOSE, SANTA CLARA, 95132
598,WALGREENS #01054 ,License Type: Pharmacy (Community),SAN FRANCISCO, SAN FRANCISCO, 94110
599,WALGREENS #01109 ,License Type: Pharmacy (Community),SAN FRANCISCO, SAN FRANCISCO, 94131
600,WALGREENS #01120 ,License Type: Pharmacy (Community),SAN FRANCISCO, SAN FRANCISCO, 94112
601,WALGREENS #01126 ,License Type: Pharmacy (Community),SAN FRANCISCO, SAN FRANCISCO, 94103
602,WALGREENS #01179 ,License Type: Pharmacy (Community),SAN JOSE, SANTA CLARA, 95121
603,WALGREENS #01241 ,License Type: Pharmacy (Community),SAN FRANCISCO, SAN FRANCISCO, 94116
604,WALGREENS #01283 ,License Type: Pharmacy (Community),SAN FRANCISCO, SAN FRANCISCO, 94102
605,WALGREENS #01297 ,License Type: Pharmacy (Community),SAN FRANCISCO, SAN FRANCISCO, 94107
606,WALGREENS #01327 ,License Type: Pharmacy (Community),SAN FRANCISCO, SAN FRANCISCO, 94114
607,WALGREENS #01393 ,License Type: Pharmacy (Community),SAN FRANCISCO, SAN FRANCISCO, 94112
608,WALGREENS #01403 ,License Type: Pharmacy (Community),SAN FRANCISCO, SAN FRANCISCO, 94123
609,WALGREENS #01626 ,License Type: Pharmacy (Community),SAN FRANCISCO, SAN FRANCISCO, 94134
610,WALGREENS #01807 ,License Type: Pharmacy (Community),DALY CITY, SAN MATEO, 94014
611,WALGREENS #02005 ,License Type: Pharmacy (Community),SAN FRANCISCO, SAN FRANCISCO, 94132
612,WALGREENS #02081 ,License Type: Pharmacy (Community),SAN JOSE, SANTA CLARA, 95122
613,WALGREENS #02088 ,License Type: Pharmacy (Community),SAN FRANCISCO, SAN FRANCISCO, 94114
614,WALGREENS #02125 ,License Type: Pharmacy (Community),SAN FRANCISCO, SAN FRANCISCO, 94133
615,WALGREENS #02126 ,License Type: Pharmacy (Community),Probation, SAN MATEO, 94070
616,WALGREENS #02152 ,License Type: Pharmacy (Community),SAN FRANCISCO, SAN FRANCISCO, 94115
617,WALGREENS #02153 ,License Type: Pharmacy (Community),SAN FRANCISCO, SAN FRANCISCO, 94102
618,WALGREENS #02244 ,License Type: Pharmacy (Community),SAN FRANCISCO, SAN FRANCISCO, 94124
619,WALGREENS #02265 ,License Type: Pharmacy (Community),SAN JOSE, SANTA CLARA, 95125
620,WALGREENS #02384 ,License Type: Pharmacy (Community),SAN JOSE, SANTA CLARA, 95124
621,WALGREENS #02434 ,License Type: Pharmacy (Community),TRACY, SAN JOAQUIN, 95376
622,WALGREENS #02521 ,License Type: Pharmacy (Community),SAN FRANCISCO, SAN FRANCISCO, 94104
623,WALGREENS #02612 ,License Type: Pharmacy (Community),SANTA CLARA, SANTA CLARA, 95050
624,WALGREENS #02680 ,License Type: Pharmacy (Community),STOCKTON, SAN JOAQUIN, 95204
625,WALGREENS #02705 ,License Type: Pharmacy (Community),SAN FRANCISCO, SAN FRANCISCO, 94122
626,WALGREENS #02739 ,License Type: Pharmacy (Community),SAN JOSE, SANTA CLARA, 95123
627,WALGREENS #02740 ,License Type: Pharmacy (Community),SANTA CLARA, SANTA CLARA, 95051
628,WALGREENS #02770 ,License Type: Pharmacy (Community),STOCKTON, SAN JOAQUIN, 95210
629,WALGREENS #02786 ,License Type: Pharmacy (Community),LOS GATOS, SANTA CLARA, 95032
630,WALGREENS #02866 ,License Type: Pharmacy (Community),SAN FRANCISCO, SAN FRANCISCO, 94115
631,WALGREENS #02939 ,License Type: Pharmacy (Community),SAN BRUNO, SAN MATEO, 94066
632,WALGREENS #02957 ,License Type: Pharmacy (Community),CAMPBELL, SANTA CLARA, 95008
633,WALGREENS #02961 ,License Type: Pharmacy (Community),LODI, SAN JOAQUIN, 95242
634,WALGREENS #03185 ,License Type: Pharmacy (Community),SAN FRANCISCO, SAN FRANCISCO, 94103
635,WALGREENS #03296 ,License Type: Pharmacy (Community),SAN MATEO, SAN MATEO, 94401
636,WALGREENS #03344 ,License Type: Pharmacy (Community),PALO ALTO, SANTA CLARA, 94306
637,WALGREENS #03346 ,License Type: Pharmacy (Community),SOUTH SAN FRANCISCO, SAN MATEO, 94080
638,WALGREENS #03358 ,License Type: Pharmacy (Community),SAN FRANCISCO, SAN FRANCISCO, 94109
639,WALGREENS #03378 ,License Type: Pharmacy (Community),SAN JOSE, SANTA CLARA, 95118
640,WALGREENS #03380 ,License Type: Pharmacy (Community),SUNNYVALE, SANTA CLARA, 94087
641,WALGREENS #03383 ,License Type: Pharmacy (Community),SAN FRANCISCO, SAN FRANCISCO, 94108
642,WALGREENS #03445 ,License Type: Pharmacy (Community),SAN JOSE, SANTA CLARA, 95148
643,WALGREENS #03475 ,License Type: Pharmacy (Community),SAN FRANCISCO, SAN FRANCISCO, 94121
644,WALGREENS #03624 ,License Type: Pharmacy (Community),SAN FRANCISCO, SAN FRANCISCO, 94111
645,WALGREENS #03671 ,License Type: Pharmacy (Community),MILPITAS, SANTA CLARA, 95035
646,WALGREENS #03706 ,License Type: Pharmacy (Community),SAN FRANCISCO, SAN FRANCISCO, 94118
647,WALGREENS #03707 ,License Type: Pharmacy (Community),SAN FRANCISCO, SAN FRANCISCO, 94115
648,WALGREENS #03711 ,License Type: Pharmacy (Community),SAN FRANCISCO, SAN FRANCISCO, 94110
649,WALGREENS #03754 ,License Type: Pharmacy (Community),SAN JOSE, SANTA CLARA, 95126
650,WALGREENS #03849 ,License Type: Pharmacy (Community),SAN FRANCISCO, SAN FRANCISCO, 94118
651,WALGREENS #03869 ,License Type: Pharmacy (Community),SAN FRANCISCO, SAN FRANCISCO, 94122
652,WALGREENS #04231 ,License Type: Pharmacy (Community),SAN FRANCISCO, SAN FRANCISCO, 94110
653,WALGREENS #04275 ,License Type: Pharmacy (Community),SAN FRANCISCO, SAN FRANCISCO, 94105
654,WALGREENS #04318 ,License Type: Pharmacy (Community),SAN FRANCISCO, SAN FRANCISCO, 94114
655,WALGREENS #04372 ,License Type: Pharmacy (Community),SAN JOSE, SANTA CLARA, 95112
656,WALGREENS #04416 ,License Type: Pharmacy (Community),CUPERTINO, SANTA CLARA, 95014
657,WALGREENS #04492 ,License Type: Pharmacy (Community),SAN FRANCISCO, SAN FRANCISCO, 94111
658,WALGREENS #04516 ,License Type: Pharmacy (Community),MORGAN HILL, SANTA CLARA, 95037
659,WALGREENS #04529 ,License Type: Pharmacy (Community),SAN FRANCISCO, SAN FRANCISCO, 94114
660,WALGREENS #04558 ,License Type: Pharmacy (Community),SAN FRANCISCO, SAN FRANCISCO, 94102
661,WALGREENS #04570 ,License Type: Pharmacy (Community),SAN FRANCISCO, SAN FRANCISCO, 94116
662,WALGREENS #04609 ,License Type: Pharmacy (Community),SAN FRANCISCO, SAN FRANCISCO, 94103
663,WALGREENS #04680 ,License Type: Pharmacy (Community),SAN FRANCISCO, SAN FRANCISCO, 94102
664,WALGREENS #05006 ,License Type: Pharmacy (Community),SAN MATEO, SAN MATEO, 94403
665,WALGREENS #05219 ,License Type: Pharmacy (Community),SAN JOSE, SANTA CLARA, 95113
666,WALGREENS #05365 ,License Type: Pharmacy (Community),DALY CITY, SAN MATEO, 94014
667,WALGREENS #05454 ,License Type: Pharmacy (Community),SAN JOSE, SANTA CLARA, 95116
668,WALGREENS #05480 ,License Type: Pharmacy (Community),MILPITAS, SANTA CLARA, 95035
669,WALGREENS #05487 ,License Type: Pharmacy (Community),SAN FRANCISCO, SAN FRANCISCO, 94124
670,WALGREENS #05599 ,License Type: Pharmacy (Community),SAN FRANCISCO, SAN FRANCISCO, 94109
671,WALGREENS #06287 ,License Type: Pharmacy (Community),SANTA MARIA, SANTA BARBARA, 93454
672,WALGREENS #06288 ,License Type: Pharmacy (Community),SANTA MARIA, SANTA BARBARA, 93454
673,WALGREENS #06289 ,License Type: Pharmacy (Community),GOLETA, SANTA BARBARA, 93117
674,WALGREENS #06290 ,License Type: Pharmacy (Community),LOMPOC, SANTA BARBARA, 93436
675,WALGREENS #06291 ,License Type: Pharmacy (Community),SAN FRANCISCO, SAN FRANCISCO, 94105
676,WALGREENS #06557 ,License Type: Pharmacy (Community),SAN FRANCISCO, SAN FRANCISCO, 94117
677,WALGREENS #06585 ,License Type: Pharmacy (Community),CAMPBELL, SANTA CLARA, 95008
678,WALGREENS #06625 ,License Type: Pharmacy (Community),SAN FRANCISCO, SAN FRANCISCO, 94123
679,WALGREENS #06655 ,License Type: Pharmacy (Community),BURLINGAME, SAN MATEO, 94010
680,WALGREENS #06869 ,License Type: Pharmacy (Community),PALO ALTO, SANTA CLARA, 94306
681,WALGREENS #07043 ,License Type: Pharmacy (Community),SAN FRANCISCO, SAN FRANCISCO, 94102
682,WALGREENS #07044 ,License Type: Pharmacy (Community),SAN FRANCISCO, SAN FRANCISCO, 94105
683,WALGREENS #07079 ,License Type: Pharmacy (Community),SAN JOSE, SANTA CLARA, 95125
684,WALGREENS #07080 ,License Type: Pharmacy (Community),SUNNYVALE, SANTA CLARA, 94087
685,WALGREENS #07087 ,License Type: Pharmacy (Community),MENLO PARK, SAN MATEO, 94025
686,WALGREENS #07088 ,License Type: Pharmacy (Community),LOS ALTOS, SANTA CLARA, 94022
687,WALGREENS #07150 ,License Type: Pharmacy (Community),SAN FRANCISCO, SAN FRANCISCO, 94112
688,WALGREENS #07210 ,License Type: Pharmacy (Community),ATASCADERO, SAN LUIS OBISPO, 93422
689,WALGREENS #07326 ,License Type: Pharmacy (Community),LOS GATOS, SANTA CLARA, 95030
690,WALGREENS #07970 ,License Type: Pharmacy (Community),MILLBRAE, SAN MATEO, 94030
691,WALGREENS #09516 ,License Type: Pharmacy (Community),GILROY, SANTA CLARA, 95020
692,WALGREENS #09716 ,License Type: Pharmacy (Community),RIPON, SAN JOAQUIN, 95366
693,WALGREENS #09723 ,License Type: Pharmacy (Community),STOCKTON, SAN JOAQUIN, 95209
694,WALGREENS #09782 ,License Type: Pharmacy (Community),SUNNYVALE, SANTA CLARA, 94087
695,WALGREENS #09886 ,License Type: Pharmacy (Community),SAN FRANCISCO, SAN FRANCISCO, 94110
696,WALGREENS #10044 ,License Type: Pharmacy (Community),SAN FRANCISCO, SAN FRANCISCO, 94114
697,WALGREENS #10454 ,License Type: Pharmacy (Community),MANTECA, SAN JOAQUIN, 95336
698,WALGREENS #10482 ,License Type: Pharmacy (Community),STOCKTON, SAN JOAQUIN, 95210
699,WALGREENS #10631 ,License Type: Pharmacy (Community),LATHROP, SAN JOAQUIN, 95330
700,WALGREENS #10766 ,License Type: Pharmacy (Community),TRACY, SAN JOAQUIN, 95377
701,WALGREENS #11261 ,License Type: Pharmacy (Community),PACIFICA, SAN MATEO, 94044
702,WALGREENS #11385 ,License Type: Pharmacy (Community),SAN FRANCISCO, SAN FRANCISCO, 94110
703,WALGREENS #12257 ,License Type: Pharmacy (Community),BURLINGAME, SAN MATEO, 94010
704,WALGREENS #12548 ,License Type: Pharmacy (Community),SAN JOSE, SANTA CLARA, 95118
705,WALGREENS #12549 ,License Type: Pharmacy (Community),STOCKTON, SAN JOAQUIN, 95205
706,WALGREENS #13583 ,License Type: Pharmacy (Community),SAN FRANCISCO, SAN FRANCISCO, 94109
707,WALGREENS #13596 ,License Type: Pharmacy (Community),PALO ALTO, SANTA CLARA, 94301
708,WALGREENS #13666 ,License Type: Pharmacy (Community),SAN FRANCISCO, SAN FRANCISCO, 94109
709,WALGREENS #13667 ,License Type: Pharmacy (Community),SAN FRANCISCO, SAN FRANCISCO, 94118
710,WALGREENS #13668 ,License Type: Pharmacy (Community),SAN FRANCISCO, SAN FRANCISCO, 94102
711,WALGREENS #13670 ,License Type: Pharmacy (Community),SAN FRANCISCO, SAN FRANCISCO, 94127
712,WALGREENS #13948 ,License Type: Pharmacy (Community),MOUNTAIN VIEW, SANTA CLARA, 94040
713,WALGREENS #13984 ,License Type: Pharmacy (Community),STOCKTON, SAN JOAQUIN, 95205
714,WALGREENS #15127 ,License Type: Pharmacy (Community),SAN FRANCISCO, SAN FRANCISCO, 94133
715,WALGREENS #15246 ,License Type: Pharmacy (Community),SANTA CLARA, SANTA CLARA, 95050
716,WALGREENS #15331 ,License Type: Pharmacy (Community),SAN FRANCISCO, SAN FRANCISCO, 94143
717,WALGREENS #15397 ,License Type: Pharmacy (Community),SOUTH SAN FRANCISCO, SAN MATEO, 94080
718,WALGREENS #15398 ,License Type: Pharmacy (Community),STOCKTON, SAN JOAQUIN, 95207
719,WALGREENS #16373 ,License Type: Pharmacy (Community),SAN FRANCISCO, SAN FRANCISCO, 94158
720,WALGREENS #16564 ,License Type: Pharmacy (Community),PALO ALTO, SANTA CLARA, 94301
721,WALMART PHARMACY #10-5435 ,License Type: Pharmacy (Community),SAN JOSE, SANTA CLARA, 95122
722,WALMART PHARMACY 10-1789 ,License Type: Pharmacy (Community),LODI, SAN JOAQUIN, 95242
723,WALMART PHARMACY 10-2280 ,License Type: Pharmacy (Community),MOUNTAIN VIEW, SANTA CLARA, 94040
724,WALMART PHARMACY 10-2486 ,License Type: Pharmacy (Community),SAN JOSE, SANTA CLARA, 95129
725,WALMART PHARMACY 10-3123 ,License Type: Pharmacy (Community),SANTA CLARA, SANTA CLARA, 95054
726,WALMART PHARMACY 10-4174 ,License Type: Pharmacy (Community),SAN JOSE, SANTA CLARA, 95112
727,WALMART PHARMACY NO 10 2507 ,License Type: Pharmacy (Community),SANTA MARIA, SANTA BARBARA, 93455
728,WALMART PHARMACY NO 10 2556 ,License Type: Pharmacy (Community),ARROYO GRANDE, SAN LUIS OBISPO, 93420
729,WELLMAN'S PHARMACY ,License Type: Pharmacy (Community),SAN FRANCISCO, SAN FRANCISCO, 94133
730,WELLMAN'S PHARMACY ,License Type: Pharmacy (Community),SAN FRANCISCO, SAN FRANCISCO, 94108
731,WELLNESS PHARMACY ,License Type: Pharmacy (Community),LOS GATOS, SANTA CLARA, 95032
732,YOUNGS PAYLESS PHARMACY ,License Type: Pharmacy (Community),LOCKEFORD, SAN JOAQUIN, 95237
